{
"type": "FeatureCollection",
"name": "cooling_centers",
"features": [
{ "type": "Feature", "properties": { "name": "Petco Little Neck", "location_type": "Indoor", "accessible": "Yes" }, "geometry": { "type": "Point", "coordinates": [ -73.726118, 40.764928 ] } },
{ "type": "Feature", "properties": { "name": "Petco Jackson Heights", "location_type": "Indoor", "accessible": "Yes" }, "geometry": { "type": "Point", "coordinates": [ -73.892264, 40.758897 ] } },
{ "type": "Feature", "properties": { "name": "Central Library", "location_type": "Indoor", "accessible": "Yes" }, "geometry": { "type": "Point", "coordinates": [ -73.794644, 40.707805 ] } },
{ "type": "Feature", "properties": { "name": "Petco College Point", "location_type": "Indoor", "accessible": "Yes" }, "geometry": { "type": "Point", "coordinates": [ -73.835208, 40.783279 ] } },
{ "type": "Feature", "properties": { "name": "Petco Forest Hills", "location_type": "Indoor", "accessible": "Yes" }, "geometry": { "type": "Point", "coordinates": [ -73.857895, 40.711801 ] } },
{ "type": "Feature", "properties": { "name": "Far Rockaway Library", "location_type": "Indoor", "accessible": "Yes" }, "geometry": { "type": "Point", "coordinates": [ -73.752473, 40.604321 ] } },
{ "type": "Feature", "properties": { "name": "Hunters Point Library", "location_type": "Indoor", "accessible": "Yes" }, "geometry": { "type": "Point", "coordinates": [ -73.958025, 40.745287 ] } },
{ "type": "Feature", "properties": { "name": "Petco Rego Park", "location_type": "Indoor", "accessible": "Yes" }, "geometry": { "type": "Point", "coordinates": [ -73.863217, 40.733549 ] } },
{ "type": "Feature", "properties": { "name": "Jackson Heights Library", "location_type": "Indoor", "accessible": "Yes" }, "geometry": { "type": "Point", "coordinates": [ -73.88507, 40.75021 ] } },
{ "type": "Feature", "properties": { "name": "Glen Oaks Library", "location_type": "Indoor", "accessible": "Yes" }, "geometry": { "type": "Point", "coordinates": [ -73.714846, 40.745145 ] } },
{ "type": "Feature", "properties": { "name": "Flushing Library", "location_type": "Indoor", "accessible": "Yes" }, "geometry": { "type": "Point", "coordinates": [ -73.828878, 40.757791 ] } },
{ "type": "Feature", "properties": { "name": "North Hills Library", "location_type": "Indoor", "accessible": "Yes" }, "geometry": { "type": "Point", "coordinates": [ -73.73183, 40.759254 ] } },
{ "type": "Feature", "properties": { "name": "Corona Library", "location_type": "Indoor", "accessible": "Yes" }, "geometry": { "type": "Point", "coordinates": [ -73.861981, 40.750899 ] } },
{ "type": "Feature", "properties": { "name": "Bellerose Library", "location_type": "Indoor", "accessible": "Yes" }, "geometry": { "type": "Point", "coordinates": [ -73.717098, 40.735167 ] } },
{ "type": "Feature", "properties": { "name": "North Forest Park Library", "location_type": "Indoor", "accessible": "Yes" }, "geometry": { "type": "Point", "coordinates": [ -73.853673, 40.711195 ] } },
{ "type": "Feature", "properties": { "name": "Richmond Hill Library", "location_type": "Indoor", "accessible": "Yes" }, "geometry": { "type": "Point", "coordinates": [ -73.83163, 40.70082 ] } },
{ "type": "Feature", "properties": { "name": "McGoldrick Library", "location_type": "Indoor", "accessible": "Yes" }, "geometry": { "type": "Point", "coordinates": [ -73.809834, 40.763755 ] } },
{ "type": "Feature", "properties": { "name": "Middle Village OAC -OLDER ADULTS ONLY", "location_type": "Indoor", "accessible": "Yes" }, "geometry": { "type": "Point", "coordinates": [ -73.876914, 40.709227 ] } },
{ "type": "Feature", "properties": { "name": "Rosedale Library", "location_type": "Indoor", "accessible": "Yes" }, "geometry": { "type": "Point", "coordinates": [ -73.739908, 40.659972 ] } },
{ "type": "Feature", "properties": { "name": "Italian Senior Citizens  Center Inc OAC -OLDER ADULTS ONLY", "location_type": "Indoor", "accessible": "Yes" }, "geometry": { "type": "Point", "coordinates": [ -73.879746, 40.736803 ] } },
{ "type": "Feature", "properties": { "name": "Cambria Heights Library", "location_type": "Indoor", "accessible": "Yes" }, "geometry": { "type": "Point", "coordinates": [ -73.741136, 40.695745 ] } },
{ "type": "Feature", "properties": { "name": "Young Israel Programs Forest Hills OAC -OLDER ADULTS ONLY", "location_type": "Indoor", "accessible": "Yes" }, "geometry": { "type": "Point", "coordinates": [ -73.851788, 40.721624 ] } },
{ "type": "Feature", "properties": { "name": "Sunnyside Library", "location_type": "Indoor", "accessible": "Yes" }, "geometry": { "type": "Point", "coordinates": [ -73.921671, 40.740812 ] } },
{ "type": "Feature", "properties": { "name": "Bay Terrace Library", "location_type": "Indoor", "accessible": "Yes" }, "geometry": { "type": "Point", "coordinates": [ -73.777015, 40.782536 ] } },
{ "type": "Feature", "properties": { "name": "Elmhurst Library", "location_type": "Indoor", "accessible": "Yes" }, "geometry": { "type": "Point", "coordinates": [ -73.877012, 40.738414 ] } },
{ "type": "Feature", "properties": { "name": "Windsor Park Library", "location_type": "Indoor", "accessible": "Yes" }, "geometry": { "type": "Point", "coordinates": [ -73.755686, 40.734497 ] } },
{ "type": "Feature", "properties": { "name": "East Elmhurst Library", "location_type": "Indoor", "accessible": "Yes" }, "geometry": { "type": "Point", "coordinates": [ -73.873873, 40.762426 ] } },
{ "type": "Feature", "properties": { "name": "Briarwood Library", "location_type": "Indoor", "accessible": "Yes" }, "geometry": { "type": "Point", "coordinates": [ -73.819459, 40.710042 ] } },
{ "type": "Feature", "properties": { "name": "JASA Holliswood OAC -OLDER ADULTS ONLY", "location_type": "Indoor", "accessible": "Yes" }, "geometry": { "type": "Point", "coordinates": [ -73.764804, 40.72507 ] } },
{ "type": "Feature", "properties": { "name": "South Ozone Park Library", "location_type": "Indoor", "accessible": "Yes" }, "geometry": { "type": "Point", "coordinates": [ -73.809263, 40.674784 ] } },
{ "type": "Feature", "properties": { "name": "Broad Channel Library", "location_type": "Indoor", "accessible": "Yes" }, "geometry": { "type": "Point", "coordinates": [ -73.820053, 40.60074 ] } },
{ "type": "Feature", "properties": { "name": "HANAC Angelo Petromelis Older Adult Center -OLDER ADULTS ONLY", "location_type": "Indoor", "accessible": "Yes" }, "geometry": { "type": "Point", "coordinates": [ -73.845026, 40.785798 ] } },
{ "type": "Feature", "properties": { "name": "Arverne Library", "location_type": "Indoor", "accessible": "Yes" }, "geometry": { "type": "Point", "coordinates": [ -73.784041, 40.593153 ] } },
{ "type": "Feature", "properties": { "name": "Woodside Library", "location_type": "Indoor", "accessible": "Yes" }, "geometry": { "type": "Point", "coordinates": [ -73.909799, 40.745349 ] } },
{ "type": "Feature", "properties": { "name": "Peninsula Library", "location_type": "Indoor", "accessible": "Yes" }, "geometry": { "type": "Point", "coordinates": [ -73.81606, 40.585846 ] } },
{ "type": "Feature", "properties": { "name": "India Home Desi OAC -OLDER ADULTS ONLY", "location_type": "Indoor", "accessible": "Yes" }, "geometry": { "type": "Point", "coordinates": [ -73.795769, 40.712652 ] } },
{ "type": "Feature", "properties": { "name": "Middle Village Library", "location_type": "Indoor", "accessible": "Yes" }, "geometry": { "type": "Point", "coordinates": [ -73.880866, 40.71295 ] } },
{ "type": "Feature", "properties": { "name": "Bayside Library", "location_type": "Indoor", "accessible": "Yes" }, "geometry": { "type": "Point", "coordinates": [ -73.768362, 40.760134 ] } },
{ "type": "Feature", "properties": { "name": "Pomonok Library", "location_type": "Indoor", "accessible": "Yes" }, "geometry": { "type": "Point", "coordinates": [ -73.810155, 40.73259 ] } },
{ "type": "Feature", "properties": { "name": "Forest Hills Library", "location_type": "Indoor", "accessible": "Yes" }, "geometry": { "type": "Point", "coordinates": [ -73.843047, 40.72215 ] } },
{ "type": "Feature", "properties": { "name": "Woodside on the Move", "location_type": "Indoor", "accessible": "Yes" }, "geometry": { "type": "Point", "coordinates": [ -73.913111, 40.742906 ] } },
{ "type": "Feature", "properties": { "name": "Young Israel Wavecrest Baywater Senior League OAC -OLDER ADULTS ONLY", "location_type": "Indoor", "accessible": "Yes" }, "geometry": { "type": "Point", "coordinates": [ -73.765882, 40.604582 ] } },
{ "type": "Feature", "properties": { "name": "South Hollis Library", "location_type": "Indoor", "accessible": "Yes" }, "geometry": { "type": "Point", "coordinates": [ -73.753797, 40.70702 ] } },
{ "type": "Feature", "properties": { "name": "St Albans Library", "location_type": "Indoor", "accessible": "Yes" }, "geometry": { "type": "Point", "coordinates": [ -73.760109, 40.692534 ] } },
{ "type": "Feature", "properties": { "name": "Steinway Library", "location_type": "Indoor", "accessible": "Yes" }, "geometry": { "type": "Point", "coordinates": [ -73.909512, 40.776838 ] } },
{ "type": "Feature", "properties": { "name": "Poppenhusen Library", "location_type": "Indoor", "accessible": "Yes" }, "geometry": { "type": "Point", "coordinates": [ -73.84601, 40.786256 ] } },
{ "type": "Feature", "properties": { "name": "Lefferts Library", "location_type": "Indoor", "accessible": "No" }, "geometry": { "type": "Point", "coordinates": [ -73.82484, 40.68691 ] } },
{ "type": "Feature", "properties": { "name": "Fresh Meadows Library", "location_type": "Indoor", "accessible": "Yes" }, "geometry": { "type": "Point", "coordinates": [ -73.782268, 40.741559 ] } },
{ "type": "Feature", "properties": { "name": "Langston Hughes Library", "location_type": "Indoor", "accessible": "Yes" }, "geometry": { "type": "Point", "coordinates": [ -73.868057, 40.757668 ] } },
{ "type": "Feature", "properties": { "name": "Save The People", "location_type": "Indoor", "accessible": "No" }, "geometry": { "type": "Point", "coordinates": [ -73.806034, 40.707078 ] } },
{ "type": "Feature", "properties": { "name": "Golden Phoenix 2 (Elmcor Lefrak NSC) -OLDER ADULTS ONLY", "location_type": "Indoor", "accessible": "Yes" }, "geometry": { "type": "Point", "coordinates": [ -73.872407, 40.756613 ] } },
{ "type": "Feature", "properties": { "name": "Howard Beach Library", "location_type": "Indoor", "accessible": "Yes" }, "geometry": { "type": "Point", "coordinates": [ -73.8418, 40.663813 ] } },
{ "type": "Feature", "properties": { "name": "Auburndale-Clearview Library", "location_type": "Indoor", "accessible": "Yes" }, "geometry": { "type": "Point", "coordinates": [ -73.796344, 40.773733 ] } },
{ "type": "Feature", "properties": { "name": "QCH Queens Center for Gay Seniors (QCGS) OAC -OLDER ADULTS ONLY", "location_type": "Indoor", "accessible": "Yes" }, "geometry": { "type": "Point", "coordinates": [ -73.889231, 40.748998 ] } },
{ "type": "Feature", "properties": { "name": "Glendale Library", "location_type": "Indoor", "accessible": "Yes" }, "geometry": { "type": "Point", "coordinates": [ -73.875799, 40.70258 ] } },
{ "type": "Feature", "properties": { "name": "Maspeth Library", "location_type": "Indoor", "accessible": "Yes" }, "geometry": { "type": "Point", "coordinates": [ -73.893085, 40.726983 ] } },
{ "type": "Feature", "properties": { "name": "CCNS Best Life OAC -OLDER ADULTS ONLY", "location_type": "Indoor", "accessible": "No" }, "geometry": { "type": "Point", "coordinates": [ -73.761664, 40.689177 ] } },
{ "type": "Feature", "properties": { "name": "Long Island City Library", "location_type": "Indoor", "accessible": "Yes" }, "geometry": { "type": "Point", "coordinates": [ -73.939305, 40.757822 ] } },
{ "type": "Feature", "properties": { "name": "Queens Village Library", "location_type": "Indoor", "accessible": "No" }, "geometry": { "type": "Point", "coordinates": [ -73.739047, 40.719893 ] } },
{ "type": "Feature", "properties": { "name": "Ozone Park Library", "location_type": "Indoor", "accessible": "Yes" }, "geometry": { "type": "Point", "coordinates": [ -73.846488, 40.680867 ] } },
{ "type": "Feature", "properties": { "name": "East Flushing Library", "location_type": "Indoor", "accessible": "Yes" }, "geometry": { "type": "Point", "coordinates": [ -73.784307, 40.757554 ] } },
{ "type": "Feature", "properties": { "name": "Selfhelp Austin Street NSC -OLDER ADULTS ONLY", "location_type": "Indoor", "accessible": "Yes" }, "geometry": { "type": "Point", "coordinates": [ -73.847506, 40.721651 ] } },
{ "type": "Feature", "properties": { "name": "Ridgewood Library", "location_type": "Indoor", "accessible": "Yes" }, "geometry": { "type": "Point", "coordinates": [ -73.902573, 40.705179 ] } },
{ "type": "Feature", "properties": { "name": "CCNS Ozone Park OAC -OLDER ADULTS ONLY", "location_type": "Indoor", "accessible": "Yes" }, "geometry": { "type": "Point", "coordinates": [ -73.839485, 40.685696 ] } },
{ "type": "Feature", "properties": { "name": "Golden Phoenix 4 (Elmcor Lefrak NSC) -OLDER ADULTS ONLY", "location_type": "Indoor", "accessible": "Yes" }, "geometry": { "type": "Point", "coordinates": [ -73.861358, 40.757274 ] } },
{ "type": "Feature", "properties": { "name": "Young Israel Programs Queens Valley II -OLDER ADULTS ONLY", "location_type": "Indoor", "accessible": "Yes" }, "geometry": { "type": "Point", "coordinates": [ -73.81945, 40.721474 ] } },
{ "type": "Feature", "properties": { "name": "Florence E Smith OAC -OLDER ADULTS ONLY", "location_type": "Indoor", "accessible": "Yes" }, "geometry": { "type": "Point", "coordinates": [ -73.865705, 40.756042 ] } },
{ "type": "Feature", "properties": { "name": "QCH Kew Gardens Community Center OAC  -OLDER ADULTS ONLY", "location_type": "Indoor", "accessible": "Yes" }, "geometry": { "type": "Point", "coordinates": [ -73.831335, 40.713573 ] } },
{ "type": "Feature", "properties": { "name": "CCNS Hillcrest OAC -OLDER ADULTS ONLY", "location_type": "Indoor", "accessible": "Yes" }, "geometry": { "type": "Point", "coordinates": [ -73.77853, 40.709115 ] } },
{ "type": "Feature", "properties": { "name": "Korean Community Services Corona OAC -OLDER ADULTS ONLY", "location_type": "Indoor", "accessible": "Yes" }, "geometry": { "type": "Point", "coordinates": [ -73.857238, 40.75359 ] } },
{ "type": "Feature", "properties": { "name": "Alpha Phi Alpha Senior Citizen OAC -OLDER ADULTS ONLY", "location_type": "Indoor", "accessible": "Yes" }, "geometry": { "type": "Point", "coordinates": [ -73.739761, 40.695294 ] } },
{ "type": "Feature", "properties": { "name": "Allen AME Theodora Jackson Older Adult Center -OLDER ADULTS ONLY", "location_type": "Indoor", "accessible": "Yes" }, "geometry": { "type": "Point", "coordinates": [ -73.793496, 40.704503 ] } },
{ "type": "Feature", "properties": { "name": "Peter Cardella OAC -OLDER ADULTS ONLY", "location_type": "Indoor", "accessible": "Yes" }, "geometry": { "type": "Point", "coordinates": [ -73.895973, 40.703652 ] } },
{ "type": "Feature", "properties": { "name": "Whitestone Library", "location_type": "Indoor", "accessible": "Yes" }, "geometry": { "type": "Point", "coordinates": [ -73.810719, 40.788538 ] } },
{ "type": "Feature", "properties": { "name": "CCNS Catherine Sheridan OAC -OLDER ADULTS ONLY", "location_type": "Indoor", "accessible": "Yes" }, "geometry": { "type": "Point", "coordinates": [ -73.88395, 40.751476 ] } },
{ "type": "Feature", "properties": { "name": "Elmhurst OAC -OLDER ADULTS ONLY", "location_type": "Indoor", "accessible": "Yes" }, "geometry": { "type": "Point", "coordinates": [ -73.890074, 40.746417 ] } },
{ "type": "Feature", "properties": { "name": "Sunnyside Community Services OAC -OLDER ADULTS ONLY", "location_type": "Indoor", "accessible": "Yes" }, "geometry": { "type": "Point", "coordinates": [ -73.925616, 40.745104 ] } },
{ "type": "Feature", "properties": { "name": "Allen AME Rockaway Blvd OAC -OLDER ADULTS ONLY", "location_type": "Indoor", "accessible": "Yes" }, "geometry": { "type": "Point", "coordinates": [ -73.796086, 40.674233 ] } },
{ "type": "Feature", "properties": { "name": "CCNS Bayside OAC -OLDER ADULTS ONLY", "location_type": "Indoor", "accessible": "Yes" }, "geometry": { "type": "Point", "coordinates": [ -73.756732, 40.749886 ] } },
{ "type": "Feature", "properties": { "name": "HANAC Ravenswood Older Adult Center -OLDER ADULTS ONLY", "location_type": "Indoor", "accessible": "Yes" }, "geometry": { "type": "Point", "coordinates": [ -73.936833, 40.762726 ] } },
{ "type": "Feature", "properties": { "name": "Ridgewood Older Adult Center And Services, Inc OAC -OLDER ADULTS ONLY", "location_type": "Indoor", "accessible": "Yes" }, "geometry": { "type": "Point", "coordinates": [ -73.899681, 40.700989 ] } },
{ "type": "Feature", "properties": { "name": "CCNS Howard Beach OAC -OLDER ADULTS ONLY", "location_type": "Indoor", "accessible": "Yes" }, "geometry": { "type": "Point", "coordinates": [ -73.840228, 40.664966 ] } },
{ "type": "Feature", "properties": { "name": "Sam Field Older Adult Center -OLDER ADULTS ONLY", "location_type": "Indoor", "accessible": "Yes" }, "geometry": { "type": "Point", "coordinates": [ -73.723279, 40.760824 ] } },
{ "type": "Feature", "properties": { "name": "Mitchell-Linden Library", "location_type": "Indoor", "accessible": "Yes" }, "geometry": { "type": "Point", "coordinates": [ -73.826975, 40.769144 ] } },
{ "type": "Feature", "properties": { "name": "JASA Roy Reuther OAC -OLDER ADULTS ONLY", "location_type": "Indoor", "accessible": "Yes" }, "geometry": { "type": "Point", "coordinates": [ -73.741877, 40.595317 ] } },
{ "type": "Feature", "properties": { "name": "Woodside Older Adult Center -OLDER ADULTS ONLY", "location_type": "Indoor", "accessible": "Yes" }, "geometry": { "type": "Point", "coordinates": [ -73.910719, 40.753847 ] } },
{ "type": "Feature", "properties": { "name": "Allen AME Community Older Adult Center -OLDER ADULTS ONLY", "location_type": "Indoor", "accessible": "Yes" }, "geometry": { "type": "Point", "coordinates": [ -73.783093, 40.690343 ] } },
{ "type": "Feature", "properties": { "name": "South Jamaica Library", "location_type": "Indoor", "accessible": "Yes" }, "geometry": { "type": "Point", "coordinates": [ -73.790179, 40.695638 ] } },
{ "type": "Feature", "properties": { "name": "Korean Community Services Flushing + Satellite MN9 OAC -OLDER ADULTS ONLY", "location_type": "Indoor", "accessible": "Yes" }, "geometry": { "type": "Point", "coordinates": [ -73.800138, 40.759 ] } },
{ "type": "Feature", "properties": { "name": "QCH Forest Hills OAC  -OLDER ADULTS ONLY", "location_type": "Indoor", "accessible": "Yes" }, "geometry": { "type": "Point", "coordinates": [ -73.850128, 40.736308 ] } },
{ "type": "Feature", "properties": { "name": "Golden Phoenix 1 (ELMCOR NSC) -OLDER ADULTS ONLY", "location_type": "Indoor", "accessible": "Yes" }, "geometry": { "type": "Point", "coordinates": [ -73.870615, 40.762479 ] } },
{ "type": "Feature", "properties": { "name": "CCNS Woodhaven Richmond OAC -OLDER ADULTS ONLY", "location_type": "Indoor", "accessible": "Yes" }, "geometry": { "type": "Point", "coordinates": [ -73.853278, 40.690433 ] } },
{ "type": "Feature", "properties": { "name": "JASA Rockaway Park OAC -OLDER ADULTS ONLY", "location_type": "Indoor", "accessible": "Yes" }, "geometry": { "type": "Point", "coordinates": [ -73.827109, 40.581378 ] } },
{ "type": "Feature", "properties": { "name": "CPC Nan Shan Neighborhood OAC -OLDER ADULTS ONLY", "location_type": "Indoor", "accessible": "Yes" }, "geometry": { "type": "Point", "coordinates": [ -73.831267, 40.757178 ] } },
{ "type": "Feature", "properties": { "name": "Golden Phoenix 3 (Elmcor Lefrak NSC) -OLDER ADULTS ONLY", "location_type": "Indoor", "accessible": "Yes" }, "geometry": { "type": "Point", "coordinates": [ -73.863557, 40.734942 ] } },
{ "type": "Feature", "properties": { "name": "CCNS  Seaside OAC -OLDER ADULTS ONLY", "location_type": "Indoor", "accessible": "Yes" }, "geometry": { "type": "Point", "coordinates": [ -73.816929, 40.587439 ] } },
{ "type": "Feature", "properties": { "name": "Samuel Field Y Bay Terrace Older Adult Center -OLDER ADULTS ONLY", "location_type": "Indoor", "accessible": "Yes" }, "geometry": { "type": "Point", "coordinates": [ -73.778128, 40.78055 ] } },
{ "type": "Feature", "properties": { "name": "Selfhelp Latimer NSC -OLDER ADULTS ONLY", "location_type": "Indoor", "accessible": "Yes" }, "geometry": { "type": "Point", "coordinates": [ -73.830386, 40.765953 ] } },
{ "type": "Feature", "properties": { "name": "SNAP Eastern Queens OAC (ISC) -OLDER ADULTS ONLY", "location_type": "Indoor", "accessible": "Yes" }, "geometry": { "type": "Point", "coordinates": [ -73.728976, 40.737072 ] } },
{ "type": "Feature", "properties": { "name": "Jamaica OAC -OLDER ADULTS ONLY", "location_type": "Indoor", "accessible": "Yes" }, "geometry": { "type": "Point", "coordinates": [ -73.796651, 40.705796 ] } },
{ "type": "Feature", "properties": { "name": "SNAP Brookville OAC -OLDER ADULTS ONLY", "location_type": "Indoor", "accessible": "Yes" }, "geometry": { "type": "Point", "coordinates": [ -73.732037, 40.674399 ] } },
{ "type": "Feature", "properties": { "name": "Selfhelp Clearview NSC -OLDER ADULTS ONLY", "location_type": "Indoor", "accessible": "Yes" }, "geometry": { "type": "Point", "coordinates": [ -73.783562, 40.776784 ] } },
{ "type": "Feature", "properties": { "name": "Selfhelp Benjamin Rosenthal OAC -OLDER ADULTS ONLY", "location_type": "Indoor", "accessible": "Yes" }, "geometry": { "type": "Point", "coordinates": [ -73.820068, 40.751938 ] } },
{ "type": "Feature", "properties": { "name": "Raices Bland Social Club OAC -OLDER ADULTS ONLY", "location_type": "Indoor", "accessible": "No" }, "geometry": { "type": "Point", "coordinates": [ -73.833762, 40.757977 ] } },
{ "type": "Feature", "properties": { "name": "Robert Couche OAC -OLDER ADULTS ONLY", "location_type": "Indoor", "accessible": "Yes" }, "geometry": { "type": "Point", "coordinates": [ -73.763772, 40.672558 ] } },
{ "type": "Feature", "properties": { "name": "Selfhelp Maspeth NSC -OLDER ADULTS ONLY", "location_type": "Indoor", "accessible": "Yes" }, "geometry": { "type": "Point", "coordinates": [ -73.893702, 40.727231 ] } },
{ "type": "Feature", "properties": { "name": "HANAC Harmony JVL ISC -OLDER ADULTS ONLY", "location_type": "Indoor", "accessible": "Yes" }, "geometry": { "type": "Point", "coordinates": [ -73.919093, 40.771026 ] } },
{ "type": "Feature", "properties": { "name": "Raices Corona Oac -Older Adults Only", "location_type": "Indoor", "accessible": "Yes" }, "geometry": { "type": "Point", "coordinates": [ -73.855499, 40.743294 ] } },
{ "type": "Feature", "properties": { "name": "Kew Gardens Hills Library", "location_type": "Indoor", "accessible": "Yes" }, "geometry": { "type": "Point", "coordinates": [ -73.820748, 40.725941 ] } },
{ "type": "Feature", "properties": { "name": "Brooks OAC -OLDER ADULTS ONLY", "location_type": "Indoor", "accessible": "No" }, "geometry": { "type": "Point", "coordinates": [ -73.802983, 40.688494 ] } },
{ "type": "Feature", "properties": { "name": "Rochdale Village OAC -OLDER ADULTS ONLY", "location_type": "Indoor", "accessible": "Yes" }, "geometry": { "type": "Point", "coordinates": [ -73.771215, 40.674639 ] } },
{ "type": "Feature", "properties": { "name": "QCH Pomonok OAC -OLDER ADULTS ONLY", "location_type": "Indoor", "accessible": "Yes" }, "geometry": { "type": "Point", "coordinates": [ -73.814121, 40.735121 ] } },
{ "type": "Feature", "properties": { "name": "QCH Rego Park OAC -OLDER ADULTS ONLY", "location_type": "Indoor", "accessible": "Yes" }, "geometry": { "type": "Point", "coordinates": [ -73.859577, 40.72844 ] } },
{ "type": "Feature", "properties": { "name": "Ocean Bay CDC OAC -OLDER ADULTS ONLY", "location_type": "Indoor", "accessible": "Yes" }, "geometry": { "type": "Point", "coordinates": [ -73.802881, 40.590913 ] } },
{ "type": "Feature", "properties": { "name": "JASA Brookdale Village OAC -OLDER ADULTS ONLY", "location_type": "Indoor", "accessible": "Yes" }, "geometry": { "type": "Point", "coordinates": [ -73.753823, 40.593165 ] } },
{ "type": "Feature", "properties": { "name": "CCNS Dellamonica-Steinway OAC -OLDER ADULTS ONLY", "location_type": "Indoor", "accessible": "Yes" }, "geometry": { "type": "Point", "coordinates": [ -73.928623, 40.765937 ] } },
{ "type": "Feature", "properties": { "name": "Queensbridge Center OAC -OLDER ADULTS ONLY", "location_type": "Indoor", "accessible": "Yes" }, "geometry": { "type": "Point", "coordinates": [ -73.944521, 40.755594 ] } }
]
}
