{
"type": "FeatureCollection",
"name": "surge_current",
"features": [
{ "type": "Feature", "properties": { "geoid": "36081093402", "ss_cur": 5 }, "geometry": { "type": "Polygon", "coordinates": [ [ [ -73.846071, 40.581746 ], [ -73.845085, 40.581394 ], [ -73.841749, 40.575598 ], [ -73.841498, 40.574992 ], [ -73.835634, 40.577017 ], [ -73.838297, 40.581758 ], [ -73.838751, 40.582621 ], [ -73.839098, 40.582175 ], [ -73.839279, 40.581943 ], [ -73.839827, 40.581842 ], [ -73.845207, 40.581588 ], [ -73.846071, 40.581746 ] ] ] } },
{ "type": "Feature", "properties": { "geoid": "36081004500", "ss_cur": 2 }, "geometry": { "type": "Polygon", "coordinates": [ [ [ -73.937634, 40.766467 ], [ -73.936004, 40.765877 ], [ -73.937004, 40.764232 ], [ -73.930547, 40.761215 ], [ -73.929453, 40.762358 ], [ -73.931349, 40.763267 ], [ -73.930364, 40.764483 ], [ -73.934934, 40.767005 ], [ -73.936183, 40.767684 ], [ -73.938589, 40.766809 ], [ -73.937634, 40.766467 ] ] ] } },
{ "type": "Feature", "properties": { "geoid": "36081101002", "ss_cur": 5 }, "geometry": { "type": "Polygon", "coordinates": [ [ [ -73.743595, 40.594673 ], [ -73.742916, 40.59484 ], [ -73.742389, 40.594738 ], [ -73.742227, 40.594914 ], [ -73.741739, 40.594736 ], [ -73.741374, 40.594816 ], [ -73.740897, 40.59462 ], [ -73.74063, 40.59473 ], [ -73.739959, 40.594509 ], [ -73.739003, 40.594595 ], [ -73.738536, 40.594447 ], [ -73.737991, 40.594564 ], [ -73.738462, 40.595858 ], [ -73.738431, 40.597093 ], [ -73.738857, 40.596791 ], [ -73.739334, 40.596921 ], [ -73.739611, 40.596772 ], [ -73.73958, 40.596385 ], [ -73.739929, 40.59607 ], [ -73.740495, 40.596082 ], [ -73.740527, 40.596582 ], [ -73.741514, 40.596537 ], [ -73.741283, 40.596813 ], [ -73.740645, 40.597009 ], [ -73.740107, 40.596856 ], [ -73.739545, 40.597244 ], [ -73.739145, 40.597202 ], [ -73.738721, 40.596957 ], [ -73.738419, 40.59755 ], [ -73.738357, 40.602652 ], [ -73.74057, 40.604872 ], [ -73.740789, 40.60438 ], [ -73.742317, 40.602928 ], [ -73.743137, 40.603842 ], [ -73.745739, 40.603395 ], [ -73.745404, 40.601947 ], [ -73.744754, 40.598819 ], [ -73.744431, 40.597419 ], [ -73.743595, 40.594673 ] ] ] } },
{ "type": "Feature", "properties": { "geoid": "36081066000", "ss_cur": 2 }, "geometry": { "type": "Polygon", "coordinates": [ [ [ -73.738141, 40.658146 ], [ -73.73659, 40.657264 ], [ -73.736678, 40.655862 ], [ -73.729603, 40.655682 ], [ -73.729519, 40.657426 ], [ -73.729096, 40.658279 ], [ -73.730955, 40.660395 ], [ -73.732995, 40.662649 ], [ -73.734644, 40.661787 ], [ -73.736265, 40.660618 ], [ -73.738141, 40.658146 ] ] ] } },
{ "type": "Feature", "properties": { "geoid": "36081100804", "ss_cur": 3 }, "geometry": { "type": "MultiPolygon", "coordinates": [ [ [ [ -73.770222, 40.598108 ], [ -73.768627, 40.597956 ], [ -73.769424, 40.598257 ], [ -73.770222, 40.598108 ] ] ], [ [ [ -73.768075, 40.597904 ], [ -73.767717, 40.596253 ], [ -73.767156, 40.596704 ], [ -73.76696, 40.597958 ], [ -73.765996, 40.598713 ], [ -73.766541, 40.599426 ], [ -73.764445, 40.600427 ], [ -73.763867, 40.599719 ], [ -73.762093, 40.600559 ], [ -73.760531, 40.601844 ], [ -73.7604, 40.602425 ], [ -73.760837, 40.605264 ], [ -73.760952, 40.606444 ], [ -73.761344, 40.606533 ], [ -73.766273, 40.606884 ], [ -73.769496, 40.607101 ], [ -73.769909, 40.6066 ], [ -73.769853, 40.606131 ], [ -73.770069, 40.60561 ], [ -73.77002, 40.605328 ], [ -73.770525, 40.604927 ], [ -73.770572, 40.604765 ], [ -73.77041, 40.603727 ], [ -73.77022, 40.603144 ], [ -73.770422, 40.60295 ], [ -73.770187, 40.602757 ], [ -73.770936, 40.601161 ], [ -73.771127, 40.600463 ], [ -73.771088, 40.599678 ], [ -73.771162, 40.599431 ], [ -73.771022, 40.598954 ], [ -73.770726, 40.598821 ], [ -73.770294, 40.598978 ], [ -73.769737, 40.598664 ], [ -73.768906, 40.598405 ], [ -73.768293, 40.598349 ], [ -73.767975, 40.598178 ], [ -73.768075, 40.597904 ] ] ] ] } },
{ "type": "Feature", "properties": { "geoid": "36081066401", "ss_cur": 4 }, "geometry": { "type": "Polygon", "coordinates": [ [ [ -73.736742, 40.649106 ], [ -73.739375, 40.653788 ], [ -73.740607, 40.655959 ], [ -73.741531, 40.657351 ], [ -73.742999, 40.657255 ], [ -73.745059, 40.657399 ], [ -73.743286, 40.656127 ], [ -73.743324, 40.65253 ], [ -73.746548, 40.652546 ], [ -73.746386, 40.651346 ], [ -73.745998, 40.650444 ], [ -73.746119, 40.648877 ], [ -73.748349, 40.64535 ], [ -73.751609, 40.647224 ], [ -73.752018, 40.646657 ], [ -73.751714, 40.646509 ], [ -73.750676, 40.645782 ], [ -73.75007, 40.64545 ], [ -73.749485, 40.644966 ], [ -73.749073, 40.64515 ], [ -73.748694, 40.644952 ], [ -73.748753, 40.644479 ], [ -73.748137, 40.644078 ], [ -73.747304, 40.643209 ], [ -73.747189, 40.642887 ], [ -73.746755, 40.642318 ], [ -73.746545, 40.641699 ], [ -73.746316, 40.641403 ], [ -73.746357, 40.64069 ], [ -73.746172, 40.640406 ], [ -73.746347, 40.6399 ], [ -73.74633, 40.639363 ], [ -73.746482, 40.639027 ], [ -73.746598, 40.638371 ], [ -73.746806, 40.638165 ], [ -73.74705, 40.636957 ], [ -73.746441, 40.637438 ], [ -73.745512, 40.637952 ], [ -73.745675, 40.638133 ], [ -73.745267, 40.638315 ], [ -73.745273, 40.637924 ], [ -73.746455, 40.637268 ], [ -73.746771, 40.636902 ], [ -73.746614, 40.63659 ], [ -73.746294, 40.636446 ], [ -73.745636, 40.636961 ], [ -73.745147, 40.637211 ], [ -73.744894, 40.637178 ], [ -73.744223, 40.638028 ], [ -73.744031, 40.638661 ], [ -73.743767, 40.639029 ], [ -73.743524, 40.638898 ], [ -73.74404, 40.637994 ], [ -73.742731, 40.638278 ], [ -73.741892, 40.63813 ], [ -73.741218, 40.637824 ], [ -73.74098, 40.637328 ], [ -73.741399, 40.636759 ], [ -73.741908, 40.6363 ], [ -73.742406, 40.635606 ], [ -73.740493, 40.635238 ], [ -73.740005, 40.635317 ], [ -73.739477, 40.63571 ], [ -73.741533, 40.639222 ], [ -73.742282, 40.640113 ], [ -73.741427, 40.640511 ], [ -73.742052, 40.641482 ], [ -73.741663, 40.642206 ], [ -73.741441, 40.646094 ], [ -73.741438, 40.646897 ], [ -73.739046, 40.648209 ], [ -73.736742, 40.649106 ] ] ] } },
{ "type": "Feature", "properties": { "geoid": "36081093401", "ss_cur": 5 }, "geometry": { "type": "MultiPolygon", "coordinates": [ [ [ [ -73.839098, 40.582175 ], [ -73.838751, 40.582621 ], [ -73.838772, 40.582659 ], [ -73.838958, 40.582583 ], [ -73.839098, 40.582175 ] ] ], [ [ [ -73.852197, 40.581552 ], [ -73.85216, 40.581438 ], [ -73.847644, 40.573604 ], [ -73.847216, 40.573016 ], [ -73.841498, 40.574992 ], [ -73.841749, 40.575598 ], [ -73.845085, 40.581394 ], [ -73.846071, 40.581746 ], [ -73.848612, 40.582196 ], [ -73.850445, 40.582139 ], [ -73.852197, 40.581552 ] ] ] ] } },
{ "type": "Feature", "properties": { "geoid": "36081093900", "ss_cur": 2 }, "geometry": { "type": "Polygon", "coordinates": [ [ [ -73.848908, 40.79344 ], [ -73.848427, 40.792752 ], [ -73.846067, 40.788042 ], [ -73.840082, 40.787841 ], [ -73.839922, 40.790642 ], [ -73.840814, 40.791497 ], [ -73.840677, 40.7939 ], [ -73.839549, 40.793202 ], [ -73.836634, 40.792508 ], [ -73.836634, 40.792514 ], [ -73.838433, 40.796779 ], [ -73.838988, 40.797039 ], [ -73.839972, 40.796914 ], [ -73.84026, 40.797597 ], [ -73.839191, 40.797786 ], [ -73.839235, 40.797894 ], [ -73.840417, 40.797687 ], [ -73.840141, 40.796888 ], [ -73.840601, 40.796815 ], [ -73.841301, 40.796228 ], [ -73.841424, 40.796008 ], [ -73.841309, 40.795281 ], [ -73.841509, 40.795146 ], [ -73.841906, 40.79563 ], [ -73.842894, 40.795401 ], [ -73.843434, 40.794957 ], [ -73.844515, 40.79489 ], [ -73.84528, 40.795458 ], [ -73.845606, 40.795863 ], [ -73.846246, 40.796171 ], [ -73.846773, 40.796001 ], [ -73.847821, 40.795793 ], [ -73.848711, 40.795425 ], [ -73.848878, 40.795142 ], [ -73.848785, 40.79455 ], [ -73.84908, 40.794154 ], [ -73.84886, 40.793599 ], [ -73.848908, 40.79344 ] ] ] } },
{ "type": "Feature", "properties": { "geoid": "36081066402", "ss_cur": 3 }, "geometry": { "type": "Polygon", "coordinates": [ [ [ -73.745059, 40.657399 ], [ -73.742999, 40.657255 ], [ -73.741531, 40.657351 ], [ -73.740607, 40.655959 ], [ -73.739375, 40.653788 ], [ -73.734309, 40.653697 ], [ -73.729704, 40.653582 ], [ -73.729603, 40.655682 ], [ -73.736678, 40.655862 ], [ -73.73659, 40.657264 ], [ -73.738141, 40.658146 ], [ -73.742975, 40.660277 ], [ -73.744215, 40.658966 ], [ -73.745059, 40.657399 ] ] ] } },
{ "type": "Feature", "properties": { "geoid": "36081094500", "ss_cur": 3 }, "geometry": { "type": "MultiPolygon", "coordinates": [ [ [ [ -73.838988, 40.797039 ], [ -73.838433, 40.796779 ], [ -73.836634, 40.792514 ], [ -73.837127, 40.793704 ], [ -73.837086, 40.793912 ], [ -73.837364, 40.794272 ], [ -73.838402, 40.796764 ], [ -73.838435, 40.796795 ], [ -73.838988, 40.797039 ] ] ], [ [ [ -73.836634, 40.792508 ], [ -73.839549, 40.793202 ], [ -73.840677, 40.7939 ], [ -73.840814, 40.791497 ], [ -73.839922, 40.790642 ], [ -73.840082, 40.787841 ], [ -73.838243, 40.787778 ], [ -73.838352, 40.785842 ], [ -73.838457, 40.785817 ], [ -73.838698, 40.781669 ], [ -73.837775, 40.781644 ], [ -73.826784, 40.78166 ], [ -73.825284, 40.781689 ], [ -73.824997, 40.781692 ], [ -73.823833, 40.786748 ], [ -73.822536, 40.78956 ], [ -73.822788, 40.791292 ], [ -73.823731, 40.792779 ], [ -73.825724, 40.795601 ], [ -73.827119, 40.797659 ], [ -73.826995, 40.797266 ], [ -73.827076, 40.796983 ], [ -73.827426, 40.796757 ], [ -73.828216, 40.796704 ], [ -73.828666, 40.796484 ], [ -73.828808, 40.796187 ], [ -73.828639, 40.795713 ], [ -73.828448, 40.795656 ], [ -73.828008, 40.794921 ], [ -73.827794, 40.793304 ], [ -73.828065, 40.792764 ], [ -73.82852, 40.792503 ], [ -73.828714, 40.792211 ], [ -73.829111, 40.791907 ], [ -73.829777, 40.791626 ], [ -73.830453, 40.791652 ], [ -73.831031, 40.791562 ], [ -73.831745, 40.791014 ], [ -73.831897, 40.790498 ], [ -73.83215, 40.790042 ], [ -73.831994, 40.789513 ], [ -73.831794, 40.7892 ], [ -73.832098, 40.788796 ], [ -73.832922, 40.788528 ], [ -73.833797, 40.788525 ], [ -73.834088, 40.789042 ], [ -73.835126, 40.78918 ], [ -73.835474, 40.789291 ], [ -73.835789, 40.789583 ], [ -73.836326, 40.789473 ], [ -73.837234, 40.789628 ], [ -73.837371, 40.789806 ], [ -73.837374, 40.790407 ], [ -73.837532, 40.790524 ], [ -73.837513, 40.791036 ], [ -73.837322, 40.791401 ], [ -73.836617, 40.791771 ], [ -73.836634, 40.792508 ] ] ] ] } },
{ "type": "Feature", "properties": { "geoid": "36081008300", "ss_cur": 1 }, "geometry": { "type": "Polygon", "coordinates": [ [ [ -73.932684, 40.772692 ], [ -73.930771, 40.7721 ], [ -73.930125, 40.772106 ], [ -73.931277, 40.771508 ], [ -73.927806, 40.769881 ], [ -73.924927, 40.773481 ], [ -73.928195, 40.774902 ], [ -73.929039, 40.775165 ], [ -73.929878, 40.773602 ], [ -73.931045, 40.773973 ], [ -73.931816, 40.774206 ], [ -73.932684, 40.772692 ] ] ] } },
{ "type": "Feature", "properties": { "geoid": "36081074700", "ss_cur": 3 }, "geometry": { "type": "Polygon", "coordinates": [ [ [ -73.845889, 40.736335 ], [ -73.846054, 40.737091 ], [ -73.847213, 40.738636 ], [ -73.848606, 40.738097 ], [ -73.848369, 40.736455 ], [ -73.848759, 40.736348 ], [ -73.845986, 40.730947 ], [ -73.845764, 40.730254 ], [ -73.845157, 40.728893 ], [ -73.844616, 40.728287 ], [ -73.844276, 40.727622 ], [ -73.840326, 40.728799 ], [ -73.841467, 40.72999 ], [ -73.842857, 40.731149 ], [ -73.843582, 40.731914 ], [ -73.84419, 40.73265 ], [ -73.845117, 40.734286 ], [ -73.845425, 40.734942 ], [ -73.845889, 40.736335 ] ] ] } },
{ "type": "Feature", "properties": { "geoid": "36081092500", "ss_cur": 1 }, "geometry": { "type": "Polygon", "coordinates": [ [ [ -73.848753, 40.780138 ], [ -73.841495, 40.780146 ], [ -73.841408, 40.781683 ], [ -73.841208, 40.78515 ], [ -73.841172, 40.785237 ], [ -73.844809, 40.785361 ], [ -73.844865, 40.784339 ], [ -73.845807, 40.784183 ], [ -73.847636, 40.784123 ], [ -73.848579, 40.78321 ], [ -73.848753, 40.780138 ] ] ] } },
{ "type": "Feature", "properties": { "geoid": "36081009100", "ss_cur": 3 }, "geometry": { "type": "Polygon", "coordinates": [ [ [ -73.934018, 40.778103 ], [ -73.934411, 40.778085 ], [ -73.935854, 40.777204 ], [ -73.933497, 40.776435 ], [ -73.930263, 40.77546 ], [ -73.931045, 40.773973 ], [ -73.929878, 40.773602 ], [ -73.929039, 40.775165 ], [ -73.928195, 40.774902 ], [ -73.924927, 40.773481 ], [ -73.92398, 40.774607 ], [ -73.927375, 40.776459 ], [ -73.928276, 40.776891 ], [ -73.928315, 40.776874 ], [ -73.928607, 40.776601 ], [ -73.929751, 40.776268 ], [ -73.929922, 40.77625 ], [ -73.93063, 40.776599 ], [ -73.931015, 40.777178 ], [ -73.931846, 40.777884 ], [ -73.932752, 40.777983 ], [ -73.933649, 40.778081 ], [ -73.933889, 40.778107 ], [ -73.934018, 40.778103 ] ] ] } },
{ "type": "Feature", "properties": { "geoid": "36081100801", "ss_cur": 4 }, "geometry": { "type": "Polygon", "coordinates": [ [ [ -73.759724, 40.61016 ], [ -73.759493, 40.610824 ], [ -73.759986, 40.610888 ], [ -73.761552, 40.60904 ], [ -73.761784, 40.60916 ], [ -73.760872, 40.610206 ], [ -73.760238, 40.610829 ], [ -73.761726, 40.611856 ], [ -73.762301, 40.611367 ], [ -73.763657, 40.611762 ], [ -73.764554, 40.611843 ], [ -73.765085, 40.612062 ], [ -73.765165, 40.613762 ], [ -73.765977, 40.613936 ], [ -73.766312, 40.614204 ], [ -73.76682, 40.614299 ], [ -73.767372, 40.614237 ], [ -73.768338, 40.614237 ], [ -73.769201, 40.613998 ], [ -73.770199, 40.614072 ], [ -73.771829, 40.613954 ], [ -73.772907, 40.613579 ], [ -73.773353, 40.613692 ], [ -73.773537, 40.613537 ], [ -73.773994, 40.612456 ], [ -73.773769, 40.611264 ], [ -73.773264, 40.611221 ], [ -73.772694, 40.611432 ], [ -73.772169, 40.61149 ], [ -73.771863, 40.610854 ], [ -73.77123, 40.610387 ], [ -73.770591, 40.610169 ], [ -73.770243, 40.610258 ], [ -73.769769, 40.610072 ], [ -73.76911, 40.609624 ], [ -73.768953, 40.609112 ], [ -73.769255, 40.60841 ], [ -73.769478, 40.608318 ], [ -73.76981, 40.607894 ], [ -73.769794, 40.607511 ], [ -73.769973, 40.607315 ], [ -73.769909, 40.6066 ], [ -73.769496, 40.607101 ], [ -73.766273, 40.606884 ], [ -73.761344, 40.606533 ], [ -73.760952, 40.606444 ], [ -73.759823, 40.609639 ], [ -73.759724, 40.61016 ] ] ] } },
{ "type": "Feature", "properties": { "geoid": "36081037100", "ss_cur": 2 }, "geometry": { "type": "Polygon", "coordinates": [ [ [ -73.867491, 40.76568 ], [ -73.863495, 40.76155 ], [ -73.861562, 40.76264 ], [ -73.860521, 40.761418 ], [ -73.859755, 40.761828 ], [ -73.860936, 40.763721 ], [ -73.863122, 40.766294 ], [ -73.864077, 40.765741 ], [ -73.865273, 40.766931 ], [ -73.867491, 40.76568 ] ] ] } },
{ "type": "Feature", "properties": { "geoid": "36081097202", "ss_cur": 4 }, "geometry": { "type": "Polygon", "coordinates": [ [ [ -73.788439, 40.588151 ], [ -73.774927, 40.590751 ], [ -73.769707, 40.591156 ], [ -73.77023, 40.593967 ], [ -73.771093, 40.593528 ], [ -73.7727, 40.593115 ], [ -73.772712, 40.593313 ], [ -73.780058, 40.592566 ], [ -73.785061, 40.592192 ], [ -73.788995, 40.592403 ], [ -73.788439, 40.588151 ] ] ] } },
{ "type": "Feature", "properties": { "geoid": "36081099705", "ss_cur": 3 }, "geometry": { "type": "Polygon", "coordinates": [ [ [ -73.790828, 40.789341 ], [ -73.790704, 40.788217 ], [ -73.790582, 40.788121 ], [ -73.787126, 40.785349 ], [ -73.785421, 40.782377 ], [ -73.782369, 40.782961 ], [ -73.783528, 40.788737 ], [ -73.782269, 40.788653 ], [ -73.782141, 40.789363 ], [ -73.781714, 40.790522 ], [ -73.782185, 40.791115 ], [ -73.784129, 40.79008 ], [ -73.790828, 40.789341 ] ] ] } },
{ "type": "Feature", "properties": { "geoid": "36081096400", "ss_cur": 4 }, "geometry": { "type": "Polygon", "coordinates": [ [ [ -73.796756, 40.599386 ], [ -73.796759, 40.599028 ], [ -73.796153, 40.592839 ], [ -73.796024, 40.591064 ], [ -73.795593, 40.586774 ], [ -73.788439, 40.588151 ], [ -73.788995, 40.592403 ], [ -73.789132, 40.594036 ], [ -73.789327, 40.595205 ], [ -73.789715, 40.594851 ], [ -73.79038, 40.59476 ], [ -73.790864, 40.595021 ], [ -73.791038, 40.595531 ], [ -73.790933, 40.595969 ], [ -73.791244, 40.596635 ], [ -73.79109, 40.597258 ], [ -73.790957, 40.597406 ], [ -73.790429, 40.598675 ], [ -73.790335, 40.599207 ], [ -73.790053, 40.599384 ], [ -73.789584, 40.599897 ], [ -73.786638, 40.603248 ], [ -73.787275, 40.603247 ], [ -73.787857, 40.603122 ], [ -73.78985, 40.601619 ], [ -73.790377, 40.601183 ], [ -73.790671, 40.601114 ], [ -73.791541, 40.600372 ], [ -73.792537, 40.600071 ], [ -73.79336, 40.59997 ], [ -73.793983, 40.599568 ], [ -73.794698, 40.599421 ], [ -73.795315, 40.599491 ], [ -73.796756, 40.599386 ] ] ] } },
{ "type": "Feature", "properties": { "geoid": "36081093800", "ss_cur": 5 }, "geometry": { "type": "Polygon", "coordinates": [ [ [ -73.821381, 40.581265 ], [ -73.823032, 40.583866 ], [ -73.823288, 40.584431 ], [ -73.824042, 40.585622 ], [ -73.824655, 40.585445 ], [ -73.825271, 40.586903 ], [ -73.827848, 40.586146 ], [ -73.828174, 40.585929 ], [ -73.828526, 40.584863 ], [ -73.829235, 40.584703 ], [ -73.831229, 40.584133 ], [ -73.835842, 40.582887 ], [ -73.836498, 40.582831 ], [ -73.838649, 40.58273 ], [ -73.838772, 40.582659 ], [ -73.838751, 40.582621 ], [ -73.838297, 40.581758 ], [ -73.835634, 40.577017 ], [ -73.833871, 40.577658 ], [ -73.831627, 40.578375 ], [ -73.830902, 40.578504 ], [ -73.830174, 40.578757 ], [ -73.829568, 40.578789 ], [ -73.828784, 40.579047 ], [ -73.827175, 40.579453 ], [ -73.826704, 40.579668 ], [ -73.82496, 40.580146 ], [ -73.82265, 40.580946 ], [ -73.822291, 40.581104 ], [ -73.821381, 40.581265 ] ] ] } },
{ "type": "Feature", "properties": { "geoid": "36081103202", "ss_cur": 1 }, "geometry": { "type": "Polygon", "coordinates": [ [ [ -73.746943, 40.611766 ], [ -73.749882, 40.61033 ], [ -73.75242, 40.607864 ], [ -73.752913, 40.606904 ], [ -73.754418, 40.60497 ], [ -73.752849, 40.604252 ], [ -73.749704, 40.602582 ], [ -73.747561, 40.60307 ], [ -73.745739, 40.603395 ], [ -73.743137, 40.603842 ], [ -73.742317, 40.602928 ], [ -73.740789, 40.60438 ], [ -73.74057, 40.604872 ], [ -73.741147, 40.605452 ], [ -73.743212, 40.607197 ], [ -73.743399, 40.60748 ], [ -73.743203, 40.607697 ], [ -73.743643, 40.608566 ], [ -73.744568, 40.610126 ], [ -73.745369, 40.611212 ], [ -73.745647, 40.611794 ], [ -73.746341, 40.611779 ], [ -73.746857, 40.611582 ], [ -73.746943, 40.611766 ] ] ] } },
{ "type": "Feature", "properties": { "geoid": "36081007700", "ss_cur": 4 }, "geometry": { "type": "Polygon", "coordinates": [ [ [ -73.934934, 40.767005 ], [ -73.930364, 40.764483 ], [ -73.928555, 40.766706 ], [ -73.929855, 40.767319 ], [ -73.932023, 40.768249 ], [ -73.933444, 40.76881 ], [ -73.934934, 40.767005 ] ] ] } },
{ "type": "Feature", "properties": { "geoid": "36081008100", "ss_cur": 4 }, "geometry": { "type": "Polygon", "coordinates": [ [ [ -73.936183, 40.767684 ], [ -73.934934, 40.767005 ], [ -73.933444, 40.76881 ], [ -73.931277, 40.771508 ], [ -73.930125, 40.772106 ], [ -73.930771, 40.7721 ], [ -73.932684, 40.772692 ], [ -73.932782, 40.772385 ], [ -73.933915, 40.771836 ], [ -73.934245, 40.771021 ], [ -73.935226, 40.769518 ], [ -73.936183, 40.767684 ] ] ] } },
{ "type": "Feature", "properties": { "geoid": "36081000101", "ss_cur": 4 }, "geometry": { "type": "Polygon", "coordinates": [ [ [ -73.962604, 40.738794 ], [ -73.962127, 40.738449 ], [ -73.962166, 40.73828 ], [ -73.960727, 40.738088 ], [ -73.957468, 40.739552 ], [ -73.957022, 40.739643 ], [ -73.954982, 40.739793 ], [ -73.954583, 40.741337 ], [ -73.956899, 40.741782 ], [ -73.955991, 40.744487 ], [ -73.958584, 40.74501 ], [ -73.959071, 40.745114 ], [ -73.959243, 40.74515 ], [ -73.95876, 40.744953 ], [ -73.959036, 40.744444 ], [ -73.959634, 40.743943 ], [ -73.960503, 40.744111 ], [ -73.960551, 40.744034 ], [ -73.959707, 40.743867 ], [ -73.959776, 40.743513 ], [ -73.960353, 40.743544 ], [ -73.960648, 40.743401 ], [ -73.961097, 40.74279 ], [ -73.961554, 40.742002 ], [ -73.961174, 40.741895 ], [ -73.961075, 40.741634 ], [ -73.96122, 40.741116 ], [ -73.961805, 40.741106 ], [ -73.961828, 40.74064 ], [ -73.961317, 40.740479 ], [ -73.961792, 40.740021 ], [ -73.962211, 40.740014 ], [ -73.96242, 40.739698 ], [ -73.962619, 40.739025 ], [ -73.962604, 40.738794 ] ] ] } },
{ "type": "Feature", "properties": { "geoid": "36081084901", "ss_cur": 1 }, "geometry": { "type": "Polygon", "coordinates": [ [ [ -73.83791, 40.754535 ], [ -73.837683, 40.754144 ], [ -73.837434, 40.754112 ], [ -73.836485, 40.752821 ], [ -73.835594, 40.751388 ], [ -73.832298, 40.75195 ], [ -73.8326, 40.752999 ], [ -73.830137, 40.753907 ], [ -73.82996, 40.75476 ], [ -73.830747, 40.755736 ], [ -73.833102, 40.754653 ], [ -73.833677, 40.756313 ], [ -73.833801, 40.756714 ], [ -73.83791, 40.754535 ] ] ] } },
{ "type": "Feature", "properties": { "geoid": "36081007500", "ss_cur": 2 }, "geometry": { "type": "Polygon", "coordinates": [ [ [ -73.930364, 40.764483 ], [ -73.928424, 40.763408 ], [ -73.926187, 40.762343 ], [ -73.924252, 40.764717 ], [ -73.928555, 40.766706 ], [ -73.930364, 40.764483 ] ] ] } },
{ "type": "Feature", "properties": { "geoid": "36081006201", "ss_cur": 2 }, "geometry": { "type": "Polygon", "coordinates": [ [ [ -73.842265, 40.668264 ], [ -73.847933, 40.670037 ], [ -73.851097, 40.669404 ], [ -73.849917, 40.664619 ], [ -73.849416, 40.663559 ], [ -73.848812, 40.662796 ], [ -73.841651, 40.665962 ], [ -73.842265, 40.668264 ] ] ] } },
{ "type": "Feature", "properties": { "geoid": "36081109300", "ss_cur": 1 }, "geometry": { "type": "Polygon", "coordinates": [ [ [ -73.76765, 40.778411 ], [ -73.768641, 40.779079 ], [ -73.775536, 40.777018 ], [ -73.775838, 40.778605 ], [ -73.779396, 40.777678 ], [ -73.780361, 40.777379 ], [ -73.784592, 40.776133 ], [ -73.784328, 40.77313 ], [ -73.783726, 40.771353 ], [ -73.778857, 40.772791 ], [ -73.777538, 40.773082 ], [ -73.777207, 40.77152 ], [ -73.775389, 40.771903 ], [ -73.769998, 40.773003 ], [ -73.769649, 40.77202 ], [ -73.772022, 40.77149 ], [ -73.771814, 40.770669 ], [ -73.770638, 40.769637 ], [ -73.770168, 40.76973 ], [ -73.766271, 40.771191 ], [ -73.76368, 40.771831 ], [ -73.764143, 40.772238 ], [ -73.763826, 40.772558 ], [ -73.764178, 40.772838 ], [ -73.765106, 40.773807 ], [ -73.765729, 40.774612 ], [ -73.766005, 40.775075 ], [ -73.76633, 40.775851 ], [ -73.767002, 40.776704 ], [ -73.76762, 40.778003 ], [ -73.76765, 40.778411 ] ] ] } },
{ "type": "Feature", "properties": { "geoid": "36081099704", "ss_cur": 1 }, "geometry": { "type": "Polygon", "coordinates": [ [ [ -73.785421, 40.782377 ], [ -73.785283, 40.781951 ], [ -73.784728, 40.778979 ], [ -73.784592, 40.776133 ], [ -73.780361, 40.777379 ], [ -73.779396, 40.777678 ], [ -73.775838, 40.778605 ], [ -73.77532, 40.780458 ], [ -73.776522, 40.782439 ], [ -73.778675, 40.785438 ], [ -73.780691, 40.787971 ], [ -73.782269, 40.788653 ], [ -73.783528, 40.788737 ], [ -73.782369, 40.782961 ], [ -73.785421, 40.782377 ] ] ] } },
{ "type": "Feature", "properties": { "geoid": "36081094202", "ss_cur": 5 }, "geometry": { "type": "Polygon", "coordinates": [ [ [ -73.819132, 40.588045 ], [ -73.818912, 40.587568 ], [ -73.817699, 40.586476 ], [ -73.817228, 40.585679 ], [ -73.815434, 40.586452 ], [ -73.813845, 40.587067 ], [ -73.813047, 40.58733 ], [ -73.809864, 40.587734 ], [ -73.806345, 40.588072 ], [ -73.804304, 40.588319 ], [ -73.80199, 40.588861 ], [ -73.801004, 40.5891 ], [ -73.801174, 40.590439 ], [ -73.802245, 40.590761 ], [ -73.802447, 40.592648 ], [ -73.803077, 40.592622 ], [ -73.803929, 40.593114 ], [ -73.804127, 40.593522 ], [ -73.804037, 40.594171 ], [ -73.804642, 40.594915 ], [ -73.804908, 40.595096 ], [ -73.806035, 40.59556 ], [ -73.806848, 40.595422 ], [ -73.807116, 40.59529 ], [ -73.807565, 40.594586 ], [ -73.80797, 40.594178 ], [ -73.807819, 40.593893 ], [ -73.808048, 40.593659 ], [ -73.807839, 40.593388 ], [ -73.80732, 40.593077 ], [ -73.807041, 40.593067 ], [ -73.805087, 40.592229 ], [ -73.804167, 40.591863 ], [ -73.804362, 40.591322 ], [ -73.806657, 40.592274 ], [ -73.806876, 40.592273 ], [ -73.807964, 40.592858 ], [ -73.80902, 40.593354 ], [ -73.809703, 40.593542 ], [ -73.809488, 40.592774 ], [ -73.80978, 40.592407 ], [ -73.809905, 40.593089 ], [ -73.810041, 40.593086 ], [ -73.809901, 40.592279 ], [ -73.810823, 40.592088 ], [ -73.811009, 40.591777 ], [ -73.811514, 40.591792 ], [ -73.811705, 40.591602 ], [ -73.812286, 40.591334 ], [ -73.812445, 40.591392 ], [ -73.813131, 40.591255 ], [ -73.813634, 40.590802 ], [ -73.814059, 40.590633 ], [ -73.814749, 40.590596 ], [ -73.81525, 40.589997 ], [ -73.816743, 40.589327 ], [ -73.817131, 40.589376 ], [ -73.817609, 40.589278 ], [ -73.817417, 40.588925 ], [ -73.81828, 40.588469 ], [ -73.818839, 40.58826 ], [ -73.819132, 40.588045 ] ] ] } },
{ "type": "Feature", "properties": { "geoid": "36081100803", "ss_cur": 2 }, "geometry": { "type": "Polygon", "coordinates": [ [ [ -73.763867, 40.599719 ], [ -73.76336, 40.599097 ], [ -73.761657, 40.599965 ], [ -73.759663, 40.60113 ], [ -73.757935, 40.600844 ], [ -73.757873, 40.601315 ], [ -73.753753, 40.600704 ], [ -73.752849, 40.604252 ], [ -73.754418, 40.60497 ], [ -73.755273, 40.605326 ], [ -73.760952, 40.606444 ], [ -73.760837, 40.605264 ], [ -73.7604, 40.602425 ], [ -73.760531, 40.601844 ], [ -73.762093, 40.600559 ], [ -73.763867, 40.599719 ] ] ] } },
{ "type": "Feature", "properties": { "geoid": "36081088902", "ss_cur": 3 }, "geometry": { "type": "Polygon", "coordinates": [ [ [ -73.833427, 40.771426 ], [ -73.830685, 40.764704 ], [ -73.827862, 40.765355 ], [ -73.827689, 40.766096 ], [ -73.826847, 40.767979 ], [ -73.826682, 40.768949 ], [ -73.826557, 40.770129 ], [ -73.826565, 40.770634 ], [ -73.82957, 40.770703 ], [ -73.830545, 40.770216 ], [ -73.830584, 40.771631 ], [ -73.83149, 40.772021 ], [ -73.831712, 40.772466 ], [ -73.833427, 40.771426 ] ] ] } },
{ "type": "Feature", "properties": { "geoid": "36081087100", "ss_cur": 2 }, "geometry": { "type": "Polygon", "coordinates": [ [ [ -73.83791, 40.754535 ], [ -73.833801, 40.756714 ], [ -73.833677, 40.756313 ], [ -73.829468, 40.758186 ], [ -73.830139, 40.759562 ], [ -73.82654, 40.760456 ], [ -73.827515, 40.762413 ], [ -73.831118, 40.76154 ], [ -73.832992, 40.760847 ], [ -73.834921, 40.760247 ], [ -73.835592, 40.762845 ], [ -73.836916, 40.762759 ], [ -73.83682, 40.761241 ], [ -73.838617, 40.757039 ], [ -73.838224, 40.755309 ], [ -73.83791, 40.754535 ] ] ] } },
{ "type": "Feature", "properties": { "geoid": "36081010500", "ss_cur": 2 }, "geometry": { "type": "Polygon", "coordinates": [ [ [ -73.915235, 40.786033 ], [ -73.916564, 40.784485 ], [ -73.917106, 40.784049 ], [ -73.910834, 40.779627 ], [ -73.90867, 40.781393 ], [ -73.915235, 40.786033 ] ] ] } },
{ "type": "Feature", "properties": { "geoid": "36081097204", "ss_cur": 5 }, "geometry": { "type": "Polygon", "coordinates": [ [ [ -73.789132, 40.594036 ], [ -73.788995, 40.592403 ], [ -73.785061, 40.592192 ], [ -73.780058, 40.592566 ], [ -73.772712, 40.593313 ], [ -73.773674, 40.593885 ], [ -73.773869, 40.595764 ], [ -73.77477, 40.595727 ], [ -73.779035, 40.595436 ], [ -73.781835, 40.595259 ], [ -73.787043, 40.594903 ], [ -73.789132, 40.594036 ] ] ] } },
{ "type": "Feature", "properties": { "geoid": "36081111300", "ss_cur": 1 }, "geometry": { "type": "Polygon", "coordinates": [ [ [ -73.763826, 40.772558 ], [ -73.764143, 40.772238 ], [ -73.76368, 40.771831 ], [ -73.766271, 40.771191 ], [ -73.770168, 40.76973 ], [ -73.769405, 40.767071 ], [ -73.768129, 40.765958 ], [ -73.768724, 40.764687 ], [ -73.768346, 40.763422 ], [ -73.765576, 40.763693 ], [ -73.76124, 40.764159 ], [ -73.758505, 40.764384 ], [ -73.754492, 40.764965 ], [ -73.754102, 40.765358 ], [ -73.754938, 40.766102 ], [ -73.755475, 40.766374 ], [ -73.756024, 40.766473 ], [ -73.75622, 40.766356 ], [ -73.757869, 40.766938 ], [ -73.758644, 40.767365 ], [ -73.758826, 40.767882 ], [ -73.762068, 40.771084 ], [ -73.763826, 40.772558 ] ] ] } },
{ "type": "Feature", "properties": { "geoid": "36081098700", "ss_cur": 2 }, "geometry": { "type": "Polygon", "coordinates": [ [ [ -73.810146, 40.797155 ], [ -73.810437, 40.796636 ], [ -73.810435, 40.795001 ], [ -73.813018, 40.795944 ], [ -73.81356, 40.794456 ], [ -73.811522, 40.789362 ], [ -73.813804, 40.788833 ], [ -73.813373, 40.787148 ], [ -73.810021, 40.786694 ], [ -73.806276, 40.786291 ], [ -73.807973, 40.786884 ], [ -73.80733, 40.791544 ], [ -73.804561, 40.791359 ], [ -73.804125, 40.7945 ], [ -73.803247, 40.794432 ], [ -73.802784, 40.79561 ], [ -73.80123, 40.795524 ], [ -73.800035, 40.796252 ], [ -73.800959, 40.796395 ], [ -73.802392, 40.796275 ], [ -73.80296, 40.796418 ], [ -73.802982, 40.796717 ], [ -73.803413, 40.796714 ], [ -73.803485, 40.796479 ], [ -73.804611, 40.796144 ], [ -73.805368, 40.796176 ], [ -73.805754, 40.796443 ], [ -73.806365, 40.796402 ], [ -73.807679, 40.796681 ], [ -73.808795, 40.796804 ], [ -73.809245, 40.796967 ], [ -73.810146, 40.797155 ] ] ] } },
{ "type": "Feature", "properties": { "geoid": "36081086900", "ss_cur": 1 }, "geometry": { "type": "Polygon", "coordinates": [ [ [ -73.839393, 40.765566 ], [ -73.839416, 40.76542 ], [ -73.838263, 40.764926 ], [ -73.836916, 40.762759 ], [ -73.835592, 40.762845 ], [ -73.834921, 40.760247 ], [ -73.832992, 40.760847 ], [ -73.831118, 40.76154 ], [ -73.827515, 40.762413 ], [ -73.828113, 40.764048 ], [ -73.827862, 40.765355 ], [ -73.830685, 40.764704 ], [ -73.833427, 40.771426 ], [ -73.836731, 40.769214 ], [ -73.838828, 40.766717 ], [ -73.839306, 40.766061 ], [ -73.839393, 40.765566 ] ] ] } },
{ "type": "Feature", "properties": { "geoid": "36081094201", "ss_cur": 5 }, "geometry": { "type": "Polygon", "coordinates": [ [ [ -73.815598, 40.582825 ], [ -73.815701, 40.583421 ], [ -73.815989, 40.58369 ], [ -73.817228, 40.585679 ], [ -73.817699, 40.586476 ], [ -73.818912, 40.587568 ], [ -73.819132, 40.588045 ], [ -73.819236, 40.587942 ], [ -73.821461, 40.586778 ], [ -73.822644, 40.58741 ], [ -73.823263, 40.587477 ], [ -73.825271, 40.586903 ], [ -73.824655, 40.585445 ], [ -73.824042, 40.585622 ], [ -73.823288, 40.584431 ], [ -73.823032, 40.583866 ], [ -73.821381, 40.581265 ], [ -73.81929, 40.581775 ], [ -73.818383, 40.582085 ], [ -73.817027, 40.582418 ], [ -73.815598, 40.582825 ] ] ] } },
{ "type": "Feature", "properties": { "geoid": "36081010300", "ss_cur": 2 }, "geometry": { "type": "Polygon", "coordinates": [ [ [ -73.915235, 40.786033 ], [ -73.915343, 40.786108 ], [ -73.91717, 40.784185 ], [ -73.919089, 40.78336 ], [ -73.919964, 40.782627 ], [ -73.919759, 40.782506 ], [ -73.915819, 40.77974 ], [ -73.912382, 40.777302 ], [ -73.910146, 40.779142 ], [ -73.910834, 40.779627 ], [ -73.917106, 40.784049 ], [ -73.916564, 40.784485 ], [ -73.915235, 40.786033 ] ] ] } },
{ "type": "Feature", "properties": { "geoid": "36081003900", "ss_cur": 1 }, "geometry": { "type": "Polygon", "coordinates": [ [ [ -73.944166, 40.7593 ], [ -73.942455, 40.758675 ], [ -73.941626, 40.760048 ], [ -73.937634, 40.766467 ], [ -73.938589, 40.766809 ], [ -73.940271, 40.765522 ], [ -73.943303, 40.76065 ], [ -73.944166, 40.7593 ] ] ] } },
{ "type": "Feature", "properties": { "geoid": "36061015200", "ss_cur": 4 }, "geometry": { "type": "MultiPolygon", "coordinates": [ [ [ [ -73.937472, 40.772553 ], [ -73.937857, 40.77408 ], [ -73.937654, 40.775078 ], [ -73.937526, 40.775262 ], [ -73.937656, 40.775094 ], [ -73.93786, 40.774096 ], [ -73.937815, 40.773571 ], [ -73.937472, 40.772553 ] ] ], [ [ [ -73.936532, 40.776692 ], [ -73.936379, 40.776913 ], [ -73.935854, 40.777204 ], [ -73.934411, 40.778085 ], [ -73.934418, 40.778093 ], [ -73.935084, 40.777953 ], [ -73.935856, 40.77722 ], [ -73.936091, 40.777193 ], [ -73.936382, 40.77693 ], [ -73.936532, 40.776692 ] ] ] ] } },
{ "type": "Feature", "properties": { "geoid": "36081089201", "ss_cur": 4 }, "geometry": { "type": "Polygon", "coordinates": [ [ [ -73.839724, 40.660943 ], [ -73.840403, 40.660825 ], [ -73.841253, 40.664204 ], [ -73.841651, 40.665962 ], [ -73.848812, 40.662796 ], [ -73.851126, 40.661505 ], [ -73.853616, 40.659727 ], [ -73.854363, 40.6586 ], [ -73.853204, 40.6538 ], [ -73.849315, 40.654372 ], [ -73.848397, 40.654489 ], [ -73.847978, 40.65281 ], [ -73.847088, 40.649401 ], [ -73.846791, 40.647788 ], [ -73.836812, 40.649241 ], [ -73.836843, 40.649366 ], [ -73.837597, 40.652377 ], [ -73.837649, 40.652588 ], [ -73.838123, 40.654529 ], [ -73.838553, 40.655884 ], [ -73.838958, 40.657543 ], [ -73.839553, 40.660185 ], [ -73.839724, 40.660943 ] ] ] } },
{ "type": "Feature", "properties": { "geoid": "36081095400", "ss_cur": 4 }, "geometry": { "type": "Polygon", "coordinates": [ [ [ -73.802447, 40.592648 ], [ -73.802245, 40.590761 ], [ -73.801174, 40.590439 ], [ -73.801004, 40.5891 ], [ -73.80199, 40.588861 ], [ -73.801715, 40.586664 ], [ -73.801433, 40.58565 ], [ -73.795593, 40.586774 ], [ -73.796024, 40.591064 ], [ -73.796153, 40.592839 ], [ -73.796759, 40.599028 ], [ -73.796756, 40.599386 ], [ -73.798114, 40.599309 ], [ -73.798312, 40.599194 ], [ -73.799186, 40.599266 ], [ -73.801236, 40.599131 ], [ -73.801658, 40.598909 ], [ -73.802923, 40.598881 ], [ -73.803935, 40.597952 ], [ -73.80472, 40.597674 ], [ -73.805113, 40.597159 ], [ -73.804586, 40.596242 ], [ -73.803641, 40.595141 ], [ -73.803216, 40.595154 ], [ -73.803099, 40.594571 ], [ -73.80259, 40.594393 ], [ -73.802379, 40.593295 ], [ -73.802447, 40.592648 ] ] ] } },
{ "type": "Feature", "properties": { "geoid": "36081099801", "ss_cur": 3 }, "geometry": { "type": "Polygon", "coordinates": [ [ [ -73.761657, 40.599965 ], [ -73.761287, 40.599541 ], [ -73.762552, 40.59831 ], [ -73.763334, 40.597815 ], [ -73.762996, 40.595979 ], [ -73.762155, 40.596077 ], [ -73.760408, 40.596095 ], [ -73.759391, 40.595833 ], [ -73.757961, 40.595357 ], [ -73.756017, 40.595197 ], [ -73.753985, 40.595132 ], [ -73.753202, 40.595144 ], [ -73.753209, 40.597315 ], [ -73.752477, 40.599237 ], [ -73.754067, 40.599494 ], [ -73.753753, 40.600704 ], [ -73.757873, 40.601315 ], [ -73.757935, 40.600844 ], [ -73.759663, 40.60113 ], [ -73.761657, 40.599965 ] ] ] } },
{ "type": "Feature", "properties": { "geoid": "36081099200", "ss_cur": 5 }, "geometry": { "type": "Polygon", "coordinates": [ [ [ -73.770573, 40.598142 ], [ -73.771155, 40.59829 ], [ -73.770661, 40.595994 ], [ -73.773869, 40.595764 ], [ -73.773674, 40.593885 ], [ -73.772712, 40.593313 ], [ -73.7727, 40.593115 ], [ -73.771093, 40.593528 ], [ -73.77023, 40.593967 ], [ -73.769707, 40.591156 ], [ -73.763824, 40.591612 ], [ -73.764401, 40.594564 ], [ -73.762777, 40.594749 ], [ -73.762996, 40.595979 ], [ -73.763334, 40.597815 ], [ -73.762552, 40.59831 ], [ -73.761287, 40.599541 ], [ -73.761657, 40.599965 ], [ -73.76336, 40.599097 ], [ -73.763867, 40.599719 ], [ -73.764445, 40.600427 ], [ -73.766541, 40.599426 ], [ -73.765996, 40.598713 ], [ -73.76696, 40.597958 ], [ -73.767156, 40.596704 ], [ -73.767717, 40.596253 ], [ -73.768075, 40.597904 ], [ -73.768627, 40.597956 ], [ -73.770222, 40.598108 ], [ -73.770573, 40.598142 ] ] ] } },
{ "type": "Feature", "properties": { "geoid": "36081000102", "ss_cur": 3 }, "geometry": { "type": "Polygon", "coordinates": [ [ [ -73.958584, 40.74501 ], [ -73.955991, 40.744487 ], [ -73.95574, 40.745243 ], [ -73.955049, 40.747326 ], [ -73.954803, 40.748038 ], [ -73.956841, 40.74882 ], [ -73.957731, 40.747767 ], [ -73.958215, 40.747204 ], [ -73.95914, 40.746008 ], [ -73.959261, 40.745329 ], [ -73.958584, 40.74501 ] ] ] } },
{ "type": "Feature", "properties": { "geoid": "36081069000", "ss_cur": 1 }, "geometry": { "type": "Polygon", "coordinates": [ [ [ -73.75982, 40.659341 ], [ -73.757437, 40.659122 ], [ -73.752988, 40.658079 ], [ -73.74858, 40.657579 ], [ -73.747823, 40.658633 ], [ -73.748324, 40.658709 ], [ -73.752599, 40.660317 ], [ -73.752114, 40.661067 ], [ -73.75783, 40.663209 ], [ -73.759105, 40.663666 ], [ -73.759327, 40.663562 ], [ -73.760867, 40.661452 ], [ -73.75982, 40.659341 ] ] ] } },
{ "type": "Feature", "properties": { "geoid": "36081097206", "ss_cur": 5 }, "geometry": { "type": "Polygon", "coordinates": [ [ [ -73.771155, 40.59829 ], [ -73.77159, 40.598029 ], [ -73.771979, 40.59793 ], [ -73.773049, 40.597868 ], [ -73.773232, 40.59806 ], [ -73.773718, 40.598246 ], [ -73.773727, 40.598637 ], [ -73.774226, 40.599017 ], [ -73.774116, 40.599608 ], [ -73.774253, 40.600147 ], [ -73.774582, 40.600435 ], [ -73.774712, 40.601034 ], [ -73.774971, 40.601736 ], [ -73.775454, 40.601643 ], [ -73.776281, 40.601071 ], [ -73.777353, 40.599173 ], [ -73.777423, 40.598821 ], [ -73.778085, 40.598352 ], [ -73.779751, 40.597268 ], [ -73.779682, 40.596685 ], [ -73.780461, 40.596573 ], [ -73.781951, 40.596449 ], [ -73.781835, 40.595259 ], [ -73.779035, 40.595436 ], [ -73.77477, 40.595727 ], [ -73.773869, 40.595764 ], [ -73.770661, 40.595994 ], [ -73.771155, 40.59829 ] ] ] } },
{ "type": "Feature", "properties": { "geoid": "36061016200", "ss_cur": 4 }, "geometry": { "type": "MultiPolygon", "coordinates": [ [ [ [ -73.934418, 40.778093 ], [ -73.934411, 40.778085 ], [ -73.934018, 40.778103 ], [ -73.934418, 40.778093 ] ] ], [ [ [ -73.932752, 40.777983 ], [ -73.931846, 40.777884 ], [ -73.931015, 40.777178 ], [ -73.931051, 40.77745 ], [ -73.93179, 40.777879 ], [ -73.932752, 40.777983 ] ] ], [ [ [ -73.928315, 40.776874 ], [ -73.928276, 40.776891 ], [ -73.926317, 40.778234 ], [ -73.92632, 40.77825 ], [ -73.928279, 40.776907 ], [ -73.928315, 40.776874 ] ] ] ] } },
{ "type": "Feature", "properties": { "geoid": "36081099802", "ss_cur": 5 }, "geometry": { "type": "Polygon", "coordinates": [ [ [ -73.763824, 40.591612 ], [ -73.757902, 40.592072 ], [ -73.752797, 40.591823 ], [ -73.753179, 40.592868 ], [ -73.753202, 40.595144 ], [ -73.753985, 40.595132 ], [ -73.756017, 40.595197 ], [ -73.757961, 40.595357 ], [ -73.759391, 40.595833 ], [ -73.760408, 40.596095 ], [ -73.762155, 40.596077 ], [ -73.762996, 40.595979 ], [ -73.762777, 40.594749 ], [ -73.764401, 40.594564 ], [ -73.763824, 40.591612 ] ] ] } },
{ "type": "Feature", "properties": { "geoid": "36081066403", "ss_cur": 4 }, "geometry": { "type": "Polygon", "coordinates": [ [ [ -73.725056, 40.653527 ], [ -73.726363, 40.654154 ], [ -73.726899, 40.652083 ], [ -73.729766, 40.652157 ], [ -73.729704, 40.653582 ], [ -73.734309, 40.653697 ], [ -73.739375, 40.653788 ], [ -73.736742, 40.649106 ], [ -73.735136, 40.64974 ], [ -73.732207, 40.650083 ], [ -73.729837, 40.650531 ], [ -73.728432, 40.651011 ], [ -73.725091, 40.652618 ], [ -73.725056, 40.653527 ] ] ] } },
{ "type": "Feature", "properties": { "geoid": "36081092200", "ss_cur": 3 }, "geometry": { "type": "Polygon", "coordinates": [ [ [ -73.86307, 40.567539 ], [ -73.86307, 40.567539 ], [ -73.857178, 40.569574 ], [ -73.858909, 40.572571 ], [ -73.859814, 40.574204 ], [ -73.854848, 40.57587 ], [ -73.856762, 40.579169 ], [ -73.856845, 40.579262 ], [ -73.862837, 40.576093 ], [ -73.862876, 40.576055 ], [ -73.862757, 40.575862 ], [ -73.863378, 40.575301 ], [ -73.863611, 40.575222 ], [ -73.863968, 40.575035 ], [ -73.863349, 40.574029 ], [ -73.863613, 40.573831 ], [ -73.864494, 40.573551 ], [ -73.864574, 40.573698 ], [ -73.865931, 40.573247 ], [ -73.866518, 40.572703 ], [ -73.864806, 40.569719 ], [ -73.864497, 40.569189 ], [ -73.864069, 40.569306 ], [ -73.86307, 40.567539 ] ] ] } },
{ "type": "Feature", "properties": { "geoid": "36081099703", "ss_cur": 4 }, "geometry": { "type": "Polygon", "coordinates": [ [ [ -73.76765, 40.778411 ], [ -73.767842, 40.778824 ], [ -73.771131, 40.782566 ], [ -73.771609, 40.783005 ], [ -73.774333, 40.786208 ], [ -73.774146, 40.786317 ], [ -73.776552, 40.787622 ], [ -73.77796, 40.788356 ], [ -73.781204, 40.78958 ], [ -73.781714, 40.790522 ], [ -73.782141, 40.789363 ], [ -73.782269, 40.788653 ], [ -73.780691, 40.787971 ], [ -73.778675, 40.785438 ], [ -73.776522, 40.782439 ], [ -73.77532, 40.780458 ], [ -73.775838, 40.778605 ], [ -73.775536, 40.777018 ], [ -73.768641, 40.779079 ], [ -73.76765, 40.778411 ] ] ] } },
{ "type": "Feature", "properties": { "geoid": "36081148300", "ss_cur": 3 }, "geometry": { "type": "MultiPolygon", "coordinates": [ [ [ [ -73.753459, 40.765441 ], [ -73.752194, 40.766009 ], [ -73.748852, 40.768469 ], [ -73.742036, 40.773916 ], [ -73.739375, 40.776006 ], [ -73.740079, 40.776201 ], [ -73.742031, 40.777411 ], [ -73.744042, 40.778598 ], [ -73.744154, 40.778181 ], [ -73.74438, 40.778177 ], [ -73.744486, 40.777431 ], [ -73.74493, 40.777628 ], [ -73.744619, 40.777928 ], [ -73.745078, 40.778257 ], [ -73.745194, 40.778754 ], [ -73.745409, 40.778991 ], [ -73.745955, 40.778831 ], [ -73.746112, 40.778463 ], [ -73.746868, 40.778886 ], [ -73.747277, 40.778903 ], [ -73.747489, 40.779211 ], [ -73.747359, 40.779392 ], [ -73.748058, 40.780289 ], [ -73.748251, 40.780773 ], [ -73.748958, 40.781075 ], [ -73.749255, 40.781544 ], [ -73.749919, 40.781944 ], [ -73.750308, 40.782464 ], [ -73.752997, 40.781281 ], [ -73.753009, 40.780874 ], [ -73.75338, 40.780426 ], [ -73.755106, 40.77658 ], [ -73.75477, 40.775893 ], [ -73.754484, 40.775637 ], [ -73.754146, 40.775053 ], [ -73.753957, 40.774315 ], [ -73.753681, 40.773981 ], [ -73.753368, 40.773216 ], [ -73.753641, 40.77264 ], [ -73.754382, 40.77205 ], [ -73.755255, 40.771649 ], [ -73.755176, 40.770621 ], [ -73.754697, 40.769717 ], [ -73.754733, 40.768604 ], [ -73.754971, 40.76795 ], [ -73.754918, 40.767253 ], [ -73.754006, 40.76603 ], [ -73.753459, 40.765441 ] ] ], [ [ [ -73.745004, 40.779207 ], [ -73.744814, 40.778565 ], [ -73.744294, 40.778755 ], [ -73.745004, 40.779207 ] ] ], [ [ [ -73.746789, 40.780263 ], [ -73.747246, 40.780085 ], [ -73.747042, 40.779629 ], [ -73.746641, 40.779367 ], [ -73.746257, 40.779583 ], [ -73.745737, 40.779619 ], [ -73.746726, 40.780315 ], [ -73.746789, 40.780263 ] ] ] ] } },
{ "type": "Feature", "properties": { "geoid": "36081006202", "ss_cur": 4 }, "geometry": { "type": "MultiPolygon", "coordinates": [ [ [ [ -73.842428, 40.668776 ], [ -73.842571, 40.669276 ], [ -73.84321, 40.669311 ], [ -73.847413, 40.670622 ], [ -73.848477, 40.670909 ], [ -73.850964, 40.671712 ], [ -73.856486, 40.673369 ], [ -73.858251, 40.674128 ], [ -73.859282, 40.674445 ], [ -73.861316, 40.675012 ], [ -73.861063, 40.674335 ], [ -73.861075, 40.674034 ], [ -73.860387, 40.671261 ], [ -73.857635, 40.671664 ], [ -73.856424, 40.667025 ], [ -73.855684, 40.663859 ], [ -73.858427, 40.663445 ], [ -73.858032, 40.661747 ], [ -73.857614, 40.660111 ], [ -73.858516, 40.659907 ], [ -73.860306, 40.659643 ], [ -73.863163, 40.658272 ], [ -73.862699, 40.657627 ], [ -73.861729, 40.658042 ], [ -73.861627, 40.657696 ], [ -73.861615, 40.657005 ], [ -73.860889, 40.656917 ], [ -73.860343, 40.657256 ], [ -73.860369, 40.657898 ], [ -73.85984, 40.65822 ], [ -73.860114, 40.658335 ], [ -73.860539, 40.658101 ], [ -73.860983, 40.658077 ], [ -73.86125, 40.658232 ], [ -73.861251, 40.658729 ], [ -73.860833, 40.658748 ], [ -73.859637, 40.658466 ], [ -73.859553, 40.658141 ], [ -73.859924, 40.657743 ], [ -73.859812, 40.657331 ], [ -73.860676, 40.656593 ], [ -73.861362, 40.656603 ], [ -73.861353, 40.656403 ], [ -73.860842, 40.65618 ], [ -73.859961, 40.655499 ], [ -73.859659, 40.655187 ], [ -73.853616, 40.659727 ], [ -73.851126, 40.661505 ], [ -73.848812, 40.662796 ], [ -73.849416, 40.663559 ], [ -73.849917, 40.664619 ], [ -73.851097, 40.669404 ], [ -73.847933, 40.670037 ], [ -73.842265, 40.668264 ], [ -73.842428, 40.668776 ] ] ], [ [ [ -73.860945, 40.655229 ], [ -73.860482, 40.654651 ], [ -73.860198, 40.654835 ], [ -73.860456, 40.655075 ], [ -73.860945, 40.655229 ] ] ] ] } },
{ "type": "Feature", "properties": { "geoid": "36081007900", "ss_cur": 4 }, "geometry": { "type": "Polygon", "coordinates": [ [ [ -73.933444, 40.76881 ], [ -73.932023, 40.768249 ], [ -73.929855, 40.767319 ], [ -73.928555, 40.766706 ], [ -73.926472, 40.769263 ], [ -73.927806, 40.769881 ], [ -73.931277, 40.771508 ], [ -73.933444, 40.76881 ] ] ] } },
{ "type": "Feature", "properties": { "geoid": "36081035700", "ss_cur": 1 }, "geometry": { "type": "Polygon", "coordinates": [ [ [ -73.863122, 40.766294 ], [ -73.865982, 40.768852 ], [ -73.868001, 40.770247 ], [ -73.869568, 40.771079 ], [ -73.872595, 40.771823 ], [ -73.876118, 40.771621 ], [ -73.876021, 40.770304 ], [ -73.876387, 40.768992 ], [ -73.875534, 40.764223 ], [ -73.868981, 40.764905 ], [ -73.867491, 40.76568 ], [ -73.865273, 40.766931 ], [ -73.864077, 40.765741 ], [ -73.863122, 40.766294 ] ] ] } },
{ "type": "Feature", "properties": { "geoid": "36081107201", "ss_cur": 5 }, "geometry": { "type": "Polygon", "coordinates": [ [ [ -73.81654, 40.614928 ], [ -73.81757, 40.614155 ], [ -73.820878, 40.615209 ], [ -73.821526, 40.614961 ], [ -73.821827, 40.61472 ], [ -73.824098, 40.612313 ], [ -73.822826, 40.610341 ], [ -73.822098, 40.610166 ], [ -73.821863, 40.609878 ], [ -73.821669, 40.609241 ], [ -73.821827, 40.608972 ], [ -73.821624, 40.608496 ], [ -73.820526, 40.610107 ], [ -73.82055, 40.610439 ], [ -73.821207, 40.610904 ], [ -73.821263, 40.611315 ], [ -73.82099, 40.611701 ], [ -73.821085, 40.611905 ], [ -73.82088, 40.612266 ], [ -73.820577, 40.612241 ], [ -73.82052, 40.611958 ], [ -73.819619, 40.610487 ], [ -73.81981, 40.609843 ], [ -73.819984, 40.609569 ], [ -73.820031, 40.608916 ], [ -73.822481, 40.605576 ], [ -73.822944, 40.602575 ], [ -73.824398, 40.600349 ], [ -73.821722, 40.600134 ], [ -73.821946, 40.599809 ], [ -73.823768, 40.600048 ], [ -73.824086, 40.598959 ], [ -73.82396, 40.598885 ], [ -73.824319, 40.598321 ], [ -73.824744, 40.598142 ], [ -73.825077, 40.598223 ], [ -73.82568, 40.59869 ], [ -73.826047, 40.599453 ], [ -73.82677, 40.598881 ], [ -73.827222, 40.598339 ], [ -73.827848, 40.598008 ], [ -73.828063, 40.597689 ], [ -73.828326, 40.597651 ], [ -73.829099, 40.597772 ], [ -73.829333, 40.598062 ], [ -73.830267, 40.597805 ], [ -73.830762, 40.597454 ], [ -73.830964, 40.597662 ], [ -73.8342, 40.596649 ], [ -73.834844, 40.595534 ], [ -73.832325, 40.594611 ], [ -73.826982, 40.594865 ], [ -73.82612, 40.595032 ], [ -73.825731, 40.59496 ], [ -73.825479, 40.595089 ], [ -73.825079, 40.594955 ], [ -73.820808, 40.595158 ], [ -73.820444, 40.595817 ], [ -73.820527, 40.596206 ], [ -73.820158, 40.596882 ], [ -73.81961, 40.597254 ], [ -73.818492, 40.599398 ], [ -73.818313, 40.601348 ], [ -73.817722, 40.602233 ], [ -73.817255, 40.603949 ], [ -73.817393, 40.605166 ], [ -73.816427, 40.605232 ], [ -73.815891, 40.606013 ], [ -73.816009, 40.606203 ], [ -73.815331, 40.606958 ], [ -73.814771, 40.60884 ], [ -73.815209, 40.609825 ], [ -73.815319, 40.610464 ], [ -73.8156, 40.610681 ], [ -73.815637, 40.611204 ], [ -73.815817, 40.611613 ], [ -73.815862, 40.612029 ], [ -73.816155, 40.612934 ], [ -73.81523, 40.613725 ], [ -73.815497, 40.614048 ], [ -73.815043, 40.614315 ], [ -73.814869, 40.614034 ], [ -73.81416, 40.614641 ], [ -73.814529, 40.614687 ], [ -73.815551, 40.614316 ], [ -73.816433, 40.614291 ], [ -73.816586, 40.614614 ], [ -73.81654, 40.614928 ] ] ] } },
{ "type": "Feature", "properties": { "geoid": "36081065600", "ss_cur": 3 }, "geometry": { "type": "Polygon", "coordinates": [ [ [ -73.725056, 40.653527 ], [ -73.724986, 40.654262 ], [ -73.725504, 40.655525 ], [ -73.725551, 40.6564 ], [ -73.72621, 40.658471 ], [ -73.726809, 40.659787 ], [ -73.727209, 40.660431 ], [ -73.727933, 40.661757 ], [ -73.728332, 40.663052 ], [ -73.727985, 40.663102 ], [ -73.727775, 40.664069 ], [ -73.727926, 40.665149 ], [ -73.728115, 40.665354 ], [ -73.728273, 40.666432 ], [ -73.729806, 40.666424 ], [ -73.729848, 40.66534 ], [ -73.732964, 40.665348 ], [ -73.734527, 40.664347 ], [ -73.736176, 40.663483 ], [ -73.735156, 40.662353 ], [ -73.737078, 40.660974 ], [ -73.736265, 40.660618 ], [ -73.734644, 40.661787 ], [ -73.732995, 40.662649 ], [ -73.730955, 40.660395 ], [ -73.729096, 40.658279 ], [ -73.729519, 40.657426 ], [ -73.729603, 40.655682 ], [ -73.729704, 40.653582 ], [ -73.729766, 40.652157 ], [ -73.726899, 40.652083 ], [ -73.726363, 40.654154 ], [ -73.725056, 40.653527 ] ] ] } },
{ "type": "Feature", "properties": { "geoid": "36081088400", "ss_cur": 5 }, "geometry": { "type": "MultiPolygon", "coordinates": [ [ [ [ -73.839553, 40.660185 ], [ -73.838958, 40.657543 ], [ -73.838553, 40.655884 ], [ -73.838123, 40.654529 ], [ -73.838399, 40.655824 ], [ -73.838499, 40.655909 ], [ -73.838966, 40.657581 ], [ -73.839294, 40.65925 ], [ -73.839553, 40.660185 ] ] ], [ [ [ -73.836843, 40.649366 ], [ -73.836812, 40.649241 ], [ -73.836332, 40.64533 ], [ -73.835925, 40.645508 ], [ -73.836815, 40.649258 ], [ -73.836843, 40.649366 ] ] ], [ [ [ -73.839724, 40.660943 ], [ -73.839981, 40.661913 ], [ -73.839625, 40.662004 ], [ -73.839697, 40.662247 ], [ -73.838725, 40.662415 ], [ -73.83844, 40.662352 ], [ -73.838142, 40.662078 ], [ -73.838077, 40.661596 ], [ -73.838894, 40.661412 ], [ -73.838455, 40.65937 ], [ -73.837203, 40.65436 ], [ -73.836812, 40.652706 ], [ -73.835974, 40.649357 ], [ -73.835804, 40.649119 ], [ -73.835567, 40.648436 ], [ -73.835103, 40.648187 ], [ -73.834536, 40.648033 ], [ -73.831489, 40.647896 ], [ -73.8308, 40.648985 ], [ -73.83109, 40.650062 ], [ -73.831189, 40.65076 ], [ -73.831568, 40.651176 ], [ -73.832173, 40.653355 ], [ -73.832383, 40.654246 ], [ -73.833062, 40.656696 ], [ -73.833386, 40.65806 ], [ -73.831271, 40.658368 ], [ -73.832602, 40.657835 ], [ -73.831945, 40.65618 ], [ -73.832086, 40.656139 ], [ -73.832783, 40.657557 ], [ -73.832905, 40.657492 ], [ -73.832769, 40.656796 ], [ -73.832183, 40.654903 ], [ -73.831854, 40.654893 ], [ -73.831555, 40.655251 ], [ -73.831443, 40.655775 ], [ -73.831162, 40.655928 ], [ -73.831495, 40.654988 ], [ -73.832125, 40.654281 ], [ -73.832056, 40.654055 ], [ -73.83171, 40.653939 ], [ -73.830604, 40.654815 ], [ -73.830556, 40.655403 ], [ -73.830309, 40.655628 ], [ -73.829668, 40.655607 ], [ -73.830083, 40.655152 ], [ -73.831203, 40.654198 ], [ -73.831585, 40.653822 ], [ -73.831289, 40.653487 ], [ -73.831323, 40.652735 ], [ -73.831105, 40.652265 ], [ -73.830938, 40.651634 ], [ -73.830009, 40.650912 ], [ -73.829871, 40.650438 ], [ -73.830012, 40.650337 ], [ -73.829283, 40.649586 ], [ -73.828462, 40.649127 ], [ -73.827016, 40.648768 ], [ -73.826429, 40.648334 ], [ -73.828391, 40.656022 ], [ -73.82962, 40.659297 ], [ -73.829915, 40.659674 ], [ -73.830295, 40.66041 ], [ -73.832479, 40.664977 ], [ -73.833311, 40.666751 ], [ -73.834876, 40.667204 ], [ -73.837241, 40.667352 ], [ -73.839278, 40.668194 ], [ -73.840421, 40.668634 ], [ -73.842428, 40.668776 ], [ -73.842265, 40.668264 ], [ -73.841651, 40.665962 ], [ -73.841253, 40.664204 ], [ -73.840403, 40.660825 ], [ -73.839724, 40.660943 ] ] ] ] } },
{ "type": "Feature", "properties": { "geoid": "36081091900", "ss_cur": 2 }, "geometry": { "type": "Polygon", "coordinates": [ [ [ -73.849952, 40.772049 ], [ -73.848797, 40.773201 ], [ -73.844601, 40.773049 ], [ -73.843553, 40.775607 ], [ -73.843386, 40.778601 ], [ -73.839763, 40.778607 ], [ -73.839603, 40.781685 ], [ -73.841408, 40.781683 ], [ -73.841495, 40.780146 ], [ -73.848753, 40.780138 ], [ -73.84933, 40.780133 ], [ -73.849526, 40.779474 ], [ -73.849699, 40.779163 ], [ -73.849803, 40.778776 ], [ -73.849358, 40.77817 ], [ -73.848956, 40.777936 ], [ -73.849098, 40.775794 ], [ -73.848931, 40.775565 ], [ -73.849137, 40.775087 ], [ -73.849213, 40.774556 ], [ -73.848963, 40.773751 ], [ -73.849187, 40.773113 ], [ -73.849952, 40.772049 ] ] ] } },
{ "type": "Feature", "properties": { "geoid": "36081068000", "ss_cur": 1 }, "geometry": { "type": "Polygon", "coordinates": [ [ [ -73.759105, 40.663666 ], [ -73.75783, 40.663209 ], [ -73.752114, 40.661067 ], [ -73.752599, 40.660317 ], [ -73.748324, 40.658709 ], [ -73.747823, 40.658633 ], [ -73.746926, 40.658991 ], [ -73.746837, 40.660744 ], [ -73.744874, 40.663682 ], [ -73.742818, 40.665298 ], [ -73.739549, 40.665248 ], [ -73.738558, 40.666389 ], [ -73.746085, 40.666392 ], [ -73.750713, 40.666419 ], [ -73.751758, 40.666387 ], [ -73.755924, 40.66638 ], [ -73.75763, 40.666443 ], [ -73.758043, 40.665616 ], [ -73.759105, 40.663666 ] ] ] } },
{ "type": "Feature", "properties": { "geoid": "36081069400", "ss_cur": 3 }, "geometry": { "type": "Polygon", "coordinates": [ [ [ -73.75982, 40.659341 ], [ -73.760073, 40.657836 ], [ -73.758372, 40.657592 ], [ -73.751538, 40.654287 ], [ -73.748404, 40.652655 ], [ -73.748043, 40.652501 ], [ -73.746548, 40.652546 ], [ -73.743324, 40.65253 ], [ -73.743286, 40.656127 ], [ -73.745059, 40.657399 ], [ -73.748061, 40.657527 ], [ -73.74858, 40.657579 ], [ -73.752988, 40.658079 ], [ -73.757437, 40.659122 ], [ -73.75982, 40.659341 ] ] ] } },
{ "type": "Feature", "properties": { "geoid": "36081000701", "ss_cur": 2 }, "geometry": { "type": "Polygon", "coordinates": [ [ [ -73.955991, 40.744487 ], [ -73.956899, 40.741782 ], [ -73.954583, 40.741337 ], [ -73.952125, 40.740883 ], [ -73.949927, 40.740435 ], [ -73.949229, 40.742515 ], [ -73.94876, 40.743895 ], [ -73.95574, 40.745243 ], [ -73.955991, 40.744487 ] ] ] } },
{ "type": "Feature", "properties": { "geoid": "36081091603", "ss_cur": 3 }, "geometry": { "type": "Polygon", "coordinates": [ [ [ -73.883063, 40.568227 ], [ -73.883585, 40.568229 ], [ -73.884461, 40.567901 ], [ -73.884704, 40.568233 ], [ -73.887195, 40.568242 ], [ -73.888058, 40.568025 ], [ -73.888403, 40.568087 ], [ -73.888791, 40.56794 ], [ -73.889596, 40.56795 ], [ -73.890287, 40.568181 ], [ -73.89085, 40.568254 ], [ -73.89209, 40.568259 ], [ -73.895445, 40.566145 ], [ -73.895818, 40.565633 ], [ -73.896134, 40.565367 ], [ -73.89969, 40.56339 ], [ -73.900689, 40.562963 ], [ -73.90171, 40.562749 ], [ -73.902282, 40.562829 ], [ -73.902577, 40.562997 ], [ -73.905843, 40.562493 ], [ -73.90709, 40.562988 ], [ -73.907304, 40.563135 ], [ -73.911242, 40.564866 ], [ -73.915917, 40.563682 ], [ -73.916499, 40.563345 ], [ -73.917662, 40.562834 ], [ -73.919099, 40.562478 ], [ -73.92108, 40.562088 ], [ -73.922236, 40.562081 ], [ -73.92546, 40.561265 ], [ -73.931615, 40.557519 ], [ -73.932101, 40.557501 ], [ -73.931673, 40.556858 ], [ -73.931188, 40.557024 ], [ -73.930426, 40.555592 ], [ -73.9305, 40.555559 ], [ -73.929804, 40.554089 ], [ -73.929655, 40.554133 ], [ -73.9291, 40.553102 ], [ -73.928062, 40.553407 ], [ -73.921908, 40.555324 ], [ -73.920988, 40.556283 ], [ -73.920155, 40.556289 ], [ -73.913556, 40.556462 ], [ -73.909891, 40.556681 ], [ -73.909881, 40.557044 ], [ -73.91008, 40.557323 ], [ -73.909954, 40.560509 ], [ -73.910096, 40.560781 ], [ -73.908392, 40.560762 ], [ -73.902638, 40.562045 ], [ -73.889572, 40.565699 ], [ -73.885824, 40.566732 ], [ -73.883175, 40.5675 ], [ -73.882769, 40.567589 ], [ -73.883063, 40.568227 ] ] ] } },
{ "type": "Feature", "properties": { "geoid": "36061006200", "ss_cur": 4 }, "geometry": { "type": "Polygon", "coordinates": [ [ [ -73.962604, 40.738794 ], [ -73.962619, 40.739025 ], [ -73.962621, 40.739026 ], [ -73.962604, 40.738794 ] ] ] } },
{ "type": "Feature", "properties": { "geoid": "36081001901", "ss_cur": 3 }, "geometry": { "type": "Polygon", "coordinates": [ [ [ -73.949229, 40.742515 ], [ -73.94642, 40.741974 ], [ -73.944195, 40.742874 ], [ -73.943006, 40.744594 ], [ -73.941847, 40.744944 ], [ -73.939964, 40.745737 ], [ -73.942381, 40.747114 ], [ -73.945055, 40.747656 ], [ -73.945649, 40.74581 ], [ -73.948522, 40.744651 ], [ -73.94876, 40.743895 ], [ -73.949229, 40.742515 ] ] ] } },
{ "type": "Feature", "properties": { "geoid": "36081097205", "ss_cur": 4 }, "geometry": { "type": "Polygon", "coordinates": [ [ [ -73.789327, 40.595205 ], [ -73.789132, 40.594036 ], [ -73.787043, 40.594903 ], [ -73.781835, 40.595259 ], [ -73.781951, 40.596449 ], [ -73.782089, 40.597829 ], [ -73.784795, 40.597696 ], [ -73.788372, 40.597498 ], [ -73.788235, 40.59611 ], [ -73.789156, 40.596069 ], [ -73.789114, 40.595483 ], [ -73.789327, 40.595205 ] ] ] } },
{ "type": "Feature", "properties": { "geoid": "36081000702", "ss_cur": 2 }, "geometry": { "type": "Polygon", "coordinates": [ [ [ -73.95574, 40.745243 ], [ -73.94876, 40.743895 ], [ -73.948522, 40.744651 ], [ -73.945649, 40.74581 ], [ -73.945055, 40.747656 ], [ -73.952212, 40.749048 ], [ -73.952197, 40.748571 ], [ -73.952711, 40.746868 ], [ -73.955049, 40.747326 ], [ -73.95574, 40.745243 ] ] ] } },
{ "type": "Feature", "properties": { "geoid": "36081008500", "ss_cur": 2 }, "geometry": { "type": "Polygon", "coordinates": [ [ [ -73.944166, 40.7593 ], [ -73.945813, 40.757791 ], [ -73.944349, 40.756867 ], [ -73.941238, 40.755226 ], [ -73.939099, 40.757486 ], [ -73.940861, 40.758103 ], [ -73.938044, 40.762521 ], [ -73.937004, 40.764232 ], [ -73.936004, 40.765877 ], [ -73.937634, 40.766467 ], [ -73.941626, 40.760048 ], [ -73.942455, 40.758675 ], [ -73.944166, 40.7593 ] ] ] } },
{ "type": "Feature", "properties": { "geoid": "36061023802", "ss_cur": 4 }, "geometry": { "type": "Polygon", "coordinates": [ [ [ -73.944724, 40.762876 ], [ -73.944714, 40.762871 ], [ -73.941311, 40.76691 ], [ -73.943504, 40.764507 ], [ -73.944724, 40.762876 ] ] ] } },
{ "type": "Feature", "properties": { "geoid": "36061008601", "ss_cur": 4 }, "geometry": { "type": "Polygon", "coordinates": [ [ [ -73.962621, 40.739026 ], [ -73.962619, 40.739025 ], [ -73.96242, 40.739698 ], [ -73.962621, 40.739026 ] ] ] } },
{ "type": "Feature", "properties": { "geoid": "36081092800", "ss_cur": 4 }, "geometry": { "type": "Polygon", "coordinates": [ [ [ -73.856845, 40.579262 ], [ -73.856762, 40.579169 ], [ -73.854848, 40.57587 ], [ -73.859814, 40.574204 ], [ -73.858909, 40.572571 ], [ -73.857178, 40.569574 ], [ -73.847216, 40.573016 ], [ -73.847644, 40.573604 ], [ -73.85216, 40.581438 ], [ -73.852197, 40.581552 ], [ -73.853057, 40.581264 ], [ -73.856845, 40.579262 ] ] ] } },
{ "type": "Feature", "properties": { "geoid": "36081091800", "ss_cur": 4 }, "geometry": { "type": "MultiPolygon", "coordinates": [ [ [ [ -73.866518, 40.572703 ], [ -73.865931, 40.573247 ], [ -73.866685, 40.572997 ], [ -73.866518, 40.572703 ] ] ], [ [ [ -73.863611, 40.575222 ], [ -73.863378, 40.575301 ], [ -73.862757, 40.575862 ], [ -73.863611, 40.575222 ] ] ] ] } },
{ "type": "Feature", "properties": { "geoid": "36061023804", "ss_cur": 3 }, "geometry": { "type": "MultiPolygon", "coordinates": [ [ [ [ -73.956841, 40.74882 ], [ -73.957042, 40.748929 ], [ -73.957887, 40.747838 ], [ -73.957731, 40.747767 ], [ -73.956841, 40.74882 ] ] ], [ [ [ -73.947842, 40.758986 ], [ -73.950839, 40.755211 ], [ -73.947831, 40.758981 ], [ -73.947842, 40.758986 ] ] ] ] } },
{ "type": "Feature", "properties": { "geoid": "36081008700", "ss_cur": 4 }, "geometry": { "type": "Polygon", "coordinates": [ [ [ -73.937472, 40.772553 ], [ -73.934808, 40.771742 ], [ -73.934437, 40.771471 ], [ -73.934526, 40.771169 ], [ -73.934245, 40.771021 ], [ -73.933915, 40.771836 ], [ -73.932782, 40.772385 ], [ -73.932684, 40.772692 ], [ -73.931816, 40.774206 ], [ -73.931045, 40.773973 ], [ -73.930263, 40.77546 ], [ -73.933497, 40.776435 ], [ -73.935854, 40.777204 ], [ -73.936379, 40.776913 ], [ -73.936532, 40.776692 ], [ -73.937049, 40.775875 ], [ -73.937526, 40.775262 ], [ -73.937654, 40.775078 ], [ -73.937857, 40.77408 ], [ -73.937472, 40.772553 ] ] ] } },
{ "type": "Feature", "properties": { "geoid": "36081147900", "ss_cur": 1 }, "geometry": { "type": "Polygon", "coordinates": [ [ [ -73.753459, 40.765441 ], [ -73.750721, 40.766504 ], [ -73.748769, 40.764072 ], [ -73.747061, 40.764452 ], [ -73.744281, 40.76535 ], [ -73.741258, 40.765699 ], [ -73.740053, 40.766278 ], [ -73.739637, 40.766603 ], [ -73.737073, 40.768787 ], [ -73.734884, 40.771383 ], [ -73.733961, 40.772441 ], [ -73.737731, 40.774778 ], [ -73.738864, 40.775581 ], [ -73.739375, 40.776006 ], [ -73.742036, 40.773916 ], [ -73.748852, 40.768469 ], [ -73.752194, 40.766009 ], [ -73.753459, 40.765441 ] ] ] } },
{ "type": "Feature", "properties": { "geoid": "36081099100", "ss_cur": 3 }, "geometry": { "type": "Polygon", "coordinates": [ [ [ -73.800035, 40.796252 ], [ -73.80123, 40.795524 ], [ -73.802784, 40.79561 ], [ -73.803247, 40.794432 ], [ -73.804125, 40.7945 ], [ -73.804561, 40.791359 ], [ -73.80733, 40.791544 ], [ -73.807973, 40.786884 ], [ -73.806276, 40.786291 ], [ -73.802421, 40.786011 ], [ -73.79685, 40.785903 ], [ -73.794939, 40.786267 ], [ -73.793301, 40.786885 ], [ -73.790582, 40.788121 ], [ -73.790704, 40.788217 ], [ -73.790828, 40.789341 ], [ -73.791965, 40.789216 ], [ -73.792689, 40.788786 ], [ -73.793361, 40.788964 ], [ -73.793878, 40.789005 ], [ -73.795205, 40.791662 ], [ -73.794806, 40.794894 ], [ -73.79581, 40.794996 ], [ -73.796501, 40.795126 ], [ -73.797429, 40.795458 ], [ -73.798113, 40.795614 ], [ -73.798588, 40.79591 ], [ -73.79931, 40.796096 ], [ -73.799575, 40.796326 ], [ -73.800035, 40.796252 ] ] ] } },
{ "type": "Feature", "properties": { "geoid": "36081090700", "ss_cur": 1 }, "geometry": { "type": "Polygon", "coordinates": [ [ [ -73.839306, 40.766061 ], [ -73.838828, 40.766717 ], [ -73.836731, 40.769214 ], [ -73.833427, 40.771426 ], [ -73.831712, 40.772466 ], [ -73.830156, 40.773817 ], [ -73.829278, 40.774874 ], [ -73.828527, 40.775999 ], [ -73.826234, 40.779913 ], [ -73.825284, 40.781689 ], [ -73.826784, 40.78166 ], [ -73.837775, 40.781644 ], [ -73.838698, 40.781669 ], [ -73.839603, 40.781685 ], [ -73.839763, 40.778607 ], [ -73.843386, 40.778601 ], [ -73.843553, 40.775607 ], [ -73.844601, 40.773049 ], [ -73.848797, 40.773201 ], [ -73.849952, 40.772049 ], [ -73.84934, 40.771196 ], [ -73.848907, 40.770991 ], [ -73.848595, 40.770632 ], [ -73.848464, 40.769788 ], [ -73.848823, 40.769485 ], [ -73.848998, 40.769157 ], [ -73.848747, 40.76872 ], [ -73.848246, 40.768564 ], [ -73.848273, 40.76821 ], [ -73.848625, 40.768122 ], [ -73.848215, 40.767643 ], [ -73.847807, 40.766781 ], [ -73.847232, 40.766321 ], [ -73.846523, 40.766304 ], [ -73.845283, 40.765674 ], [ -73.84449, 40.765468 ], [ -73.843949, 40.765503 ], [ -73.842961, 40.765863 ], [ -73.842683, 40.765839 ], [ -73.841445, 40.766114 ], [ -73.840313, 40.766303 ], [ -73.839903, 40.766832 ], [ -73.839699, 40.766401 ], [ -73.839306, 40.766061 ] ] ] } },
{ "type": "Feature", "properties": { "geoid": "36081101003", "ss_cur": 2 }, "geometry": { "type": "Polygon", "coordinates": [ [ [ -73.753753, 40.600704 ], [ -73.754067, 40.599494 ], [ -73.752477, 40.599237 ], [ -73.750653, 40.598837 ], [ -73.749785, 40.599505 ], [ -73.747636, 40.601031 ], [ -73.745404, 40.601947 ], [ -73.745739, 40.603395 ], [ -73.747561, 40.60307 ], [ -73.749704, 40.602582 ], [ -73.752849, 40.604252 ], [ -73.753753, 40.600704 ] ] ] } },
{ "type": "Feature", "properties": { "geoid": "36061023803", "ss_cur": 4 }, "geometry": { "type": "Polygon", "coordinates": [ [ [ -73.947842, 40.758986 ], [ -73.947831, 40.758981 ], [ -73.94646, 40.760692 ], [ -73.947842, 40.758986 ] ] ] } },
{ "type": "Feature", "properties": { "geoid": "36081088903", "ss_cur": 3 }, "geometry": { "type": "Polygon", "coordinates": [ [ [ -73.831712, 40.772466 ], [ -73.83149, 40.772021 ], [ -73.830584, 40.771631 ], [ -73.830545, 40.770216 ], [ -73.82957, 40.770703 ], [ -73.826565, 40.770634 ], [ -73.826574, 40.772337 ], [ -73.826252, 40.774513 ], [ -73.82583, 40.775907 ], [ -73.82433, 40.776735 ], [ -73.823817, 40.778352 ], [ -73.822917, 40.780528 ], [ -73.82224, 40.781686 ], [ -73.824997, 40.781692 ], [ -73.825284, 40.781689 ], [ -73.826234, 40.779913 ], [ -73.828527, 40.775999 ], [ -73.829278, 40.774874 ], [ -73.830156, 40.773817 ], [ -73.831712, 40.772466 ] ] ] } },
{ "type": "Feature", "properties": { "geoid": "36081101004", "ss_cur": 5 }, "geometry": { "type": "Polygon", "coordinates": [ [ [ -73.743595, 40.594673 ], [ -73.744431, 40.597419 ], [ -73.744754, 40.598819 ], [ -73.745404, 40.601947 ], [ -73.747636, 40.601031 ], [ -73.749785, 40.599505 ], [ -73.750653, 40.598837 ], [ -73.752477, 40.599237 ], [ -73.753209, 40.597315 ], [ -73.753202, 40.595144 ], [ -73.753179, 40.592868 ], [ -73.752797, 40.591823 ], [ -73.752348, 40.591801 ], [ -73.75161, 40.591377 ], [ -73.750501, 40.592355 ], [ -73.749127, 40.593225 ], [ -73.748181, 40.593524 ], [ -73.74737, 40.594063 ], [ -73.746657, 40.594304 ], [ -73.745982, 40.594383 ], [ -73.744727, 40.594657 ], [ -73.743595, 40.594673 ] ] ] } },
{ "type": "Feature", "properties": { "geoid": "36081103201", "ss_cur": 5 }, "geometry": { "type": "Polygon", "coordinates": [ [ [ -73.759724, 40.61016 ], [ -73.759823, 40.609639 ], [ -73.760952, 40.606444 ], [ -73.755273, 40.605326 ], [ -73.754418, 40.60497 ], [ -73.752913, 40.606904 ], [ -73.75242, 40.607864 ], [ -73.749882, 40.61033 ], [ -73.746943, 40.611766 ], [ -73.747193, 40.61199 ], [ -73.749119, 40.611786 ], [ -73.750087, 40.611633 ], [ -73.753457, 40.610512 ], [ -73.754731, 40.610397 ], [ -73.754962, 40.610154 ], [ -73.755565, 40.610127 ], [ -73.755759, 40.610369 ], [ -73.756484, 40.610186 ], [ -73.757318, 40.610299 ], [ -73.758418, 40.610289 ], [ -73.759446, 40.610356 ], [ -73.759724, 40.61016 ] ] ] } },
{ "type": "Feature", "properties": { "geoid": "36081092900", "ss_cur": 3 }, "geometry": { "type": "Polygon", "coordinates": [ [ [ -73.849699, 40.779163 ], [ -73.849526, 40.779474 ], [ -73.84933, 40.780133 ], [ -73.848753, 40.780138 ], [ -73.848579, 40.78321 ], [ -73.847636, 40.784123 ], [ -73.845807, 40.784183 ], [ -73.844865, 40.784339 ], [ -73.844809, 40.785361 ], [ -73.845736, 40.785992 ], [ -73.845705, 40.78682 ], [ -73.845908, 40.78772 ], [ -73.846067, 40.788042 ], [ -73.848427, 40.792752 ], [ -73.848908, 40.79344 ], [ -73.849338, 40.79338 ], [ -73.850972, 40.793866 ], [ -73.851592, 40.794095 ], [ -73.852624, 40.794758 ], [ -73.852768, 40.794397 ], [ -73.853534, 40.794147 ], [ -73.853742, 40.793849 ], [ -73.853652, 40.793344 ], [ -73.853745, 40.792302 ], [ -73.853203, 40.791867 ], [ -73.852682, 40.791297 ], [ -73.85269, 40.791063 ], [ -73.854454, 40.790283 ], [ -73.854803, 40.788627 ], [ -73.854418, 40.788336 ], [ -73.852843, 40.788351 ], [ -73.85323, 40.787899 ], [ -73.8545, 40.787741 ], [ -73.854766, 40.787788 ], [ -73.855951, 40.787692 ], [ -73.856171, 40.787507 ], [ -73.856366, 40.786981 ], [ -73.857013, 40.786656 ], [ -73.857549, 40.786943 ], [ -73.858159, 40.787044 ], [ -73.858697, 40.786507 ], [ -73.858629, 40.786131 ], [ -73.858973, 40.786022 ], [ -73.859124, 40.785741 ], [ -73.859003, 40.785195 ], [ -73.858527, 40.785222 ], [ -73.85799, 40.784686 ], [ -73.857894, 40.78429 ], [ -73.858171, 40.784054 ], [ -73.858085, 40.783732 ], [ -73.857614, 40.78362 ], [ -73.857281, 40.783369 ], [ -73.855934, 40.783326 ], [ -73.855452, 40.783151 ], [ -73.85539, 40.782084 ], [ -73.854856, 40.781948 ], [ -73.853647, 40.781998 ], [ -73.853225, 40.782069 ], [ -73.853151, 40.782332 ], [ -73.851232, 40.782411 ], [ -73.849525, 40.782365 ], [ -73.849244, 40.782255 ], [ -73.849846, 40.781601 ], [ -73.849914, 40.781096 ], [ -73.849782, 40.780604 ], [ -73.849614, 40.780546 ], [ -73.849495, 40.780074 ], [ -73.849845, 40.779784 ], [ -73.849794, 40.779506 ], [ -73.851041, 40.779288 ], [ -73.850969, 40.779119 ], [ -73.849579, 40.779406 ], [ -73.849699, 40.779163 ] ] ] } },
{ "type": "Feature", "properties": { "geoid": "36081094203", "ss_cur": 5 }, "geometry": { "type": "Polygon", "coordinates": [ [ [ -73.815598, 40.582825 ], [ -73.813526, 40.583481 ], [ -73.811326, 40.58373 ], [ -73.809912, 40.583809 ], [ -73.806833, 40.584611 ], [ -73.801433, 40.58565 ], [ -73.801715, 40.586664 ], [ -73.80199, 40.588861 ], [ -73.804304, 40.588319 ], [ -73.806345, 40.588072 ], [ -73.809864, 40.587734 ], [ -73.813047, 40.58733 ], [ -73.813845, 40.587067 ], [ -73.815434, 40.586452 ], [ -73.817228, 40.585679 ], [ -73.815989, 40.58369 ], [ -73.815701, 40.583421 ], [ -73.815598, 40.582825 ] ] ] } },
{ "type": "Feature", "properties": { "geoid": "36081098100", "ss_cur": 2 }, "geometry": { "type": "Polygon", "coordinates": [ [ [ -73.810146, 40.797155 ], [ -73.811497, 40.797352 ], [ -73.811823, 40.797467 ], [ -73.811791, 40.798035 ], [ -73.812272, 40.798136 ], [ -73.812541, 40.798067 ], [ -73.812876, 40.797185 ], [ -73.813248, 40.79722 ], [ -73.813637, 40.797056 ], [ -73.813646, 40.797526 ], [ -73.815955, 40.798507 ], [ -73.816493, 40.799019 ], [ -73.817387, 40.799297 ], [ -73.818317, 40.799929 ], [ -73.819128, 40.800558 ], [ -73.819818, 40.80081 ], [ -73.820982, 40.800486 ], [ -73.821902, 40.799737 ], [ -73.822542, 40.798966 ], [ -73.824047, 40.797973 ], [ -73.82354, 40.797123 ], [ -73.821212, 40.799031 ], [ -73.81857, 40.794988 ], [ -73.817811, 40.793473 ], [ -73.816823, 40.791018 ], [ -73.816124, 40.78826 ], [ -73.816085, 40.787799 ], [ -73.814591, 40.787367 ], [ -73.813373, 40.787148 ], [ -73.813804, 40.788833 ], [ -73.811522, 40.789362 ], [ -73.81356, 40.794456 ], [ -73.813018, 40.795944 ], [ -73.810435, 40.795001 ], [ -73.810437, 40.796636 ], [ -73.810146, 40.797155 ] ] ] } }
]
}
