{
"type": "FeatureCollection",
"name": "q02",
"features": [
{ "type": "Feature", "properties": { "resource_id": "facdb:01405ef56705c82df5c316bb8948b292", "name": "Astoria Houses", "category": "children-and-youth", "source": "facdb", "is_coad_member": false }, "geometry": { "type": "Point", "coordinates": [ -73.938505, 40.74491 ] } },
{ "type": "Feature", "properties": { "resource_id": "facdb:0225ae1c99a2e90b4dc12797b8d2ed8e", "name": "New York Junior Tennis League Inc", "category": "children-and-youth", "source": "facdb", "is_coad_member": false }, "geometry": { "type": "Point", "coordinates": [ -73.907007, 40.741209 ] } },
{ "type": "Feature", "properties": { "resource_id": "facdb:031c7594abe87e1f90bd2c65f38fddde", "name": "Transition Management Services", "category": "mental-health-and-recovery", "source": "facdb", "is_coad_member": false }, "geometry": { "type": "Point", "coordinates": [ -73.93913, 40.74967 ] } },
{ "type": "Feature", "properties": { "resource_id": "facdb:04f371f69efeb9feffb81e755910c19c", "name": "Selfhelp Community Services, Inc.", "category": "older-adults", "source": "facdb", "is_coad_member": false }, "geometry": { "type": "Point", "coordinates": [ -73.904373, 40.740266 ] } },
{ "type": "Feature", "properties": { "resource_id": "facdb:0690d2918cd3a6759046e339d97b7416", "name": "Joseph Bulova School", "category": "disability-and-access", "source": "facdb", "is_coad_member": false }, "geometry": { "type": "Point", "coordinates": [ -73.902829, 40.743857 ] } },
{ "type": "Feature", "properties": { "resource_id": "facdb:06ec949e4d9cc3925bbe05b5fee42a93", "name": "Research Foundation of the City University of New York", "category": "immigration-and-language", "source": "facdb", "is_coad_member": false }, "geometry": { "type": "Point", "coordinates": [ -73.937899, 40.744314 ] } },
{ "type": "Feature", "properties": { "resource_id": "facdb:086878224685ca31c662a372bb046875", "name": "P.S. 12 James B. Colgate", "category": "children-and-youth", "source": "facdb", "is_coad_member": false }, "geometry": { "type": "Point", "coordinates": [ -73.89307, 40.742306 ] } },
{ "type": "Feature", "properties": { "resource_id": "facdb:08f65d76f6c7e954c797323a7638f364", "name": "YMCA of Greater New York", "category": "children-and-youth", "source": "facdb", "is_coad_member": false }, "geometry": { "type": "Point", "coordinates": [ -73.923375, 40.745915 ] } },
{ "type": "Feature", "properties": { "resource_id": "facdb:094f6649bf53c2e9b75255fdae3765b8", "name": "Friends of Gantry Plaza State Park Inc", "category": "children-and-youth", "source": "facdb", "is_coad_member": false }, "geometry": { "type": "Point", "coordinates": [ -73.96084, 40.741975 ] } },
{ "type": "Feature", "properties": { "resource_id": "facdb:097d6a25dfc3ab84346c05e27d7a6eaa", "name": "Engine 292/RESCUE 4", "category": "emergency-services", "source": "facdb", "is_coad_member": false }, "geometry": { "type": "Point", "coordinates": [ -73.900996, 40.740673 ] } },
{ "type": "Feature", "properties": { "resource_id": "facdb:0a1832704a4423e1b5d9bf6a9d9d390f", "name": "Park", "category": "parks-and-environment", "source": "facdb", "is_coad_member": false }, "geometry": { "type": "Point", "coordinates": [ -73.920097, 40.733534 ] } },
{ "type": "Feature", "properties": { "resource_id": "facdb:0c0849ef5019542e79ce3e56aaafc375", "name": "Offices", "category": "government-offices", "source": "facdb", "is_coad_member": false }, "geometry": { "type": "Point", "coordinates": [ -73.936443, 40.742215 ] } },
{ "type": "Feature", "properties": { "resource_id": "facdb:0d9e844171aa6324e4307adb3a93c7ec", "name": "P.S.1 Contemporary Art Center, Inc.", "category": "libraries-and-community", "source": "facdb", "is_coad_member": false }, "geometry": { "type": "Point", "coordinates": [ -73.946931, 40.745586 ] } },
{ "type": "Feature", "properties": { "resource_id": "facdb:0e0f6da681a7e189b4b3d23314605b5f", "name": "Mental Health Providers of Western Queens Inc", "category": "mental-health-and-recovery", "source": "facdb", "is_coad_member": false }, "geometry": { "type": "Point", "coordinates": [ -73.902817, 40.744453 ] } },
{ "type": "Feature", "properties": { "resource_id": "facdb:0f155277de5e34dee5f814f44e4d3f09", "name": "Ddc Headquarters", "category": "government-offices", "source": "facdb", "is_coad_member": false }, "geometry": { "type": "Point", "coordinates": [ -73.936077, 40.744071 ] } },
{ "type": "Feature", "properties": { "resource_id": "facdb:0f9242bab68d73a9f044e619819cdafb", "name": "29th Street Plaza", "category": "parks-and-environment", "source": "facdb", "is_coad_member": false }, "geometry": { "type": "Point", "coordinates": [ -73.938418, 40.744223 ] } },
{ "type": "Feature", "properties": { "resource_id": "facdb:1033d2ae08d17cc0625c410b80900cc0", "name": "Murray Playground", "category": "parks-and-environment", "source": "facdb", "is_coad_member": false }, "geometry": { "type": "Point", "coordinates": [ -73.948932, 40.747259 ] } },
{ "type": "Feature", "properties": { "resource_id": "facdb:1386749d153c46867857f076a7d92a37", "name": "Jacob a Riis Neighborhood Settlement", "category": "children-and-youth", "source": "facdb", "is_coad_member": false }, "geometry": { "type": "Point", "coordinates": [ -73.946472, 40.74852 ] } },
{ "type": "Feature", "properties": { "resource_id": "facdb:13d4537d4d35bedd9226f4d5ccf75af1", "name": "Mental Health Providers of Western Queens Smh Cma (Aot)", "category": "mental-health-and-recovery", "source": "facdb", "is_coad_member": false }, "geometry": { "type": "Point", "coordinates": [ -73.90272, 40.74465 ] } },
{ "type": "Feature", "properties": { "resource_id": "facdb:14339d7ae28f9b9dc83d0fdc9dca1799", "name": "Court Square Park", "category": "parks-and-environment", "source": "facdb", "is_coad_member": false }, "geometry": { "type": "Point", "coordinates": [ -73.943053, 40.745912 ] } },
{ "type": "Feature", "properties": { "resource_id": "facdb:15d470958f49634dde3df84113b22534", "name": "Transborderart Inc", "category": "libraries-and-community", "source": "facdb", "is_coad_member": false }, "geometry": { "type": "Point", "coordinates": [ -73.940695, 40.748961 ] } },
{ "type": "Feature", "properties": { "resource_id": "facdb:17badfb07cf539ec0d61eed5e71f9b8c", "name": "P.S. 11 Kathryn Phelan", "category": "children-and-youth", "source": "facdb", "is_coad_member": false }, "geometry": { "type": "Point", "coordinates": [ -73.909223, 40.745757 ] } },
{ "type": "Feature", "properties": { "resource_id": "facdb:17efe4fa5ae8c3ad03b5334ebfc1fdfe", "name": "Theater Et Al", "category": "libraries-and-community", "source": "facdb", "is_coad_member": false }, "geometry": { "type": "Point", "coordinates": [ -73.954326, 40.743739 ] } },
{ "type": "Feature", "properties": { "resource_id": "facdb:1846b270b899cc055e2e0d9b5915cabc", "name": "Queens Library-Court Square", "category": "children-and-youth", "source": "facdb", "is_coad_member": false }, "geometry": { "type": "Point", "coordinates": [ -73.94457, 40.747116 ] } },
{ "type": "Feature", "properties": { "resource_id": "facdb:18557b65a9623a43bbce6bb402c833ac", "name": "Alc-Ms 258", "category": "children-and-youth", "source": "facdb", "is_coad_member": false }, "geometry": { "type": "Point", "coordinates": [ -73.952295, 40.749404 ] } },
{ "type": "Feature", "properties": { "resource_id": "facdb:1899ba26cb43b507a4157482f34c5df7", "name": "Queens Vocational and Technical High School (24Q600)", "category": "children-and-youth", "source": "facdb", "is_coad_member": false }, "geometry": { "type": "Point", "coordinates": [ -73.927972, 40.741626 ] } },
{ "type": "Feature", "properties": { "resource_id": "facdb:1ae3421236fa6dc3cea7901f5afd9c5e", "name": "PS 152 Gwendoline N. Alleyne School (30Q152)", "category": "children-and-youth", "source": "facdb", "is_coad_member": false }, "geometry": { "type": "Point", "coordinates": [ -73.900369, 40.753076 ] } },
{ "type": "Feature", "properties": { "resource_id": "facdb:1b9168a3e9e269c2b66f66928be65ce3", "name": "Forward Motion Theatre, Inc.", "category": "libraries-and-community", "source": "facdb", "is_coad_member": false }, "geometry": { "type": "Point", "coordinates": [ -73.945418, 40.750115 ] } },
{ "type": "Feature", "properties": { "resource_id": "facdb:1c2acc8ff60555089ea681564892ac13", "name": "Woodside Community Church", "category": "children-and-youth", "source": "facdb", "is_coad_member": false }, "geometry": { "type": "Point", "coordinates": [ -73.906555, 40.74441 ] } },
{ "type": "Feature", "properties": { "resource_id": "facdb:1dfc51b70fb37d0be94b81378a1d2509", "name": "Offices", "category": "government-offices", "source": "facdb", "is_coad_member": false }, "geometry": { "type": "Point", "coordinates": [ -73.944109, 40.745639 ] } },
{ "type": "Feature", "properties": { "resource_id": "facdb:1e16cd035eb2b9763e78ce2ea094117d", "name": "Queen of Angels Rc Church", "category": "children-and-youth", "source": "facdb", "is_coad_member": false }, "geometry": { "type": "Point", "coordinates": [ -73.919199, 40.746488 ] } },
{ "type": "Feature", "properties": { "resource_id": "facdb:1eefa906f73368a94a691ff3e5ffa2f8", "name": "Sunnyside Community Services Inc", "category": "children-and-youth", "source": "facdb", "is_coad_member": false }, "geometry": { "type": "Point", "coordinates": [ -73.927972, 40.741626 ] } },
{ "type": "Feature", "properties": { "resource_id": "facdb:1ef32db19f86b1c8e6caac97298abcfa", "name": "IS 5 - the Walter Crowley Intermediate School", "category": "children-and-youth", "source": "facdb", "is_coad_member": false }, "geometry": { "type": "Point", "coordinates": [ -73.887876, 40.737417 ] } },
{ "type": "Feature", "properties": { "resource_id": "facdb:20ab3b997999b841105704af0dcec9d1", "name": "United States Post Office-Long Island City", "category": "parks-and-environment", "source": "facdb", "is_coad_member": false }, "geometry": { "type": "Point", "coordinates": [ -73.948619, 40.745724 ] } },
{ "type": "Feature", "properties": { "resource_id": "facdb:223931155e6ebadfc87613a51b35a768", "name": "108th Precinct Police Station", "category": "emergency-services", "source": "facdb", "is_coad_member": false }, "geometry": { "type": "Point", "coordinates": [ -73.954735, 40.743072 ] } },
{ "type": "Feature", "properties": { "resource_id": "facdb:247742d695822c7e8c0055845226cb79", "name": "East River Development Alliance, Inc.", "category": "children-and-youth", "source": "facdb", "is_coad_member": false }, "geometry": { "type": "Point", "coordinates": [ -73.94994, 40.74289 ] } },
{ "type": "Feature", "properties": { "resource_id": "facdb:24856ee20bacadf613ca1d24bf075308", "name": "AIDS Center of Queens County : AIDS Center of Queens County", "category": "food-assistance", "source": "facdb", "is_coad_member": false }, "geometry": { "type": "Point", "coordinates": [ -73.902227, 40.744727 ] } },
{ "type": "Feature", "properties": { "resource_id": "facdb:2528b37eff6d27b9f1790db6a4076912", "name": "0690(69)\t939\tQUEENS - 126 Bed Assessment", "category": "mental-health-and-recovery", "source": "facdb", "is_coad_member": false }, "geometry": { "type": "Point", "coordinates": [ -73.933051, 40.739208 ] } },
{ "type": "Feature", "properties": { "resource_id": "facdb:256baf807754fd43132bef5d8aaef631", "name": "Adventureland Day Camp", "category": "children-and-youth", "source": "facdb", "is_coad_member": false }, "geometry": { "type": "Point", "coordinates": [ -73.906771, 40.743719 ] } },
{ "type": "Feature", "properties": { "resource_id": "facdb:2590c8b8b769c0f2debf9207b73a9b41", "name": "Apex Technical School", "category": "education-and-jobs", "source": "facdb", "is_coad_member": false }, "geometry": { "type": "Point", "coordinates": [ -73.949185, 40.748926 ] } },
{ "type": "Feature", "properties": { "resource_id": "facdb:26b788b602fa13ad488d794ae9708832", "name": "Dcas Testing", "category": "government-offices", "source": "facdb", "is_coad_member": false }, "geometry": { "type": "Point", "coordinates": [ -73.930103, 40.745459 ] } },
{ "type": "Feature", "properties": { "resource_id": "facdb:28897cce021230c257270bd063fd3b5b", "name": "Sunnyside Community Services Inc", "category": "children-and-youth", "source": "facdb", "is_coad_member": false }, "geometry": { "type": "Point", "coordinates": [ -73.925616, 40.745104 ] } },
{ "type": "Feature", "properties": { "resource_id": "facdb:2c8cc67ce4e6c79f80d06dc0d521d8b9", "name": "Woodside", "category": "libraries-and-community", "source": "facdb", "is_coad_member": false }, "geometry": { "type": "Point", "coordinates": [ -73.909799, 40.745349 ] } },
{ "type": "Feature", "properties": { "resource_id": "facdb:2d9f0e29e08b6c2c2e63d489b351646a", "name": "World Dance Theatre", "category": "libraries-and-community", "source": "facdb", "is_coad_member": false }, "geometry": { "type": "Point", "coordinates": [ -73.922445, 40.744816 ] } },
{ "type": "Feature", "properties": { "resource_id": "facdb:2db12fc49db3b4923ec6cecb3f405c4a", "name": "Laguardia Community College", "category": "children-and-youth", "source": "facdb", "is_coad_member": false }, "geometry": { "type": "Point", "coordinates": [ -73.937899, 40.744314 ] } },
{ "type": "Feature", "properties": { "resource_id": "facdb:2e1371b66335ce11836e920174003244", "name": "P.S. 199 Maurice A. Fitzgerald", "category": "children-and-youth", "source": "facdb", "is_coad_member": false }, "geometry": { "type": "Point", "coordinates": [ -73.926318, 40.739656 ] } },
{ "type": "Feature", "properties": { "resource_id": "facdb:2ea94ad57946672dd4249c17654b1a2f", "name": "Western Queens Consultation Center", "category": "mental-health-and-recovery", "source": "facdb", "is_coad_member": false }, "geometry": { "type": "Point", "coordinates": [ -73.920388, 40.742952 ] } },
{ "type": "Feature", "properties": { "resource_id": "facdb:2f6019fff30809e1e47e3dc47a2b0501", "name": "Spargo Park", "category": "parks-and-environment", "source": "facdb", "is_coad_member": false }, "geometry": { "type": "Point", "coordinates": [ -73.897271, 40.741372 ] } },
{ "type": "Feature", "properties": { "resource_id": "facdb:2f707c1cf2955f681293b6240f1ea01f", "name": "Cohen Family Wellness Center", "category": "mental-health-and-recovery", "source": "facdb", "is_coad_member": false }, "geometry": { "type": "Point", "coordinates": [ -73.912817, 40.743839 ] } },
{ "type": "Feature", "properties": { "resource_id": "facdb:2facd42e5a2aef352ac2cfa328fba0e2", "name": "Sunnyside Community Services Inc", "category": "children-and-youth", "source": "facdb", "is_coad_member": false }, "geometry": { "type": "Point", "coordinates": [ -73.922275, 40.741986 ] } },
{ "type": "Feature", "properties": { "resource_id": "facdb:30ddca25e36fbefd592686ac68e10896", "name": "Research Foundation of the City University of New York", "category": "children-and-youth", "source": "facdb", "is_coad_member": false }, "geometry": { "type": "Point", "coordinates": [ -73.937899, 40.744314 ] } },
{ "type": "Feature", "properties": { "resource_id": "facdb:3179052794577ba4a5969d745f6ca5d0", "name": "Woodside on the Move, Inc.", "category": "libraries-and-community", "source": "facdb", "is_coad_member": false }, "geometry": { "type": "Point", "coordinates": [ -73.905296, 40.746652 ] } },
{ "type": "Feature", "properties": { "resource_id": "facdb:31b58369ef35c75c64c96f4b88939954", "name": "Park", "category": "parks-and-environment", "source": "facdb", "is_coad_member": false }, "geometry": { "type": "Point", "coordinates": [ -73.897061, 40.742041 ] } },
{ "type": "Feature", "properties": { "resource_id": "facdb:31fb8c94746c136ce624f9be3ba81182", "name": "La Jornada : la Jornada Food Truck", "category": "food-assistance", "source": "facdb", "is_coad_member": false }, "geometry": { "type": "Point", "coordinates": [ -73.937448, 40.742911 ] } },
{ "type": "Feature", "properties": { "resource_id": "facdb:331c0591267879e0904f13deb95de4a7", "name": "Gantry Plaza", "category": "parks-and-environment", "source": "facdb", "is_coad_member": false }, "geometry": { "type": "Point", "coordinates": [ -73.958733, 40.745484 ] } },
{ "type": "Feature", "properties": { "resource_id": "facdb:33a76619a5c7af3c222c99615e68d155", "name": "Latham Park", "category": "parks-and-environment", "source": "facdb", "is_coad_member": false }, "geometry": { "type": "Point", "coordinates": [ -73.897969, 40.74188 ] } },
{ "type": "Feature", "properties": { "resource_id": "facdb:349e7d750e0783cbd57d577aa9c384d7", "name": "Crosson Green", "category": "parks-and-environment", "source": "facdb", "is_coad_member": false }, "geometry": { "type": "Point", "coordinates": [ -73.896679, 40.742323 ] } },
{ "type": "Feature", "properties": { "resource_id": "facdb:36ca16c9a9d91bd90eb53ace85d58908", "name": "Hunters Point", "category": "libraries-and-community", "source": "facdb", "is_coad_member": false }, "geometry": { "type": "Point", "coordinates": [ -73.958025, 40.745287 ] } },
{ "type": "Feature", "properties": { "resource_id": "facdb:36d7eb1559113c9a5c4adbe3b624f54b", "name": "New York Edge, Inc.", "category": "children-and-youth", "source": "facdb", "is_coad_member": false }, "geometry": { "type": "Point", "coordinates": [ -73.907007, 40.741209 ] } },
{ "type": "Feature", "properties": { "resource_id": "facdb:372fa8dc37406344f8cf3384ba93f79e", "name": "NYC Kids Rise, Inc.", "category": "children-and-youth", "source": "facdb", "is_coad_member": false }, "geometry": { "type": "Point", "coordinates": [ -73.938694, 40.748952 ] } },
{ "type": "Feature", "properties": { "resource_id": "facdb:3749c51aeeb490e255b74014b99383e5", "name": "Research Foundation of the City University of New York", "category": "children-and-youth", "source": "facdb", "is_coad_member": false }, "geometry": { "type": "Point", "coordinates": [ -73.937899, 40.744314 ] } },
{ "type": "Feature", "properties": { "resource_id": "facdb:37de24d7757508beaa5c3a8700c91c88", "name": "Queens Boulevard Extended Care Facility", "category": "health-care", "source": "facdb", "is_coad_member": false }, "geometry": { "type": "Point", "coordinates": [ -73.902992, 40.741702 ] } },
{ "type": "Feature", "properties": { "resource_id": "facdb:38236cf405690469441fe3cb9720adf9", "name": "Sunnyside Reformed Church", "category": "children-and-youth", "source": "facdb", "is_coad_member": false }, "geometry": { "type": "Point", "coordinates": [ -73.915803, 40.746587 ] } },
{ "type": "Feature", "properties": { "resource_id": "facdb:387b1c670c3d42cba64496fc2539f9c7", "name": "Sabba Park", "category": "parks-and-environment", "source": "facdb", "is_coad_member": false }, "geometry": { "type": "Point", "coordinates": [ -73.915868, 40.742835 ] } },
{ "type": "Feature", "properties": { "resource_id": "facdb:39653bf34c91d058eb17a0063f013ef4", "name": "Long Island City YMCA", "category": "children-and-youth", "source": "facdb", "is_coad_member": false }, "geometry": { "type": "Point", "coordinates": [ -73.932189, 40.745407 ] } },
{ "type": "Feature", "properties": { "resource_id": "facdb:3f9d62ed2da2679c61237d9d1f7692a7", "name": "Queens Library-Woodside", "category": "children-and-youth", "source": "facdb", "is_coad_member": false }, "geometry": { "type": "Point", "coordinates": [ -73.909799, 40.745349 ] } },
{ "type": "Feature", "properties": { "resource_id": "facdb:3ffd53384bc6e28b2e0f745bb4cadf1d", "name": "NY School for Med & Dent Assts", "category": "education-and-jobs", "source": "facdb", "is_coad_member": false }, "geometry": { "type": "Point", "coordinates": [ -73.931304, 40.744213 ] } },
{ "type": "Feature", "properties": { "resource_id": "facdb:40a2a1110bd0d3d8116ecaf33f08aa45", "name": "Sunnyside Community Services Inc", "category": "children-and-youth", "source": "facdb", "is_coad_member": false }, "geometry": { "type": "Point", "coordinates": [ -73.923375, 40.745915 ] } },
{ "type": "Feature", "properties": { "resource_id": "facdb:40bcdb8690d04b80f6be04e5d16ec0f7", "name": "Maspeth Town Hall, Inc.", "category": "children-and-youth", "source": "facdb", "is_coad_member": false }, "geometry": { "type": "Point", "coordinates": [ -73.89307, 40.742306 ] } },
{ "type": "Feature", "properties": { "resource_id": "facdb:420ea4385e69922cdc511680d8cf7140", "name": "Solace House Inc", "category": "children-and-youth", "source": "facdb", "is_coad_member": false }, "geometry": { "type": "Point", "coordinates": [ -73.953042, 40.742089 ] } },
{ "type": "Feature", "properties": { "resource_id": "facdb:427e0354bfb4b3fbc028f58719a377b6", "name": "Engine 258/LADDER 115", "category": "emergency-services", "source": "facdb", "is_coad_member": false }, "geometry": { "type": "Point", "coordinates": [ -73.951715, 40.745002 ] } },
{ "type": "Feature", "properties": { "resource_id": "facdb:42d05d0eac3c07b3db31b34e48f8a99b", "name": "Technical Services", "category": "government-offices", "source": "facdb", "is_coad_member": false }, "geometry": { "type": "Point", "coordinates": [ -73.930509, 40.743414 ] } },
{ "type": "Feature", "properties": { "resource_id": "facdb:432e1175913df5b482b3f6cd4cc06685", "name": "Crosson Park", "category": "parks-and-environment", "source": "facdb", "is_coad_member": false }, "geometry": { "type": "Point", "coordinates": [ -73.895904, 40.74294 ] } },
{ "type": "Feature", "properties": { "resource_id": "facdb:44ad6030a77f8099d51be14ec811ddd0", "name": "Queens Boulevard Extended Care Facility", "category": "health-care", "source": "facdb", "is_coad_member": false }, "geometry": { "type": "Point", "coordinates": [ -73.902992, 40.741702 ] } },
{ "type": "Feature", "properties": { "resource_id": "facdb:465b730b1e80c0110cf55de08fff3c51", "name": "Selfhelp Community Services Inc", "category": "older-adults", "source": "facdb", "is_coad_member": false }, "geometry": { "type": "Point", "coordinates": [ -73.903821, 40.740993 ] } },
{ "type": "Feature", "properties": { "resource_id": "facdb:4867b45fe15635ca7861d5329f2781ce", "name": "Pigeon Paradise", "category": "parks-and-environment", "source": "facdb", "is_coad_member": false }, "geometry": { "type": "Point", "coordinates": [ -73.896567, 40.748654 ] } },
{ "type": "Feature", "properties": { "resource_id": "facdb:4984b7f5f27d49ad4ca0dc8abc5f039f", "name": "Incredible Messanger Youth Ensemble", "category": "children-and-youth", "source": "facdb", "is_coad_member": false }, "geometry": { "type": "Point", "coordinates": [ -73.938694, 40.748952 ] } },
{ "type": "Feature", "properties": { "resource_id": "facdb:4b9d793ab990193cc9d04877f33b61df", "name": "I.S. 429", "category": "children-and-youth", "source": "facdb", "is_coad_member": false }, "geometry": { "type": "Point", "coordinates": [ -73.915958, 40.749808 ] } },
{ "type": "Feature", "properties": { "resource_id": "facdb:4c2637738c2f59cb38fdc5649be26614", "name": "Hunters Point Community Middle School", "category": "children-and-youth", "source": "facdb", "is_coad_member": false }, "geometry": { "type": "Point", "coordinates": [ -73.959374, 40.742736 ] } },
{ "type": "Feature", "properties": { "resource_id": "facdb:4e9675bd52dc408f82e74bf9e99248c1", "name": "Foundation for Filipino Artists, Inc.", "category": "libraries-and-community", "source": "facdb", "is_coad_member": false }, "geometry": { "type": "Point", "coordinates": [ -73.902153, 40.749998 ] } },
{ "type": "Feature", "properties": { "resource_id": "facdb:4ee0c7ccf71904171d92241d34c8d2b3", "name": "Nysarc Queens", "category": "children-and-youth", "source": "facdb", "is_coad_member": false }, "geometry": { "type": "Point", "coordinates": [ -73.94876, 40.749404 ] } },
{ "type": "Feature", "properties": { "resource_id": "facdb:4fde33daa6ba9f10dcf21e8877ccddd5", "name": "Northern Woodside Coalition", "category": "libraries-and-community", "source": "facdb", "is_coad_member": false }, "geometry": { "type": "Point", "coordinates": [ -73.902002, 40.752468 ] } },
{ "type": "Feature", "properties": { "resource_id": "facdb:519e4d9d9fdb9f57722aeb721199c092", "name": "Big Bush Playground", "category": "parks-and-environment", "source": "facdb", "is_coad_member": false }, "geometry": { "type": "Point", "coordinates": [ -73.902628, 40.739608 ] } },
{ "type": "Feature", "properties": { "resource_id": "facdb:51ca02c70072b4f35ba0163ef400567c", "name": "Research Foundation of the City University of New York", "category": "children-and-youth", "source": "facdb", "is_coad_member": false }, "geometry": { "type": "Point", "coordinates": [ -73.937899, 40.744314 ] } },
{ "type": "Feature", "properties": { "resource_id": "facdb:52ce310613d8e6ca37ef1be82d5fc2b1", "name": "Sherry Dog Run", "category": "parks-and-environment", "source": "facdb", "is_coad_member": false }, "geometry": { "type": "Point", "coordinates": [ -73.898821, 40.741371 ] } },
{ "type": "Feature", "properties": { "resource_id": "facdb:52fb86aad527bb0664b9353b81a00133", "name": "Torsney Playground", "category": "parks-and-environment", "source": "facdb", "is_coad_member": false }, "geometry": { "type": "Point", "coordinates": [ -73.921611, 40.747351 ] } },
{ "type": "Feature", "properties": { "resource_id": "facdb:534ad9289b6754a3ecb2abf05d09db21", "name": "American Folk Art Museum", "category": "libraries-and-community", "source": "facdb", "is_coad_member": false }, "geometry": { "type": "Point", "coordinates": [ -73.932652, 40.742219 ] } },
{ "type": "Feature", "properties": { "resource_id": "facdb:545e298f5d33b3e80070c44abbd7bd4d", "name": "Laguardia Performing Arts Center", "category": "libraries-and-community", "source": "facdb", "is_coad_member": false }, "geometry": { "type": "Point", "coordinates": [ -73.935099, 40.743989 ] } },
{ "type": "Feature", "properties": { "resource_id": "facdb:54b66c41ded88961e4be51deca074649", "name": "Emerald Isle Immigration Center Inc", "category": "immigration-and-language", "source": "facdb", "is_coad_member": false }, "geometry": { "type": "Point", "coordinates": [ -73.904698, 40.74493 ] } },
{ "type": "Feature", "properties": { "resource_id": "facdb:559dbfb417c3238073fb310af0574b29", "name": "St. Raphael Rc Church Food Pantry : St. Raphael Rc Church Food Pantry", "category": "food-assistance", "source": "facdb", "is_coad_member": false }, "geometry": { "type": "Point", "coordinates": [ -73.929978, 40.737129 ] } },
{ "type": "Feature", "properties": { "resource_id": "facdb:56c15321660e47cedc2e57a3e8d1a05e", "name": "General Hart Playground", "category": "parks-and-environment", "source": "facdb", "is_coad_member": false }, "geometry": { "type": "Point", "coordinates": [ -73.897234, 40.748786 ] } },
{ "type": "Feature", "properties": { "resource_id": "facdb:570cdfc9f46180288c6ca17ec3115bf1", "name": "American Bolero Dance Company, Inc.", "category": "libraries-and-community", "source": "facdb", "is_coad_member": false }, "geometry": { "type": "Point", "coordinates": [ -73.949682, 40.753189 ] } },
{ "type": "Feature", "properties": { "resource_id": "facdb:57d965467286d9dc134632936e1d6091", "name": "0690(15)\t839\tQUEENS - 126 Bed Outreach", "category": "mental-health-and-recovery", "source": "facdb", "is_coad_member": false }, "geometry": { "type": "Point", "coordinates": [ -73.933051, 40.739208 ] } },
{ "type": "Feature", "properties": { "resource_id": "facdb:5963be5ceeadee791aec0dd76b8a1d71", "name": "Research Foundation of the City University of New York", "category": "children-and-youth", "source": "facdb", "is_coad_member": false }, "geometry": { "type": "Point", "coordinates": [ -73.937899, 40.744314 ] } },
{ "type": "Feature", "properties": { "resource_id": "facdb:59e6b9d682d731f9dd1352ca325f7064", "name": "John Vincent Daniels Jr. Square", "category": "parks-and-environment", "source": "facdb", "is_coad_member": false }, "geometry": { "type": "Point", "coordinates": [ -73.913429, 40.744152 ] } },
{ "type": "Feature", "properties": { "resource_id": "facdb:5d45e0402ebc5e7c397f6c40ae696f9f", "name": "La Jornada : la Jornada", "category": "food-assistance", "source": "facdb", "is_coad_member": false }, "geometry": { "type": "Point", "coordinates": [ -73.937448, 40.742911 ] } },
{ "type": "Feature", "properties": { "resource_id": "facdb:5d623f907ab513858a42cc10d3039cf6", "name": "The Mental Health Association of New York City Inc", "category": "mental-health-and-recovery", "source": "facdb", "is_coad_member": false }, "geometry": { "type": "Point", "coordinates": [ -73.938928, 40.749376 ] } },
{ "type": "Feature", "properties": { "resource_id": "facdb:5e0d84f3bab3bff22e65e278fa835994", "name": "Hunter's Point South Park", "category": "parks-and-environment", "source": "facdb", "is_coad_member": false }, "geometry": { "type": "Point", "coordinates": [ -73.96084, 40.741975 ] } },
{ "type": "Feature", "properties": { "resource_id": "facdb:5e49fcdc05c59ca7a9ee62b10f679dde", "name": "Forum for Urban Design", "category": "libraries-and-community", "source": "facdb", "is_coad_member": false }, "geometry": { "type": "Point", "coordinates": [ -73.937899, 40.744314 ] } },
{ "type": "Feature", "properties": { "resource_id": "facdb:5e81cb2762619059b27e40f26a906140", "name": "Db Grant Associates Inc", "category": "education-and-jobs", "source": "facdb", "is_coad_member": false }, "geometry": { "type": "Point", "coordinates": [ -73.941945, 40.743003 ] } },
{ "type": "Feature", "properties": { "resource_id": "facdb:5f90faa51b792f355a2809885f3d9b8b", "name": "Friends of Gantry Plaza State Park Inc", "category": "children-and-youth", "source": "facdb", "is_coad_member": false }, "geometry": { "type": "Point", "coordinates": [ -73.956281, 40.745092 ] } },
{ "type": "Feature", "properties": { "resource_id": "facdb:6044056757bc83755fe52a7aac0d43c6", "name": "New York Architectural Terra Cotta Company Office Building", "category": "parks-and-environment", "source": "facdb", "is_coad_member": false }, "geometry": { "type": "Point", "coordinates": [ -73.950424, 40.754444 ] } },
{ "type": "Feature", "properties": { "resource_id": "facdb:60c6476912254089f7b1d12e68114944", "name": "Sunnyside Gardens Historic District", "category": "parks-and-environment", "source": "facdb", "is_coad_member": false }, "geometry": { "type": "Point", "coordinates": [ -73.916595, 40.747933 ] } },
{ "type": "Feature", "properties": { "resource_id": "facdb:6275b67d460616eb09ce7a378311b613", "name": "Blessed Virgin Mary Help of Christians Church", "category": "children-and-youth", "source": "facdb", "is_coad_member": false }, "geometry": { "type": "Point", "coordinates": [ -73.892854, 40.738525 ] } },
{ "type": "Feature", "properties": { "resource_id": "facdb:63abcc4f904588d8766135a913450923", "name": "YMCA of Greater New York", "category": "children-and-youth", "source": "facdb", "is_coad_member": false }, "geometry": { "type": "Point", "coordinates": [ -73.932189, 40.745407 ] } },
{ "type": "Feature", "properties": { "resource_id": "facdb:642c10db531a7f29e4a7704afc917621", "name": "New York Institute of Medical Career", "category": "education-and-jobs", "source": "facdb", "is_coad_member": false }, "geometry": { "type": "Point", "coordinates": [ -73.897147, 40.743302 ] } },
{ "type": "Feature", "properties": { "resource_id": "facdb:6690b729929e4cc70f2c7c662effebf9", "name": "Nysarc Inc New York City Chapter", "category": "disability-and-access", "source": "facdb", "is_coad_member": false }, "geometry": { "type": "Point", "coordinates": [ -73.910135, 40.750069 ] } },
{ "type": "Feature", "properties": { "resource_id": "facdb:670327db07591b61d674e8ddb8bd8824", "name": "Woodside on the Move, Inc.", "category": "children-and-youth", "source": "facdb", "is_coad_member": false }, "geometry": { "type": "Point", "coordinates": [ -73.900369, 40.753076 ] } },
{ "type": "Feature", "properties": { "resource_id": "facdb:674626ff691dc5b1bb121759588f5a9f", "name": "Torsney Playground", "category": "children-and-youth", "source": "facdb", "is_coad_member": false }, "geometry": { "type": "Point", "coordinates": [ -73.920791, 40.746897 ] } },
{ "type": "Feature", "properties": { "resource_id": "facdb:680c80cfb3abd8b9c4b4981f900d8c3c", "name": "45th Road - Court House Square Station (Dual System Irt)", "category": "parks-and-environment", "source": "facdb", "is_coad_member": false }, "geometry": { "type": "Point", "coordinates": [ -73.945278, 40.746999 ] } },
{ "type": "Feature", "properties": { "resource_id": "facdb:6b4e715ba8fd2b8177e723a7b62f29e2", "name": "Office of Consumer Affairs", "category": "mental-health-and-recovery", "source": "facdb", "is_coad_member": false }, "geometry": { "type": "Point", "coordinates": [ -73.938928, 40.749376 ] } },
{ "type": "Feature", "properties": { "resource_id": "facdb:6c82af8fdb0decd86515324f1dc15048", "name": "The Woodside Community School (30Q361)", "category": "children-and-youth", "source": "facdb", "is_coad_member": false }, "geometry": { "type": "Point", "coordinates": [ -73.905728, 40.747644 ] } },
{ "type": "Feature", "properties": { "resource_id": "facdb:6d9aedacbd722be288c92bcbdb6d46e8", "name": "Park", "category": "parks-and-environment", "source": "facdb", "is_coad_member": false }, "geometry": { "type": "Point", "coordinates": [ -73.923741, 40.732439 ] } },
{ "type": "Feature", "properties": { "resource_id": "facdb:6dd0412a2866d6c50a1b23cf5231b80a", "name": "Gordon Triangle", "category": "parks-and-environment", "source": "facdb", "is_coad_member": false }, "geometry": { "type": "Point", "coordinates": [ -73.951995, 40.748781 ] } },
{ "type": "Feature", "properties": { "resource_id": "facdb:6f75b02a2f7e99842d39d33024bb49fe", "name": "St. Teresa Church Saint Vincent Depaul Society : St. Teresa Church Saint Vincent Depaul Society", "category": "food-assistance", "source": "facdb", "is_coad_member": false }, "geometry": { "type": "Point", "coordinates": [ -73.921136, 40.737015 ] } },
{ "type": "Feature", "properties": { "resource_id": "facdb:701361b98afe3fd5cf889687e59d3b32", "name": "Sunnyside Community Services Inc", "category": "children-and-youth", "source": "facdb", "is_coad_member": false }, "geometry": { "type": "Point", "coordinates": [ -73.926318, 40.739656 ] } },
{ "type": "Feature", "properties": { "resource_id": "facdb:706c3179484d2e804b8897584887fcc4", "name": "Council of Peoples Organization Inc", "category": "children-and-youth", "source": "facdb", "is_coad_member": false }, "geometry": { "type": "Point", "coordinates": [ -73.909624, 40.742534 ] } },
{ "type": "Feature", "properties": { "resource_id": "facdb:70b9eaa64880bb3d6f8dca54e7d27c77", "name": "River View Gardens NY Foundation Ehp #8", "category": "health-care", "source": "facdb", "is_coad_member": false }, "geometry": { "type": "Point", "coordinates": [ -73.958036, 40.744054 ] } },
{ "type": "Feature", "properties": { "resource_id": "facdb:710be6cbab44dc135141e3037481ed1b", "name": "Expanding Horizons Institute Inc.", "category": "education-and-jobs", "source": "facdb", "is_coad_member": false }, "geometry": { "type": "Point", "coordinates": [ -73.903867, 40.745664 ] } },
{ "type": "Feature", "properties": { "resource_id": "facdb:725c73ff32b8651ad648e0ab48c156f5", "name": "Sergeant Collins Triangle", "category": "parks-and-environment", "source": "facdb", "is_coad_member": false }, "geometry": { "type": "Point", "coordinates": [ -73.9029, 40.751787 ] } },
{ "type": "Feature", "properties": { "resource_id": "facdb:7420f23a2b56f0438a8f7bbf12adff92", "name": "Sunnyside Community Services Inc", "category": "older-adults", "source": "facdb", "is_coad_member": false }, "geometry": { "type": "Point", "coordinates": [ -73.925616, 40.745104 ] } },
{ "type": "Feature", "properties": { "resource_id": "facdb:74e41343874eb500838b50c2407c9e37", "name": "Sunnyside Community Services Inc", "category": "children-and-youth", "source": "facdb", "is_coad_member": false }, "geometry": { "type": "Point", "coordinates": [ -73.925714, 40.744596 ] } },
{ "type": "Feature", "properties": { "resource_id": "facdb:7690b28cbf9c394050760288755a2ea1", "name": "Technical Services", "category": "government-offices", "source": "facdb", "is_coad_member": false }, "geometry": { "type": "Point", "coordinates": [ -73.930509, 40.743414 ] } },
{ "type": "Feature", "properties": { "resource_id": "facdb:792909a31668418fee5cc0cd9e6b87df", "name": "Hunters Point Historic District", "category": "parks-and-environment", "source": "facdb", "is_coad_member": false }, "geometry": { "type": "Point", "coordinates": [ -73.946409, 40.747168 ] } },
{ "type": "Feature", "properties": { "resource_id": "facdb:7b217bc773e98db342c6a6f8e5b149ea", "name": "New York Edge Inc", "category": "children-and-youth", "source": "facdb", "is_coad_member": false }, "geometry": { "type": "Point", "coordinates": [ -73.956957, 40.744331 ] } },
{ "type": "Feature", "properties": { "resource_id": "facdb:7bb433a35c416cb1a1f176d29c6347f6", "name": "Iglesia Alianza Cristiana Misionera Ebenezer : Iglesia Alianza Cristiana Misionera Ebenezer", "category": "food-assistance", "source": "facdb", "is_coad_member": false }, "geometry": { "type": "Point", "coordinates": [ -73.927224, 40.745653 ] } },
{ "type": "Feature", "properties": { "resource_id": "facdb:7c1eb5a7d3c58a6d06b7e0c156014810", "name": "Sunnyside Community Services Inc", "category": "children-and-youth", "source": "facdb", "is_coad_member": false }, "geometry": { "type": "Point", "coordinates": [ -73.887876, 40.737417 ] } },
{ "type": "Feature", "properties": { "resource_id": "facdb:7d7b24c276f0637f18aa907330b05c19", "name": "Vernon Mall", "category": "parks-and-environment", "source": "facdb", "is_coad_member": false }, "geometry": { "type": "Point", "coordinates": [ -73.954149, 40.742318 ] } },
{ "type": "Feature", "properties": { "resource_id": "facdb:7e0202ae4aa0b1c22594e70922fbf335", "name": "Information Technology High School (30Q502)", "category": "children-and-youth", "source": "facdb", "is_coad_member": false }, "geometry": { "type": "Point", "coordinates": [ -73.946472, 40.74852 ] } },
{ "type": "Feature", "properties": { "resource_id": "facdb:800dda0826e3760dcce4f0bc0ac06c82", "name": "Short Triangle", "category": "parks-and-environment", "source": "facdb", "is_coad_member": false }, "geometry": { "type": "Point", "coordinates": [ -73.9454, 40.746086 ] } },
{ "type": "Feature", "properties": { "resource_id": "facdb:80c24d90c7128003632d159b1c8debee", "name": "Sunnyside Community Services Inc", "category": "children-and-youth", "source": "facdb", "is_coad_member": false }, "geometry": { "type": "Point", "coordinates": [ -73.925616, 40.745104 ] } },
{ "type": "Feature", "properties": { "resource_id": "facdb:811e4a5b2adeffc16ecad44784c5cf05", "name": "Hospital Audiences, Inc.", "category": "libraries-and-community", "source": "facdb", "is_coad_member": false }, "geometry": { "type": "Point", "coordinates": [ -73.93076, 40.746569 ] } },
{ "type": "Feature", "properties": { "resource_id": "facdb:8136033f10c4179e897704397321e46e", "name": "Local Project", "category": "libraries-and-community", "source": "facdb", "is_coad_member": false }, "geometry": { "type": "Point", "coordinates": [ -73.948321, 40.749319 ] } },
{ "type": "Feature", "properties": { "resource_id": "facdb:815a465b04a68e7d66fbcf8edf3deb8b", "name": "New York Edge Inc", "category": "children-and-youth", "source": "facdb", "is_coad_member": false }, "geometry": { "type": "Point", "coordinates": [ -73.918676, 40.740522 ] } },
{ "type": "Feature", "properties": { "resource_id": "facdb:8202723ee431bc5230160fe97c418a41", "name": "Sunnyside Community Services Inc", "category": "education-and-jobs", "source": "facdb", "is_coad_member": false }, "geometry": { "type": "Point", "coordinates": [ -73.925616, 40.745104 ] } },
{ "type": "Feature", "properties": { "resource_id": "facdb:864c9f98fc8a2f060936ab63bca68c7e", "name": "St. Sebastian School", "category": "children-and-youth", "source": "facdb", "is_coad_member": false }, "geometry": { "type": "Point", "coordinates": [ -73.906578, 40.745992 ] } },
{ "type": "Feature", "properties": { "resource_id": "facdb:866ff43ce9185ab9fb29c2c60ad55935", "name": "Gotham Center-Dohmh Hq", "category": "government-offices", "source": "facdb", "is_coad_member": false }, "geometry": { "type": "Point", "coordinates": [ -73.938606, 40.74895 ] } },
{ "type": "Feature", "properties": { "resource_id": "facdb:86d9dddbc633c31c8e39a565e4c8233a", "name": "Bon Shen Ling, the Tibetan Bon Education Fund", "category": "libraries-and-community", "source": "facdb", "is_coad_member": false }, "geometry": { "type": "Point", "coordinates": [ -73.899624, 40.73526 ] } },
{ "type": "Feature", "properties": { "resource_id": "facdb:87d3ae2db6bdba96d757de94edf3cfdf", "name": "Ddc Headquarters", "category": "government-offices", "source": "facdb", "is_coad_member": false }, "geometry": { "type": "Point", "coordinates": [ -73.936077, 40.744071 ] } },
{ "type": "Feature", "properties": { "resource_id": "facdb:8a0aa0271202a66bced9f6bf69a4278c", "name": "Queens Health Center", "category": "health-care", "source": "facdb", "is_coad_member": false }, "geometry": { "type": "Point", "coordinates": [ -73.927424, 40.74474 ] } },
{ "type": "Feature", "properties": { "resource_id": "facdb:8a7d5687764f418b90f573efbb95bf5f", "name": "Queens Library-Sunnyside", "category": "children-and-youth", "source": "facdb", "is_coad_member": false }, "geometry": { "type": "Point", "coordinates": [ -73.921671, 40.740812 ] } },
{ "type": "Feature", "properties": { "resource_id": "facdb:8c1724565a720f86c1f58174fca1e57e", "name": "Razi School", "category": "children-and-youth", "source": "facdb", "is_coad_member": false }, "geometry": { "type": "Point", "coordinates": [ -73.909624, 40.742534 ] } },
{ "type": "Feature", "properties": { "resource_id": "facdb:8c7f9f7ca4eea61adb772647c2b164c6", "name": "Adhikaar for Human Rights and Social Justice", "category": "children-and-youth", "source": "facdb", "is_coad_member": false }, "geometry": { "type": "Point", "coordinates": [ -73.893472, 40.742882 ] } },
{ "type": "Feature", "properties": { "resource_id": "facdb:8fa49cb36e0fb7ae80d110c08002cb39", "name": "Lt. Michael R. Davidson Playground", "category": "parks-and-environment", "source": "facdb", "is_coad_member": false }, "geometry": { "type": "Point", "coordinates": [ -73.913407, 40.7487 ] } },
{ "type": "Feature", "properties": { "resource_id": "facdb:9112773d5a45cc5503cdbd3be1b1f4e1", "name": "Woodside on the Move, Inc.", "category": "children-and-youth", "source": "facdb", "is_coad_member": false }, "geometry": { "type": "Point", "coordinates": [ -73.905296, 40.746652 ] } },
{ "type": "Feature", "properties": { "resource_id": "facdb:921187dc069a74715f1dae388ac89ba8", "name": "Lowery Plaza", "category": "parks-and-environment", "source": "facdb", "is_coad_member": false }, "geometry": { "type": "Point", "coordinates": [ -73.924263, 40.743818 ] } },
{ "type": "Feature", "properties": { "resource_id": "facdb:95488ac2e4b1c0662a124d89a394d417", "name": "Rogosin Kidney Center-Queens Dialysis", "category": "health-care", "source": "facdb", "is_coad_member": false }, "geometry": { "type": "Point", "coordinates": [ -73.898089, 40.740245 ] } },
{ "type": "Feature", "properties": { "resource_id": "facdb:95dbbded6dd6caee05aede0e7e93364c", "name": "Dorsky Gallery Curatorial Programs", "category": "libraries-and-community", "source": "facdb", "is_coad_member": false }, "geometry": { "type": "Point", "coordinates": [ -73.94948, 40.748059 ] } },
{ "type": "Feature", "properties": { "resource_id": "facdb:961349151d878d985200bc48331dcb78", "name": "Notorious LIC Park", "category": "parks-and-environment", "source": "facdb", "is_coad_member": false }, "geometry": { "type": "Point", "coordinates": [ -73.95134, 40.741928 ] } },
{ "type": "Feature", "properties": { "resource_id": "facdb:971ea6556528374fca2c84ad5be047b2", "name": "Construction Career Pathways Program", "category": "children-and-youth", "source": "facdb", "is_coad_member": false }, "geometry": { "type": "Point", "coordinates": [ -73.936079, 40.739318 ] } },
{ "type": "Feature", "properties": { "resource_id": "facdb:99f64604d5a1a3339f1c6dc994369721", "name": "Emerald Isle Immigration Center Inc", "category": "health-care", "source": "facdb", "is_coad_member": false }, "geometry": { "type": "Point", "coordinates": [ -73.904698, 40.74493 ] } },
{ "type": "Feature", "properties": { "resource_id": "facdb:99fac0e1123c075c0f7f14e04afa13d3", "name": "Comm Bd 2", "category": "government-offices", "source": "facdb", "is_coad_member": false }, "geometry": { "type": "Point", "coordinates": [ -73.915059, 40.743796 ] } },
{ "type": "Feature", "properties": { "resource_id": "facdb:9a1d6d177828d23c4d68346815c143d1", "name": "Health Home Non Medicaid Care Management C&Y", "category": "mental-health-and-recovery", "source": "facdb", "is_coad_member": false }, "geometry": { "type": "Point", "coordinates": [ -73.902352, 40.743758 ] } },
{ "type": "Feature", "properties": { "resource_id": "facdb:9a3a09457edae664c4a5ba9c4f5faa8b", "name": "Fiorello H Laguardia Community College Auxiliary Enterprises Corporation", "category": "libraries-and-community", "source": "facdb", "is_coad_member": false }, "geometry": { "type": "Point", "coordinates": [ -73.935099, 40.743989 ] } },
{ "type": "Feature", "properties": { "resource_id": "facdb:9a508847be27397bee1e67556fbba147", "name": "46th Avenue Plaza", "category": "parks-and-environment", "source": "facdb", "is_coad_member": false }, "geometry": { "type": "Point", "coordinates": [ -73.946666, 40.745586 ] } },
{ "type": "Feature", "properties": { "resource_id": "facdb:9d5d81b773b160cc49a272d9c18d3f3a", "name": "Ddc Headquarters", "category": "government-offices", "source": "facdb", "is_coad_member": false }, "geometry": { "type": "Point", "coordinates": [ -73.936077, 40.744071 ] } },
{ "type": "Feature", "properties": { "resource_id": "facdb:Q020001", "name": "Citicorp at Court Square", "category": "parks-and-environment", "source": "facdb", "is_coad_member": false }, "geometry": { "type": "Point", "coordinates": [ -73.943869, 40.747013 ] } },
{ "type": "Feature", "properties": { "resource_id": "facdb:Q020002", "name": "69-02 Queens Boulevard, Queens, NY 11377", "category": "parks-and-environment", "source": "facdb", "is_coad_member": false }, "geometry": { "type": "Point", "coordinates": [ -73.895339, 40.739699 ] } },
{ "type": "Feature", "properties": { "resource_id": "facdb:a032a4384def3b7082a84e3d25a51228", "name": "Sunnyside Community Services Inc", "category": "older-adults", "source": "facdb", "is_coad_member": false }, "geometry": { "type": "Point", "coordinates": [ -73.925616, 40.745104 ] } },
{ "type": "Feature", "properties": { "resource_id": "facdb:a1c301f522382d186a798e73bc7d2646", "name": "McKenna Triangle", "category": "parks-and-environment", "source": "facdb", "is_coad_member": false }, "geometry": { "type": "Point", "coordinates": [ -73.944106, 40.746595 ] } },
{ "type": "Feature", "properties": { "resource_id": "facdb:a375f5a32fdda0e365f39b5a739b8dcc", "name": "Boundless Theatre Company Inc.", "category": "libraries-and-community", "source": "facdb", "is_coad_member": false }, "geometry": { "type": "Point", "coordinates": [ -73.921585, 40.746332 ] } },
{ "type": "Feature", "properties": { "resource_id": "facdb:a3f25728a02bc946de4c2dbf09f0583b", "name": "Formula B Parisien Beauty School", "category": "education-and-jobs", "source": "facdb", "is_coad_member": false }, "geometry": { "type": "Point", "coordinates": [ -73.914331, 40.744143 ] } },
{ "type": "Feature", "properties": { "resource_id": "facdb:a49be65bbd24b0e969f94237231d8b0a", "name": "Mh Providers of Western Queens - Hh Nonmed Cm", "category": "mental-health-and-recovery", "source": "facdb", "is_coad_member": false }, "geometry": { "type": "Point", "coordinates": [ -73.90356, 40.74487 ] } },
{ "type": "Feature", "properties": { "resource_id": "facdb:a4a2c7c19b0f9d1feb490b1845d4c29a", "name": "Woodside on the Move, Inc.", "category": "children-and-youth", "source": "facdb", "is_coad_member": false }, "geometry": { "type": "Point", "coordinates": [ -73.905728, 40.747644 ] } },
{ "type": "Feature", "properties": { "resource_id": "facdb:a5eb4d4b649a2157c9cb852c6888e3f5", "name": "Bridging Education and Art Together, Inc.", "category": "libraries-and-community", "source": "facdb", "is_coad_member": false }, "geometry": { "type": "Point", "coordinates": [ -73.944854, 40.74894 ] } },
{ "type": "Feature", "properties": { "resource_id": "facdb:a783c8df0de3a901d44b561234cdd029", "name": "Ny-Jr Tennis League Crotona Park", "category": "children-and-youth", "source": "facdb", "is_coad_member": false }, "geometry": { "type": "Point", "coordinates": [ -73.90549, 40.743825 ] } },
{ "type": "Feature", "properties": { "resource_id": "facdb:a8674b9b1226214101721b75ab5a56cb", "name": "Philippine Forum", "category": "libraries-and-community", "source": "facdb", "is_coad_member": false }, "geometry": { "type": "Point", "coordinates": [ -73.895949, 40.745663 ] } },
{ "type": "Feature", "properties": { "resource_id": "facdb:a873414659c72d65230c597c4ca9301b", "name": "Woodside on the Move, Inc.", "category": "children-and-youth", "source": "facdb", "is_coad_member": false }, "geometry": { "type": "Point", "coordinates": [ -73.909223, 40.745757 ] } },
{ "type": "Feature", "properties": { "resource_id": "facdb:a8aa3a8996fb146660293865f1bdb56b", "name": "Academy of Finance and Enterprise", "category": "children-and-youth", "source": "facdb", "is_coad_member": false }, "geometry": { "type": "Point", "coordinates": [ -73.936922, 40.744575 ] } },
{ "type": "Feature", "properties": { "resource_id": "facdb:a90cc7b4a2c94a8195aa0dc5a1045905", "name": "EMS St.  45/RADIO Repair Shop", "category": "emergency-services", "source": "facdb", "is_coad_member": false }, "geometry": { "type": "Point", "coordinates": [ -73.907187, 40.734667 ] } },
{ "type": "Feature", "properties": { "resource_id": "facdb:a960d2085a785ce9cc6c7e60487a9b02", "name": "Fleet Services Repair Shop", "category": "government-offices", "source": "facdb", "is_coad_member": false }, "geometry": { "type": "Point", "coordinates": [ -73.938699, 40.737518 ] } },
{ "type": "Feature", "properties": { "resource_id": "facdb:a96daa188b5dd0531d87329cdd256b61", "name": "Calvary Monument", "category": "parks-and-environment", "source": "facdb", "is_coad_member": false }, "geometry": { "type": "Point", "coordinates": [ -73.929794, 40.730901 ] } },
{ "type": "Feature", "properties": { "resource_id": "facdb:a9903739e40e20ca06f690ead9daa111", "name": "Arts Business Collaborative", "category": "libraries-and-community", "source": "facdb", "is_coad_member": false }, "geometry": { "type": "Point", "coordinates": [ -73.902967, 40.747703 ] } },
{ "type": "Feature", "properties": { "resource_id": "facdb:aa76b977545c3352f1287cec38d50b63", "name": "Healthcare Choices NY, Inc.", "category": "health-care", "source": "facdb", "is_coad_member": false }, "geometry": { "type": "Point", "coordinates": [ -73.949462, 40.739897 ] } },
{ "type": "Feature", "properties": { "resource_id": "facdb:aa85b153996109b0d3a4a316e7959fc6", "name": "Cec Stuyvesant Cove", "category": "children-and-youth", "source": "facdb", "is_coad_member": false }, "geometry": { "type": "Point", "coordinates": [ -73.951264, 40.750031 ] } },
{ "type": "Feature", "properties": { "resource_id": "facdb:ab01fdaf575a34cad1728a4c1a5687c3", "name": "Queens Landing Boathouse, LIC", "category": "children-and-youth", "source": "facdb", "is_coad_member": false }, "geometry": { "type": "Point", "coordinates": [ -73.960544, 40.738588 ] } },
{ "type": "Feature", "properties": { "resource_id": "facdb:aba3a54e704dc3ed0d87b8b7a75f7af8", "name": "Queens Boulevard Extended Care Facility Dialysis Center", "category": "health-care", "source": "facdb", "is_coad_member": false }, "geometry": { "type": "Point", "coordinates": [ -73.902992, 40.741702 ] } },
{ "type": "Feature", "properties": { "resource_id": "facdb:addf6aa46b799e4f9270465fd80d444c", "name": "The Connected Chef Foundation Inc", "category": "children-and-youth", "source": "facdb", "is_coad_member": false }, "geometry": { "type": "Point", "coordinates": [ -73.956047, 40.743472 ] } },
{ "type": "Feature", "properties": { "resource_id": "facdb:ae0a410b6384b92ef898018ea4768391", "name": "Flying Carpet Theater, Inc.", "category": "libraries-and-community", "source": "facdb", "is_coad_member": false }, "geometry": { "type": "Point", "coordinates": [ -73.917813, 40.74372 ] } },
{ "type": "Feature", "properties": { "resource_id": "facdb:ae6223c38fbf4759d839075a6bf1e448", "name": "Rafferty Triangle", "category": "parks-and-environment", "source": "facdb", "is_coad_member": false }, "geometry": { "type": "Point", "coordinates": [ -73.943322, 40.747491 ] } },
{ "type": "Feature", "properties": { "resource_id": "facdb:af414c716bf05706a8acd043f3a25bd7", "name": "Engine 325/LADDER 163", "category": "emergency-services", "source": "facdb", "is_coad_member": false }, "geometry": { "type": "Point", "coordinates": [ -73.913817, 40.745283 ] } },
{ "type": "Feature", "properties": { "resource_id": "facdb:b1183d364afb843d1616fa0e5d6bd17c", "name": "Lawrence Virgilio Playground", "category": "parks-and-environment", "source": "facdb", "is_coad_member": false }, "geometry": { "type": "Point", "coordinates": [ -73.9106, 40.747494 ] } },
{ "type": "Feature", "properties": { "resource_id": "facdb:b3bf66e195732a9208d80f5b24ca34ac", "name": "New York Edge Inc", "category": "children-and-youth", "source": "facdb", "is_coad_member": false }, "geometry": { "type": "Point", "coordinates": [ -73.907007, 40.741209 ] } },
{ "type": "Feature", "properties": { "resource_id": "facdb:b3cc4643a198ab61708cba5b6e4d02ac", "name": "Ps/Is 78 Annex (30Q078)", "category": "children-and-youth", "source": "facdb", "is_coad_member": false }, "geometry": { "type": "Point", "coordinates": [ -73.955615, 40.747228 ] } },
{ "type": "Feature", "properties": { "resource_id": "facdb:b469d1680314c31107631a5f795ae45c", "name": "Long Island City YMCA", "category": "children-and-youth", "source": "facdb", "is_coad_member": false }, "geometry": { "type": "Point", "coordinates": [ -73.932189, 40.745407 ] } },
{ "type": "Feature", "properties": { "resource_id": "facdb:b527091c80b1b418bda4784eee295b75", "name": "Comunilife Inc", "category": "children-and-youth", "source": "facdb", "is_coad_member": false }, "geometry": { "type": "Point", "coordinates": [ -73.933051, 40.739208 ] } },
{ "type": "Feature", "properties": { "resource_id": "facdb:b565c858d158518c7094f96b5c78ae28", "name": "Cftss: Other Licensed Practitioner", "category": "mental-health-and-recovery", "source": "facdb", "is_coad_member": false }, "geometry": { "type": "Point", "coordinates": [ -73.902817, 40.744453 ] } },
{ "type": "Feature", "properties": { "resource_id": "facdb:b5660694b9f01e883ee139bc4d9e9c1e", "name": "Mh Providers of Western Queens - Hh Cm", "category": "mental-health-and-recovery", "source": "facdb", "is_coad_member": false }, "geometry": { "type": "Point", "coordinates": [ -73.90356, 40.74487 ] } },
{ "type": "Feature", "properties": { "resource_id": "facdb:b5bb32048742dfb592fb184a50096534", "name": "L/Cpl Thomas P. Noonan Jr. Playground", "category": "parks-and-environment", "source": "facdb", "is_coad_member": false }, "geometry": { "type": "Point", "coordinates": [ -73.922385, 40.741077 ] } },
{ "type": "Feature", "properties": { "resource_id": "facdb:b63845b2f776e1b05bd48d99236c2bfb", "name": "Adult Hcbs Peer Supports", "category": "mental-health-and-recovery", "source": "facdb", "is_coad_member": false }, "geometry": { "type": "Point", "coordinates": [ -73.894992, 40.737414 ] } },
{ "type": "Feature", "properties": { "resource_id": "facdb:b63f91831e246d7aad2928206c41fd1a", "name": "Intensive English Language", "category": "children-and-youth", "source": "facdb", "is_coad_member": false }, "geometry": { "type": "Point", "coordinates": [ -73.935099, 40.743989 ] } },
{ "type": "Feature", "properties": { "resource_id": "facdb:b7127bf29a6e5f33877f3cdbb3795134", "name": "Gantry Plaza", "category": "parks-and-environment", "source": "facdb", "is_coad_member": false }, "geometry": { "type": "Point", "coordinates": [ -73.954896, 40.744127 ] } },
{ "type": "Feature", "properties": { "resource_id": "facdb:b7334766444ef108bc25e6e2b7514582", "name": "Sunnyside", "category": "libraries-and-community", "source": "facdb", "is_coad_member": false }, "geometry": { "type": "Point", "coordinates": [ -73.921671, 40.740812 ] } },
{ "type": "Feature", "properties": { "resource_id": "facdb:b8267da5d7749a0ee2258cd3c0aadc11", "name": "Pre-K Center at 5-14 49 Avenue - Que", "category": "children-and-youth", "source": "facdb", "is_coad_member": false }, "geometry": { "type": "Point", "coordinates": [ -73.95556, 40.743527 ] } },
{ "type": "Feature", "properties": { "resource_id": "facdb:b8f10fe1d2c3ccd214a2f78b009b36bd", "name": "Studio Tishman Speyer", "category": "children-and-youth", "source": "facdb", "is_coad_member": false }, "geometry": { "type": "Point", "coordinates": [ -73.938694, 40.748952 ] } },
{ "type": "Feature", "properties": { "resource_id": "facdb:b9959c31964ab34af6dee3c2cab2934d", "name": "I.S. 125 Thom J. McCann Woodside", "category": "children-and-youth", "source": "facdb", "is_coad_member": false }, "geometry": { "type": "Point", "coordinates": [ -73.918676, 40.740522 ] } },
{ "type": "Feature", "properties": { "resource_id": "facdb:ba998caf9260e1020bc8ffcbd59f397f", "name": "Metro Community Health Center Queens", "category": "health-care", "source": "facdb", "is_coad_member": false }, "geometry": { "type": "Point", "coordinates": [ -73.906841, 40.735451 ] } },
{ "type": "Feature", "properties": { "resource_id": "facdb:bab37e246ae5939c7751ffa3a266b7ee", "name": "Pre-K Center at 46-08 5th Street", "category": "children-and-youth", "source": "facdb", "is_coad_member": false }, "geometry": { "type": "Point", "coordinates": [ -73.955615, 40.747228 ] } },
{ "type": "Feature", "properties": { "resource_id": "facdb:bc4d9cb06cf476c9f16926acedaf8863", "name": "Bliss Plaza", "category": "parks-and-environment", "source": "facdb", "is_coad_member": false }, "geometry": { "type": "Point", "coordinates": [ -73.91871, 40.743181 ] } },
{ "type": "Feature", "properties": { "resource_id": "facdb:bce7daaf23f56c9ea9a23c9c3604ede3", "name": "Guyanese Girls Rock Foundation Inc", "category": "children-and-youth", "source": "facdb", "is_coad_member": false }, "geometry": { "type": "Point", "coordinates": [ -73.94457, 40.747116 ] } },
{ "type": "Feature", "properties": { "resource_id": "facdb:bd14f36d64479f2080bcab6e32fb54d8", "name": "Bank Street College of Educ-Lic", "category": "education-and-jobs", "source": "facdb", "is_coad_member": false }, "geometry": { "type": "Point", "coordinates": [ -73.953037, 40.749728 ] } },
{ "type": "Feature", "properties": { "resource_id": "facdb:be2f24d3c10fab4e5a86149d9eff7a23", "name": "Blessed Virgin Mary St. Mary's Winfield : Blessed Virgin Mary St. Mary's Winfield", "category": "food-assistance", "source": "facdb", "is_coad_member": false }, "geometry": { "type": "Point", "coordinates": [ -73.892854, 40.738525 ] } },
{ "type": "Feature", "properties": { "resource_id": "facdb:bfe182d3da811e486917657f95d6e0ac", "name": "Project Renewal Inc", "category": "children-and-youth", "source": "facdb", "is_coad_member": false }, "geometry": { "type": "Point", "coordinates": [ -73.949462, 40.739897 ] } },
{ "type": "Feature", "properties": { "resource_id": "facdb:bff72694c166b75edcb3aa427fbe3ca0", "name": "New York Edge", "category": "libraries-and-community", "source": "facdb", "is_coad_member": false }, "geometry": { "type": "Point", "coordinates": [ -73.907012, 40.741194 ] } },
{ "type": "Feature", "properties": { "resource_id": "facdb:c038f6168212fdecbff75b1944cdaf31", "name": "Mental Health Providers of Western Queens Smh Cma (Aot)", "category": "mental-health-and-recovery", "source": "facdb", "is_coad_member": false }, "geometry": { "type": "Point", "coordinates": [ -73.902817, 40.744453 ] } },
{ "type": "Feature", "properties": { "resource_id": "facdb:c151e03442b5d0ab3e866bf8c07f2718", "name": "Steinmann Triangle", "category": "parks-and-environment", "source": "facdb", "is_coad_member": false }, "geometry": { "type": "Point", "coordinates": [ -73.909243, 40.745189 ] } },
{ "type": "Feature", "properties": { "resource_id": "facdb:c15570d8c03577a05a00217663330c06", "name": "Doughboy Park", "category": "parks-and-environment", "source": "facdb", "is_coad_member": false }, "geometry": { "type": "Point", "coordinates": [ -73.909223, 40.745757 ] } },
{ "type": "Feature", "properties": { "resource_id": "facdb:c195cd67c838de03c3f254584dcec18d", "name": "Bangladesh Institute of Performing Arts, Inc.", "category": "libraries-and-community", "source": "facdb", "is_coad_member": false }, "geometry": { "type": "Point", "coordinates": [ -73.896839, 40.74551 ] } },
{ "type": "Feature", "properties": { "resource_id": "facdb:c1a065a53d42cb5edaec47aa387d6ca8", "name": "Hospice of New York", "category": "health-care", "source": "facdb", "is_coad_member": false }, "geometry": { "type": "Point", "coordinates": [ -73.93645, 40.742192 ] } },
{ "type": "Feature", "properties": { "resource_id": "facdb:c355d290296cff207b719a30196c6bdf", "name": "Laguardia Comm College", "category": "children-and-youth", "source": "facdb", "is_coad_member": false }, "geometry": { "type": "Point", "coordinates": [ -73.935099, 40.743989 ] } },
{ "type": "Feature", "properties": { "resource_id": "facdb:c41207b15a84c6a6ccfa05372434a364", "name": "Laguardia and Wagner Archives", "category": "libraries-and-community", "source": "facdb", "is_coad_member": false }, "geometry": { "type": "Point", "coordinates": [ -73.935099, 40.743989 ] } },
{ "type": "Feature", "properties": { "resource_id": "facdb:c5a22afb56190e4b0fb70bd7e4a4ae49", "name": "Weill Cornell Imaging at Newyork-Presbyterian Long Island City", "category": "health-care", "source": "facdb", "is_coad_member": false }, "geometry": { "type": "Point", "coordinates": [ -73.938694, 40.748952 ] } },
{ "type": "Feature", "properties": { "resource_id": "facdb:c859b24906784390897c4a79b6476248", "name": "Gantry Plaza", "category": "parks-and-environment", "source": "facdb", "is_coad_member": false }, "geometry": { "type": "Point", "coordinates": [ -73.957742, 40.747021 ] } },
{ "type": "Feature", "properties": { "resource_id": "facdb:c8efe94b1f3c49fec2676a65d5f989ec", "name": "Adhikaar Community Center", "category": "children-and-youth", "source": "facdb", "is_coad_member": false }, "geometry": { "type": "Point", "coordinates": [ -73.893472, 40.742882 ] } },
{ "type": "Feature", "properties": { "resource_id": "facdb:c981a7ee783fcd04c1b42ab492bb83fb", "name": "Sohncke Square", "category": "parks-and-environment", "source": "facdb", "is_coad_member": false }, "geometry": { "type": "Point", "coordinates": [ -73.906308, 40.745508 ] } },
{ "type": "Feature", "properties": { "resource_id": "facdb:cce7cc43c8ef8ab02b21bc1834543a73", "name": "Eckerd Youth Alternatives Inc", "category": "children-and-youth", "source": "facdb", "is_coad_member": false }, "geometry": { "type": "Point", "coordinates": [ -73.933474, 40.742605 ] } },
{ "type": "Feature", "properties": { "resource_id": "facdb:ce3128e7a270ef8bb39e24e413c00aa9", "name": "Sunnyside Community Services Inc", "category": "health-care", "source": "facdb", "is_coad_member": false }, "geometry": { "type": "Point", "coordinates": [ -73.925616, 40.745104 ] } },
{ "type": "Feature", "properties": { "resource_id": "facdb:ce4cce26179d234dc7b25247efcd9cf1", "name": "Jessica Lang Dance, Inc.", "category": "libraries-and-community", "source": "facdb", "is_coad_member": false }, "geometry": { "type": "Point", "coordinates": [ -73.941796, 40.745741 ] } },
{ "type": "Feature", "properties": { "resource_id": "facdb:cf3965ca4e4f8c004e61a6556acd3078", "name": "Sunnyside Community Services Inc", "category": "older-adults", "source": "facdb", "is_coad_member": false }, "geometry": { "type": "Point", "coordinates": [ -73.925714, 40.744596 ] } },
{ "type": "Feature", "properties": { "resource_id": "facdb:d2cea446564e427e04a51fba1f75b458", "name": "Pursuit Transformation Company Inc", "category": "children-and-youth", "source": "facdb", "is_coad_member": false }, "geometry": { "type": "Point", "coordinates": [ -73.941945, 40.743003 ] } },
{ "type": "Feature", "properties": { "resource_id": "facdb:d50fd30ddd5c7aa5bd10d86e1ef3eb3b", "name": "Cftss: Psychosocial Rehabilitation", "category": "mental-health-and-recovery", "source": "facdb", "is_coad_member": false }, "geometry": { "type": "Point", "coordinates": [ -73.902817, 40.744453 ] } },
{ "type": "Feature", "properties": { "resource_id": "facdb:d6ec577fb261899c6101e15f9b64f036", "name": "Falchi Building", "category": "government-offices", "source": "facdb", "is_coad_member": false }, "geometry": { "type": "Point", "coordinates": [ -73.935516, 40.742108 ] } },
{ "type": "Feature", "properties": { "resource_id": "facdb:d7be49e4475ef2c7e1e36752cd644486", "name": "Long Island City Courthouse Complex", "category": "parks-and-environment", "source": "facdb", "is_coad_member": false }, "geometry": { "type": "Point", "coordinates": [ -73.942932, 40.745689 ] } },
{ "type": "Feature", "properties": { "resource_id": "facdb:d9660f55d1d3cc3eaea55d4ac4e43812", "name": "Astoria Pool", "category": "children-and-youth", "source": "facdb", "is_coad_member": false }, "geometry": { "type": "Point", "coordinates": [ -73.938505, 40.74491 ] } },
{ "type": "Feature", "properties": { "resource_id": "facdb:d9b64d0161433c8606b3c1363d2271c5", "name": "The Children's Lab School (24Q343)", "category": "children-and-youth", "source": "facdb", "is_coad_member": false }, "geometry": { "type": "Point", "coordinates": [ -73.922275, 40.741986 ] } },
{ "type": "Feature", "properties": { "resource_id": "facdb:db6171aa28f67e62843a656401d6616a", "name": "Maspeth Town Hall, Inc.", "category": "children-and-youth", "source": "facdb", "is_coad_member": false }, "geometry": { "type": "Point", "coordinates": [ -73.906578, 40.745992 ] } },
{ "type": "Feature", "properties": { "resource_id": "facdb:dc3ffe58fc104a42a84b777a682507d1", "name": "Laguardia Community College", "category": "children-and-youth", "source": "facdb", "is_coad_member": false }, "geometry": { "type": "Point", "coordinates": [ -73.937899, 40.744314 ] } },
{ "type": "Feature", "properties": { "resource_id": "facdb:dc9310e548f3227dc64e11ccf78eac8c", "name": "Triborough Playground", "category": "children-and-youth", "source": "facdb", "is_coad_member": false }, "geometry": { "type": "Point", "coordinates": [ -73.938505, 40.74491 ] } },
{ "type": "Feature", "properties": { "resource_id": "facdb:dd3651e97b6b21af6941981cf6c073a4", "name": "29-10 Thomson Avenue", "category": "children-and-youth", "source": "facdb", "is_coad_member": false }, "geometry": { "type": "Point", "coordinates": [ -73.937899, 40.744314 ] } },
{ "type": "Feature", "properties": { "resource_id": "facdb:e09a5e33b34a28b83b6768c292d7e5f0", "name": "Unity Stage Company, Inc.", "category": "libraries-and-community", "source": "facdb", "is_coad_member": false }, "geometry": { "type": "Point", "coordinates": [ -73.917406, 40.748691 ] } },
{ "type": "Feature", "properties": { "resource_id": "facdb:e16cba4cd93bd893a6076db9d7822bc0", "name": "Mental Health Providers of Western Queens Inc", "category": "mental-health-and-recovery", "source": "facdb", "is_coad_member": false }, "geometry": { "type": "Point", "coordinates": [ -73.902227, 40.744727 ] } },
{ "type": "Feature", "properties": { "resource_id": "facdb:e39429f501379257e07a641453f690e9", "name": "Queens Vocational and Technical High School (24Q600)", "category": "children-and-youth", "source": "facdb", "is_coad_member": false }, "geometry": { "type": "Point", "coordinates": [ -73.927972, 40.741626 ] } },
{ "type": "Feature", "properties": { "resource_id": "facdb:e5e99e49e6aa8d04240cd49e877485ef", "name": "Thalia Spanish Theatre, Inc.", "category": "libraries-and-community", "source": "facdb", "is_coad_member": false }, "geometry": { "type": "Point", "coordinates": [ -73.923741, 40.740351 ] } },
{ "type": "Feature", "properties": { "resource_id": "facdb:e6fdb9ab540282014af15b0599270d05", "name": "Rpga Studio, Inc", "category": "libraries-and-community", "source": "facdb", "is_coad_member": false }, "geometry": { "type": "Point", "coordinates": [ -73.944829, 40.749633 ] } },
{ "type": "Feature", "properties": { "resource_id": "facdb:e8554658227f1d62023228962bb05449", "name": "Andrews Grove", "category": "parks-and-environment", "source": "facdb", "is_coad_member": false }, "geometry": { "type": "Point", "coordinates": [ -73.955064, 40.743484 ] } },
{ "type": "Feature", "properties": { "resource_id": "facdb:ed268ac8c8af54b6d4138fc4131c2bdb", "name": "Planned Parenthood Diane L. Max Queens Health Center", "category": "health-care", "source": "facdb", "is_coad_member": false }, "geometry": { "type": "Point", "coordinates": [ -73.946126, 40.746572 ] } },
{ "type": "Feature", "properties": { "resource_id": "facdb:eeab7abb2a9cdfe412901817bac45564", "name": "Emerald Isle Immigration Center", "category": "libraries-and-community", "source": "facdb", "is_coad_member": false }, "geometry": { "type": "Point", "coordinates": [ -73.904698, 40.74493 ] } },
{ "type": "Feature", "properties": { "resource_id": "facdb:ef6b25dfcf276da082c80df5fbe4dbaf", "name": "29-10 Thomson Avenue", "category": "children-and-youth", "source": "facdb", "is_coad_member": false }, "geometry": { "type": "Point", "coordinates": [ -73.937899, 40.744314 ] } },
{ "type": "Feature", "properties": { "resource_id": "facdb:f08e65dfa414959d85c27b201c668486", "name": "Fiorello H. Laguardia Comm College", "category": "education-and-jobs", "source": "facdb", "is_coad_member": false }, "geometry": { "type": "Point", "coordinates": [ -73.935099, 40.743989 ] } },
{ "type": "Feature", "properties": { "resource_id": "facdb:f1070516c802f427839d3e1b2af4a09a", "name": "Falchi Building", "category": "government-offices", "source": "facdb", "is_coad_member": false }, "geometry": { "type": "Point", "coordinates": [ -73.935516, 40.742108 ] } },
{ "type": "Feature", "properties": { "resource_id": "facdb:f1cc99b55d27364cec6522b5e5906998", "name": "Mare Nostrum Elements, Inc.", "category": "libraries-and-community", "source": "facdb", "is_coad_member": false }, "geometry": { "type": "Point", "coordinates": [ -73.900641, 40.745208 ] } },
{ "type": "Feature", "properties": { "resource_id": "facdb:f1e947604dc1a73a9b718154eb60e066", "name": "82nd Street Academics", "category": "children-and-youth", "source": "facdb", "is_coad_member": false }, "geometry": { "type": "Point", "coordinates": [ -73.959374, 40.742736 ] } },
{ "type": "Feature", "properties": { "resource_id": "facdb:f581e47e57c6c0feb67c4f2dcf47be2a", "name": "12th Street Plaza", "category": "parks-and-environment", "source": "facdb", "is_coad_member": false }, "geometry": { "type": "Point", "coordinates": [ -73.948278, 40.750227 ] } },
{ "type": "Feature", "properties": { "resource_id": "facdb:f766fc2c5f7019fa2e98a5f4d6292f61", "name": "Nathan Weidenbaum Playground", "category": "parks-and-environment", "source": "facdb", "is_coad_member": false }, "geometry": { "type": "Point", "coordinates": [ -73.902244, 40.73816 ] } },
{ "type": "Feature", "properties": { "resource_id": "facdb:f7b203d63f95283bcd19e82c6bfd60c3", "name": "Hip to Hip Theatre Company", "category": "libraries-and-community", "source": "facdb", "is_coad_member": false }, "geometry": { "type": "Point", "coordinates": [ -73.910644, 40.746704 ] } },
{ "type": "Feature", "properties": { "resource_id": "facdb:f7e690fdec92dbd3403b16bf965183a1", "name": "Sculpture Center, Inc.", "category": "libraries-and-community", "source": "facdb", "is_coad_member": false }, "geometry": { "type": "Point", "coordinates": [ -73.940816, 40.74693 ] } },
{ "type": "Feature", "properties": { "resource_id": "facdb:f9b4a7dfdd99fc016ba94f847f835bbc", "name": "Stanley M Isaacs Neighborhood Center Inc", "category": "children-and-youth", "source": "facdb", "is_coad_member": false }, "geometry": { "type": "Point", "coordinates": [ -73.909624, 40.742534 ] } },
{ "type": "Feature", "properties": { "resource_id": "facdb:f9ed4be413fc3a6a09fc3cb437f0a6e3", "name": "Failte Care Corporation", "category": "libraries-and-community", "source": "facdb", "is_coad_member": false }, "geometry": { "type": "Point", "coordinates": [ -73.953042, 40.742089 ] } },
{ "type": "Feature", "properties": { "resource_id": "facdb:f9f4489e9cb66711e0c9284aff965172", "name": "P.S. 150 Queens", "category": "children-and-youth", "source": "facdb", "is_coad_member": false }, "geometry": { "type": "Point", "coordinates": [ -73.923375, 40.745915 ] } },
{ "type": "Feature", "properties": { "resource_id": "facdb:fb0175f2022deabf2fdae41820678864", "name": "Health  Home Care Management C&Y", "category": "mental-health-and-recovery", "source": "facdb", "is_coad_member": false }, "geometry": { "type": "Point", "coordinates": [ -73.902352, 40.743758 ] } },
{ "type": "Feature", "properties": { "resource_id": "facdb:fb03621b63543ce1f292d67ab74e8d99", "name": "Cftss: Community Psychiatric Support and Treatment", "category": "mental-health-and-recovery", "source": "facdb", "is_coad_member": false }, "geometry": { "type": "Point", "coordinates": [ -73.902817, 40.744453 ] } },
{ "type": "Feature", "properties": { "resource_id": "facdb:fb2243679c2adf6885f117a896304a2d", "name": "Sunnyside Community Services Inc", "category": "older-adults", "source": "facdb", "is_coad_member": false }, "geometry": { "type": "Point", "coordinates": [ -73.925616, 40.745104 ] } },
{ "type": "Feature", "properties": { "resource_id": "facdb:fc0e0f657ae4ebb8293dfb9353430e90", "name": "PS 4 at Skillman High School", "category": "children-and-youth", "source": "facdb", "is_coad_member": false }, "geometry": { "type": "Point", "coordinates": [ -73.945232, 40.742209 ] } },
{ "type": "Feature", "properties": { "resource_id": "facdb:fc597334a409c3136cbd055106d45ee2", "name": "Division of Support Services", "category": "government-offices", "source": "facdb", "is_coad_member": false }, "geometry": { "type": "Point", "coordinates": [ -73.953074, 40.750071 ] } },
{ "type": "Feature", "properties": { "resource_id": "facdb:fc80567374d21c123ba0abdc954c5513", "name": "Sunnyside Community Services", "category": "children-and-youth", "source": "facdb", "is_coad_member": false }, "geometry": { "type": "Point", "coordinates": [ -73.925616, 40.745104 ] } },
{ "type": "Feature", "properties": { "resource_id": "facdb:fd859fb8b4fb03cf9e814114b8c8dead", "name": "Battalion 45/ENGINE 259/LADDER 128", "category": "emergency-services", "source": "facdb", "is_coad_member": false }, "geometry": { "type": "Point", "coordinates": [ -73.933208, 40.736407 ] } },
{ "type": "Feature", "properties": { "resource_id": "facdb:fd87cf0f77f086066ba18a63bcbf83bd", "name": "Court Square (Future Home)", "category": "libraries-and-community", "source": "facdb", "is_coad_member": false }, "geometry": { "type": "Point", "coordinates": [ -73.945666, 40.744922 ] } },
{ "type": "Feature", "properties": { "resource_id": "facdb:fdd86da99566883712a930a3e7eab178", "name": "Gantry Plaza", "category": "parks-and-environment", "source": "facdb", "is_coad_member": false }, "geometry": { "type": "Point", "coordinates": [ -73.955858, 40.746584 ] } },
{ "type": "Feature", "properties": { "resource_id": "facdb:fe520b6f7480e80d5b7c0b5a2c0a1c81", "name": "Park", "category": "parks-and-environment", "source": "facdb", "is_coad_member": false }, "geometry": { "type": "Point", "coordinates": [ -73.917988, 40.730951 ] } },
{ "type": "Feature", "properties": { "resource_id": "facdb:ffbfb738c5517f60ab918164c5de39d1", "name": "NYPD Property Clerk", "category": "emergency-services", "source": "facdb", "is_coad_member": false }, "geometry": { "type": "Point", "coordinates": [ -73.94245, 40.743385 ] } },
{ "type": "Feature", "properties": { "resource_id": "qnpd:andromeda-community-initiative", "name": "Andromeda Community Initiative", "category": "education-and-jobs", "source": "qnpd", "is_coad_member": false }, "geometry": { "type": "Point", "coordinates": [ -73.936079, 40.739318 ] } },
{ "type": "Feature", "properties": { "resource_id": "qnpd:earsay-inc", "name": "EarSay, Inc", "category": "libraries-and-community", "source": "qnpd", "is_coad_member": false }, "geometry": { "type": "Point", "coordinates": [ -73.919665, 40.748596 ] } },
{ "type": "Feature", "properties": { "resource_id": "qnpd:hidden-halos-kingdom-assets-inc", "name": "Hidden Halos Kingdom Assets, Inc.", "category": "benefits-and-legal", "source": "qnpd", "is_coad_member": false }, "geometry": { "type": "Point", "coordinates": [ -73.907012, 40.741194 ] } },
{ "type": "Feature", "properties": { "resource_id": "qnpd:lic-community-boathouse", "name": "LIC Community Boathouse", "category": "parks-and-environment", "source": "qnpd", "is_coad_member": false }, "geometry": { "type": "Point", "coordinates": [ -73.954843, 40.747074 ] } },
{ "type": "Feature", "properties": { "resource_id": "qnpd:new-york-irish-center", "name": "New York Irish Center", "category": "older-adults", "source": "qnpd", "is_coad_member": false }, "geometry": { "type": "Point", "coordinates": [ -73.953059, 40.742096 ] } },
{ "type": "Feature", "properties": { "resource_id": "qnpd:solace-house-inc", "name": "Solace House Inc.", "category": "mental-health-and-recovery", "source": "qnpd", "is_coad_member": false }, "geometry": { "type": "Point", "coordinates": [ -73.953059, 40.742096 ] } },
{ "type": "Feature", "properties": { "resource_id": "qnpd:thalia-spanish-theatre-inc", "name": "Thalia Spanish Theatre Inc.", "category": "libraries-and-community", "source": "qnpd", "is_coad_member": false }, "geometry": { "type": "Point", "coordinates": [ -73.923728, 40.740324 ] } }
]
}
