{
"type": "FeatureCollection",
"name": "q03",
"features": [
{ "type": "Feature", "properties": { "resource_id": "facdb:00861a468a355ea533f80a81907f6cc1", "name": "Elmcor Youth & Adult Activities, Inc.", "category": "libraries-and-community", "source": "facdb", "is_coad_member": false }, "geometry": { "type": "Point", "coordinates": [ -73.861359, 40.757274 ] } },
{ "type": "Feature", "properties": { "resource_id": "facdb:01e5f3efc4cad525e233cc50b6e1395f", "name": "Laguardia Landing Lights", "category": "parks-and-environment", "source": "facdb", "is_coad_member": false }, "geometry": { "type": "Point", "coordinates": [ -73.88786, 40.766039 ] } },
{ "type": "Feature", "properties": { "resource_id": "facdb:040b225fd23d1599f6730b7a72ed6093", "name": "Elmcor Youth & Adult Activities Inc", "category": "older-adults", "source": "facdb", "is_coad_member": false }, "geometry": { "type": "Point", "coordinates": [ -73.872407, 40.756613 ] } },
{ "type": "Feature", "properties": { "resource_id": "facdb:07ea2b15f7ed11abeb267a9d43eb4fa3", "name": "Mount Sinai Hospital - Mount Sinai Hospital Queens", "category": "health-care", "source": "facdb", "is_coad_member": false }, "geometry": { "type": "Point", "coordinates": [ -73.884473, 40.749026 ] } },
{ "type": "Feature", "properties": { "resource_id": "facdb:09186df008c965a1ed1c376ae0a3765c", "name": "Veterans Plaza", "category": "parks-and-environment", "source": "facdb", "is_coad_member": false }, "geometry": { "type": "Point", "coordinates": [ -73.874842, 40.758765 ] } },
{ "type": "Feature", "properties": { "resource_id": "facdb:09b082f1dc9e36cdd0262f0a0bad3dd4", "name": "I.S. 230", "category": "children-and-youth", "source": "facdb", "is_coad_member": false }, "geometry": { "type": "Point", "coordinates": [ -73.892865, 40.752629 ] } },
{ "type": "Feature", "properties": { "resource_id": "facdb:0a3e65208e03632f5c503ae9c2d75642", "name": "Safe Horizon Inc", "category": "benefits-and-legal", "source": "facdb", "is_coad_member": false }, "geometry": { "type": "Point", "coordinates": [ -73.875534, 40.756852 ] } },
{ "type": "Feature", "properties": { "resource_id": "facdb:0a9db6d9a2dab541865d1638fc7baeae", "name": "Plaza del Sol Family Health Center", "category": "health-care", "source": "facdb", "is_coad_member": false }, "geometry": { "type": "Point", "coordinates": [ -73.860531, 40.75356 ] } },
{ "type": "Feature", "properties": { "resource_id": "facdb:0cc68124e62ffd72bc5c194d28da4230", "name": "New York Junior Tennis League Inc", "category": "children-and-youth", "source": "facdb", "is_coad_member": false }, "geometry": { "type": "Point", "coordinates": [ -73.871389, 40.765088 ] } },
{ "type": "Feature", "properties": { "resource_id": "facdb:0d30fcd0bb9d4b6608909f535404ad71", "name": "P.S. 127 Aerospace Science Magnet School", "category": "children-and-youth", "source": "facdb", "is_coad_member": false }, "geometry": { "type": "Point", "coordinates": [ -73.871389, 40.765088 ] } },
{ "type": "Feature", "properties": { "resource_id": "facdb:0d85fceae833755286e73993711745a8", "name": "Overlook Park", "category": "parks-and-environment", "source": "facdb", "is_coad_member": false }, "geometry": { "type": "Point", "coordinates": [ -73.872369, 40.770471 ] } },
{ "type": "Feature", "properties": { "resource_id": "facdb:0df52f4292050fad58b5c0c960ffd503", "name": "Corona District Health Center", "category": "health-care", "source": "facdb", "is_coad_member": false }, "geometry": { "type": "Point", "coordinates": [ -73.871968, 40.754229 ] } },
{ "type": "Feature", "properties": { "resource_id": "facdb:0f1fa1b0b99a13aecea5dd381d61925b", "name": "Usda-Ceo P255Q at Renaissance School", "category": "children-and-youth", "source": "facdb", "is_coad_member": false }, "geometry": { "type": "Point", "coordinates": [ -73.884827, 40.749936 ] } },
{ "type": "Feature", "properties": { "resource_id": "facdb:0fa76165e6a4e67a1320a8ad03f99dc5", "name": "Church of God Bible School", "category": "children-and-youth", "source": "facdb", "is_coad_member": false }, "geometry": { "type": "Point", "coordinates": [ -73.866239, 40.756947 ] } },
{ "type": "Feature", "properties": { "resource_id": "facdb:0fe24c8169a9d73495d154cce6c9c590", "name": "Laguardia Landing Lights", "category": "parks-and-environment", "source": "facdb", "is_coad_member": false }, "geometry": { "type": "Point", "coordinates": [ -73.889256, 40.762578 ] } },
{ "type": "Feature", "properties": { "resource_id": "facdb:134caae26b9177608dfeee3f425d8fab", "name": "Library Action Committee of Corona-East Elmhurst, Inc.", "category": "libraries-and-community", "source": "facdb", "is_coad_member": false }, "geometry": { "type": "Point", "coordinates": [ -73.86814, 40.75764 ] } },
{ "type": "Feature", "properties": { "resource_id": "facdb:138ce272d0bd66032c115d26921a8116", "name": "Northeastern Conference Adventist Community Svcs : Corona SDA Church", "category": "food-assistance", "source": "facdb", "is_coad_member": false }, "geometry": { "type": "Point", "coordinates": [ -73.865003, 40.753803 ] } },
{ "type": "Feature", "properties": { "resource_id": "facdb:17442cc4dd6d13da71178616203d77cb", "name": "Make the Road New York", "category": "education-and-jobs", "source": "facdb", "is_coad_member": false }, "geometry": { "type": "Point", "coordinates": [ -73.884827, 40.749936 ] } },
{ "type": "Feature", "properties": { "resource_id": "facdb:179dcd5d3a45593dfac35f995f57c4c0", "name": "Elmhurst Care Center, Inc", "category": "health-care", "source": "facdb", "is_coad_member": false }, "geometry": { "type": "Point", "coordinates": [ -73.870127, 40.769053 ] } },
{ "type": "Feature", "properties": { "resource_id": "facdb:1829987e6543ffacb896b2f17901c813", "name": "Queens Library-Langston Hughes", "category": "children-and-youth", "source": "facdb", "is_coad_member": false }, "geometry": { "type": "Point", "coordinates": [ -73.86814, 40.75764 ] } },
{ "type": "Feature", "properties": { "resource_id": "facdb:1846f403ee26ca4e641b52a20e179f2b", "name": "Percussia", "category": "libraries-and-community", "source": "facdb", "is_coad_member": false }, "geometry": { "type": "Point", "coordinates": [ -73.8816, 40.749282 ] } },
{ "type": "Feature", "properties": { "resource_id": "facdb:18d044115977ff5335045c30e307e5a6", "name": "Elmcor-Core Psychosocial Rehabilitation", "category": "mental-health-and-recovery", "source": "facdb", "is_coad_member": false }, "geometry": { "type": "Point", "coordinates": [ -73.86129, 40.75781 ] } },
{ "type": "Feature", "properties": { "resource_id": "facdb:191a29c1b86645a2dfb153293489ca4c", "name": "Offices", "category": "government-offices", "source": "facdb", "is_coad_member": false }, "geometry": { "type": "Point", "coordinates": [ -73.883706, 40.750046 ] } },
{ "type": "Feature", "properties": { "resource_id": "facdb:19ec00abcc611d43bea12a041fbd8011", "name": "Coalition for Hispanic Family Services", "category": "children-and-youth", "source": "facdb", "is_coad_member": false }, "geometry": { "type": "Point", "coordinates": [ -73.892865, 40.752629 ] } },
{ "type": "Feature", "properties": { "resource_id": "facdb:1afb098cd5890ddf99366421dd909a62", "name": "Hinton Park", "category": "parks-and-environment", "source": "facdb", "is_coad_member": false }, "geometry": { "type": "Point", "coordinates": [ -73.854956, 40.756028 ] } },
{ "type": "Feature", "properties": { "resource_id": "facdb:1c58dafc0163e2f78246e410c3c39979", "name": "Atonement Lutheran Church : Atonement Lutheran Church", "category": "food-assistance", "source": "facdb", "is_coad_member": false }, "geometry": { "type": "Point", "coordinates": [ -73.881176, 40.759989 ] } },
{ "type": "Feature", "properties": { "resource_id": "facdb:1d8cf7030f94c3d3bec7f6610d0317e8", "name": "Diversity Plaza", "category": "parks-and-environment", "source": "facdb", "is_coad_member": false }, "geometry": { "type": "Point", "coordinates": [ -73.892114, 40.747079 ] } },
{ "type": "Feature", "properties": { "resource_id": "facdb:1f509f5f27d1532f02db012f6088cc1b", "name": "Lexington Hearing & Speech Center Inc", "category": "health-care", "source": "facdb", "is_coad_member": false }, "geometry": { "type": "Point", "coordinates": [ -73.894, 40.761347 ] } },
{ "type": "Feature", "properties": { "resource_id": "facdb:21edaff5497a99572bd88607a7928d47", "name": "Park", "category": "parks-and-environment", "source": "facdb", "is_coad_member": false }, "geometry": { "type": "Point", "coordinates": [ -73.887831, 40.764929 ] } },
{ "type": "Feature", "properties": { "resource_id": "facdb:247e317f36abd76002161eba32a24826", "name": "Corona", "category": "libraries-and-community", "source": "facdb", "is_coad_member": false }, "geometry": { "type": "Point", "coordinates": [ -73.861982, 40.750899 ] } },
{ "type": "Feature", "properties": { "resource_id": "facdb:268d3e82721c3e38d17c5b369e54e5e7", "name": "Asian Americans for Equality Inc", "category": "older-adults", "source": "facdb", "is_coad_member": false }, "geometry": { "type": "Point", "coordinates": [ -73.881644, 40.748124 ] } },
{ "type": "Feature", "properties": { "resource_id": "facdb:26e658d39dda08ab36f70326ca2afd52", "name": "Our Lady of Fatima Church : Our Lady of Fatima Church", "category": "food-assistance", "source": "facdb", "is_coad_member": false }, "geometry": { "type": "Point", "coordinates": [ -73.888963, 40.76259 ] } },
{ "type": "Feature", "properties": { "resource_id": "facdb:26ed547c95559b824b514ce01ad88203", "name": "82nd Street Academics", "category": "children-and-youth", "source": "facdb", "is_coad_member": false }, "geometry": { "type": "Point", "coordinates": [ -73.885105, 40.751525 ] } },
{ "type": "Feature", "properties": { "resource_id": "facdb:271f0a0fcf58d6a665055a67d2df2f4d", "name": "Laguardia Landing Lights", "category": "parks-and-environment", "source": "facdb", "is_coad_member": false }, "geometry": { "type": "Point", "coordinates": [ -73.886835, 40.765862 ] } },
{ "type": "Feature", "properties": { "resource_id": "facdb:28528c95bc0cf85a5fcac8ec3f6b94ec", "name": "Northeastern Conference Adventist Community Svcs : Northeastern Conference Adventist Community Svcs", "category": "food-assistance", "source": "facdb", "is_coad_member": false }, "geometry": { "type": "Point", "coordinates": [ -73.868977, 40.757569 ] } },
{ "type": "Feature", "properties": { "resource_id": "facdb:2a03d869b3b2f5721343f2cf4e82ceea", "name": "Elmhurst Hospital Mental Health School-Based Clinic", "category": "mental-health-and-recovery", "source": "facdb", "is_coad_member": false }, "geometry": { "type": "Point", "coordinates": [ -73.887425, 40.754271 ] } },
{ "type": "Feature", "properties": { "resource_id": "facdb:2beae35805b391e26482cc2969bc9cbf", "name": "Coalition for Hispanic Family Services", "category": "children-and-youth", "source": "facdb", "is_coad_member": false }, "geometry": { "type": "Point", "coordinates": [ -73.874696, 40.757943 ] } },
{ "type": "Feature", "properties": { "resource_id": "facdb:2cc17d9e4b76a5e872441e19bb463b8f", "name": "Hanac Inc", "category": "children-and-youth", "source": "facdb", "is_coad_member": false }, "geometry": { "type": "Point", "coordinates": [ -73.884631, 40.75314 ] } },
{ "type": "Feature", "properties": { "resource_id": "facdb:2d3456aaad66fa5d0f910b75114d9a53", "name": "St. Gabriel School", "category": "children-and-youth", "source": "facdb", "is_coad_member": false }, "geometry": { "type": "Point", "coordinates": [ -73.872299, 40.762564 ] } },
{ "type": "Feature", "properties": { "resource_id": "facdb:2d9eff71dbc3139345c68aa35fc8ba18", "name": "Laguardia Landing Lights", "category": "parks-and-environment", "source": "facdb", "is_coad_member": false }, "geometry": { "type": "Point", "coordinates": [ -73.888335, 40.764009 ] } },
{ "type": "Feature", "properties": { "resource_id": "facdb:2dde1bf367a3f51fc4415dc1c493813f", "name": "Corona Health Center", "category": "health-care", "source": "facdb", "is_coad_member": false }, "geometry": { "type": "Point", "coordinates": [ -73.871968, 40.754229 ] } },
{ "type": "Feature", "properties": { "resource_id": "facdb:329ab8fac552ed5c864f28a905c3bdda", "name": "Louis Armstrong Recreation Building", "category": "children-and-youth", "source": "facdb", "is_coad_member": false }, "geometry": { "type": "Point", "coordinates": [ -73.861359, 40.757274 ] } },
{ "type": "Feature", "properties": { "resource_id": "facdb:3649357d1725915e20c638b420e53622", "name": "I.S. 227 Louis Armstrong", "category": "children-and-youth", "source": "facdb", "is_coad_member": false }, "geometry": { "type": "Point", "coordinates": [ -73.874696, 40.757943 ] } },
{ "type": "Feature", "properties": { "resource_id": "facdb:36cbd1e4459458635469fb35e9accb04", "name": "P.S. 148 Queens", "category": "children-and-youth", "source": "facdb", "is_coad_member": false }, "geometry": { "type": "Point", "coordinates": [ -73.878697, 40.757979 ] } },
{ "type": "Feature", "properties": { "resource_id": "facdb:3a21bd7e669302670884dcf069a6dde0", "name": "Talujon, Inc.", "category": "libraries-and-community", "source": "facdb", "is_coad_member": false }, "geometry": { "type": "Point", "coordinates": [ -73.879673, 40.748866 ] } },
{ "type": "Feature", "properties": { "resource_id": "facdb:3a7fdb4dc707b865203b585c7c021c98", "name": "Research Foundation of the City University of New York", "category": "children-and-youth", "source": "facdb", "is_coad_member": false }, "geometry": { "type": "Point", "coordinates": [ -73.857238, 40.75359 ] } },
{ "type": "Feature", "properties": { "resource_id": "facdb:3abaf0da791248da260ff6e6870c7eb6", "name": "Fms-Queens Artifical Kidney Center", "category": "health-care", "source": "facdb", "is_coad_member": false }, "geometry": { "type": "Point", "coordinates": [ -73.895732, 40.751638 ] } },
{ "type": "Feature", "properties": { "resource_id": "facdb:3ac1389d47f132793edd2909bc875fef", "name": "Mall Thirty Four Xxxiv", "category": "parks-and-environment", "source": "facdb", "is_coad_member": false }, "geometry": { "type": "Point", "coordinates": [ -73.87287, 40.755014 ] } },
{ "type": "Feature", "properties": { "resource_id": "facdb:3b2611bcac2f310aa68e44996dbe73b1", "name": "Florence E. Smith Senior Service", "category": "older-adults", "source": "facdb", "is_coad_member": false }, "geometry": { "type": "Point", "coordinates": [ -73.865705, 40.756042 ] } },
{ "type": "Feature", "properties": { "resource_id": "facdb:3b9c711c82235c254ca3ef0ecb10e922", "name": "Hinton Park", "category": "children-and-youth", "source": "facdb", "is_coad_member": false }, "geometry": { "type": "Point", "coordinates": [ -73.854956, 40.756028 ] } },
{ "type": "Feature", "properties": { "resource_id": "facdb:3da7148b8d1e184930b558039f3fddc6", "name": "Catholic Charities Neighborhood Services Inc", "category": "older-adults", "source": "facdb", "is_coad_member": false }, "geometry": { "type": "Point", "coordinates": [ -73.879527, 40.763436 ] } },
{ "type": "Feature", "properties": { "resource_id": "facdb:40d3ff58fb853e65346e4235c0f5e1d8", "name": "Mental Health Providers of Western Queens Inc", "category": "mental-health-and-recovery", "source": "facdb", "is_coad_member": false }, "geometry": { "type": "Point", "coordinates": [ -73.876178, 40.750341 ] } },
{ "type": "Feature", "properties": { "resource_id": "facdb:414080a2171a9a845af578e9d821ec56", "name": "PS 69 Jackson Heights (30Q069)", "category": "children-and-youth", "source": "facdb", "is_coad_member": false }, "geometry": { "type": "Point", "coordinates": [ -73.888592, 40.748842 ] } },
{ "type": "Feature", "properties": { "resource_id": "facdb:4222cbaa9d1a52faa5569cd395772ace", "name": "East Elmhurst", "category": "libraries-and-community", "source": "facdb", "is_coad_member": false }, "geometry": { "type": "Point", "coordinates": [ -73.873873, 40.762426 ] } },
{ "type": "Feature", "properties": { "resource_id": "facdb:4247c47831b634fc6639535bb8277241", "name": "Queens Lesbian and Gay Community Center Inc.", "category": "libraries-and-community", "source": "facdb", "is_coad_member": false }, "geometry": { "type": "Point", "coordinates": [ -73.889466, 40.749443 ] } },
{ "type": "Feature", "properties": { "resource_id": "facdb:458c195d9919864d3a370aacf8782864", "name": "Playground Ninety", "category": "parks-and-environment", "source": "facdb", "is_coad_member": false }, "geometry": { "type": "Point", "coordinates": [ -73.878697, 40.757979 ] } },
{ "type": "Feature", "properties": { "resource_id": "facdb:47e4051d740c3c24662060ec4d254cdf", "name": "P.S. 92 Harry T. Stewart, Sr.", "category": "children-and-youth", "source": "facdb", "is_coad_member": false }, "geometry": { "type": "Point", "coordinates": [ -73.868685, 40.756019 ] } },
{ "type": "Feature", "properties": { "resource_id": "facdb:485e6295d5d803ec55a6430a3c5a8733", "name": "Queens Community House, Inc.", "category": "children-and-youth", "source": "facdb", "is_coad_member": false }, "geometry": { "type": "Point", "coordinates": [ -73.889231, 40.748998 ] } },
{ "type": "Feature", "properties": { "resource_id": "facdb:4944f3af572a254ee6b64d461795db97", "name": "La Asociacion Benefica Cultural Padre Billini, Inc.", "category": "libraries-and-community", "source": "facdb", "is_coad_member": false }, "geometry": { "type": "Point", "coordinates": [ -73.880322, 40.76285 ] } },
{ "type": "Feature", "properties": { "resource_id": "facdb:4a503b942047b46f508c69300ea793b2", "name": "Catholic Charities Neighborhood Services Inc", "category": "older-adults", "source": "facdb", "is_coad_member": false }, "geometry": { "type": "Point", "coordinates": [ -73.88395, 40.751476 ] } },
{ "type": "Feature", "properties": { "resource_id": "facdb:4accbfde0000241b074d7b48b1d89eed", "name": "Salvation Army : the Salvation Army Queens Temple Corp.", "category": "food-assistance", "source": "facdb", "is_coad_member": false }, "geometry": { "type": "Point", "coordinates": [ -73.880667, 40.752456 ] } },
{ "type": "Feature", "properties": { "resource_id": "facdb:4afe869630275d33bd7906e8d7c828f1", "name": "Police Athletic League Inc", "category": "children-and-youth", "source": "facdb", "is_coad_member": false }, "geometry": { "type": "Point", "coordinates": [ -73.887425, 40.754271 ] } },
{ "type": "Feature", "properties": { "resource_id": "facdb:4b3f7ee0cabc9f65116218c58c6ef10d", "name": "34th Avenue Plaza", "category": "parks-and-environment", "source": "facdb", "is_coad_member": false }, "geometry": { "type": "Point", "coordinates": [ -73.884213, 40.75382 ] } },
{ "type": "Feature", "properties": { "resource_id": "facdb:4d11848f9024dafe23494d1a4151bb62", "name": "The New York Immigration Coalition Inc", "category": "children-and-youth", "source": "facdb", "is_coad_member": false }, "geometry": { "type": "Point", "coordinates": [ -73.896701, 40.752785 ] } },
{ "type": "Feature", "properties": { "resource_id": "facdb:4d8d01934068439b4a22402e677bd686", "name": "Northeastern Conference Adventist Community Svcs : Corona SDA Church", "category": "food-assistance", "source": "facdb", "is_coad_member": false }, "geometry": { "type": "Point", "coordinates": [ -73.865003, 40.753803 ] } },
{ "type": "Feature", "properties": { "resource_id": "facdb:4e972c5c8f07772538acde82b61de408", "name": "Vaughn College", "category": "education-and-jobs", "source": "facdb", "is_coad_member": false }, "geometry": { "type": "Point", "coordinates": [ -73.882383, 40.767929 ] } },
{ "type": "Feature", "properties": { "resource_id": "facdb:4f7e47b921a2f04deb72cd195cd30ab1", "name": "Queens Community House Inc.", "category": "older-adults", "source": "facdb", "is_coad_member": false }, "geometry": { "type": "Point", "coordinates": [ -73.889231, 40.748998 ] } },
{ "type": "Feature", "properties": { "resource_id": "facdb:51c4190b1a277a4699d5c5f4888d15c1", "name": "Usda-Ceo P811Q at PS 69Q", "category": "children-and-youth", "source": "facdb", "is_coad_member": false }, "geometry": { "type": "Point", "coordinates": [ -73.888592, 40.748842 ] } },
{ "type": "Feature", "properties": { "resource_id": "facdb:5404c7aa18957a7122383a27b11a6ddd", "name": "Qmad Queens Media Arts Development", "category": "libraries-and-community", "source": "facdb", "is_coad_member": false }, "geometry": { "type": "Point", "coordinates": [ -73.873203, 40.752762 ] } },
{ "type": "Feature", "properties": { "resource_id": "facdb:546ec7fb5dc5b929100462a6d0b48ace", "name": "Elmhurst Care Center, Inc", "category": "health-care", "source": "facdb", "is_coad_member": false }, "geometry": { "type": "Point", "coordinates": [ -73.870127, 40.769053 ] } },
{ "type": "Feature", "properties": { "resource_id": "facdb:548aa26db8b82866099383380b7f56ea", "name": "Elm York Home for Adults", "category": "health-care", "source": "facdb", "is_coad_member": false }, "geometry": { "type": "Point", "coordinates": [ -73.86999, 40.769406 ] } },
{ "type": "Feature", "properties": { "resource_id": "facdb:549585b4c264099bb6ba445d505a6a7d", "name": "PS 149 Christa McAuliffe", "category": "children-and-youth", "source": "facdb", "is_coad_member": false }, "geometry": { "type": "Point", "coordinates": [ -73.874428, 40.755291 ] } },
{ "type": "Feature", "properties": { "resource_id": "facdb:54b01291559714a5cb7d4be18b82bd31", "name": "Trolley Car Triangle", "category": "parks-and-environment", "source": "facdb", "is_coad_member": false }, "geometry": { "type": "Point", "coordinates": [ -73.87243, 40.762293 ] } },
{ "type": "Feature", "properties": { "resource_id": "facdb:5625e0730be79f62e460f521dfb2f000", "name": "The Jackson Heights Art Club Inc", "category": "children-and-youth", "source": "facdb", "is_coad_member": false }, "geometry": { "type": "Point", "coordinates": [ -73.885454, 40.754002 ] } },
{ "type": "Feature", "properties": { "resource_id": "facdb:5a05ec7a76b071106e161909816aea37", "name": "82nd Street Academics", "category": "children-and-youth", "source": "facdb", "is_coad_member": false }, "geometry": { "type": "Point", "coordinates": [ -73.885105, 40.751525 ] } },
{ "type": "Feature", "properties": { "resource_id": "facdb:5d6e06d7d17589a528e9e02635c22fed", "name": "97th Street Block Association", "category": "parks-and-environment", "source": "facdb", "is_coad_member": false }, "geometry": { "type": "Point", "coordinates": [ -73.871435, 40.756148 ] } },
{ "type": "Feature", "properties": { "resource_id": "facdb:5d9b2a56b6f547b1fb79087edb85e99f", "name": "Laguardia Landing Lights", "category": "parks-and-environment", "source": "facdb", "is_coad_member": false }, "geometry": { "type": "Point", "coordinates": [ -73.887565, 40.765451 ] } },
{ "type": "Feature", "properties": { "resource_id": "facdb:5e02d2d86295eb24dcb333d3b75e686c", "name": "La Assoc Benefica Cultural", "category": "children-and-youth", "source": "facdb", "is_coad_member": false }, "geometry": { "type": "Point", "coordinates": [ -73.863314, 40.754173 ] } },
{ "type": "Feature", "properties": { "resource_id": "facdb:5e30d82987464ec9bdbbdff84742f7cd", "name": "Laguardia Landing Lights", "category": "parks-and-environment", "source": "facdb", "is_coad_member": false }, "geometry": { "type": "Point", "coordinates": [ -73.889173, 40.763425 ] } },
{ "type": "Feature", "properties": { "resource_id": "facdb:5ea5aa29f9ab26cf4d7d9b50ebc3fca1", "name": "Jackson Mill Green", "category": "parks-and-environment", "source": "facdb", "is_coad_member": false }, "geometry": { "type": "Point", "coordinates": [ -73.87576, 40.766422 ] } },
{ "type": "Feature", "properties": { "resource_id": "facdb:5ffce69f079d6623963d602667019468", "name": "First Baptist Church : First Baptist Church", "category": "food-assistance", "source": "facdb", "is_coad_member": false }, "geometry": { "type": "Point", "coordinates": [ -73.868819, 40.761513 ] } },
{ "type": "Feature", "properties": { "resource_id": "facdb:600e60edc56a3a64d666b1a1110c60c5", "name": "Asian Americans for Equality Inc", "category": "children-and-youth", "source": "facdb", "is_coad_member": false }, "geometry": { "type": "Point", "coordinates": [ -73.881644, 40.748124 ] } },
{ "type": "Feature", "properties": { "resource_id": "facdb:652625fc3ffa0c2e768d9c533ba6f756", "name": "P.S. 212", "category": "children-and-youth", "source": "facdb", "is_coad_member": false }, "geometry": { "type": "Point", "coordinates": [ -73.884631, 40.75314 ] } },
{ "type": "Feature", "properties": { "resource_id": "facdb:663671be7cac4130411078341ff15fd9", "name": "NY Lang Ctr Inc", "category": "education-and-jobs", "source": "facdb", "is_coad_member": false }, "geometry": { "type": "Point", "coordinates": [ -73.884254, 40.747895 ] } },
{ "type": "Feature", "properties": { "resource_id": "facdb:66a2920d5b5b4cc99fdc9b5492e59605", "name": "Queens Community House, Inc.", "category": "children-and-youth", "source": "facdb", "is_coad_member": false }, "geometry": { "type": "Point", "coordinates": [ -73.887425, 40.754271 ] } },
{ "type": "Feature", "properties": { "resource_id": "facdb:686a982babd695469d829888ad03c054", "name": "Ccns Corona Ccbhc", "category": "mental-health-and-recovery", "source": "facdb", "is_coad_member": false }, "geometry": { "type": "Point", "coordinates": [ -73.875361, 40.75051 ] } },
{ "type": "Feature", "properties": { "resource_id": "facdb:68b2f20f197a880f50dd9eb1c02c3d02", "name": "Hinton Park", "category": "children-and-youth", "source": "facdb", "is_coad_member": false }, "geometry": { "type": "Point", "coordinates": [ -73.854956, 40.756028 ] } },
{ "type": "Feature", "properties": { "resource_id": "facdb:68b904df2b23d241d312bab363332c8f", "name": "Queens World Film Initiative, Inc.", "category": "children-and-youth", "source": "facdb", "is_coad_member": false }, "geometry": { "type": "Point", "coordinates": [ -73.891702, 40.751312 ] } },
{ "type": "Feature", "properties": { "resource_id": "facdb:68e52e1a47027ede2a6fc1e45c97f605", "name": "Make the Road New York : Make the Road New York - Queens", "category": "food-assistance", "source": "facdb", "is_coad_member": false }, "geometry": { "type": "Point", "coordinates": [ -73.861162, 40.750291 ] } },
{ "type": "Feature", "properties": { "resource_id": "facdb:6b4a6300eb002308dc6f39976e0057ae", "name": "Private William Gray Playground", "category": "parks-and-environment", "source": "facdb", "is_coad_member": false }, "geometry": { "type": "Point", "coordinates": [ -73.870836, 40.757875 ] } },
{ "type": "Feature", "properties": { "resource_id": "facdb:6c9e21e136e2e4a8b67f0fffcb581b41", "name": "St. Mark AME Church", "category": "children-and-youth", "source": "facdb", "is_coad_member": false }, "geometry": { "type": "Point", "coordinates": [ -73.869819, 40.757471 ] } },
{ "type": "Feature", "properties": { "resource_id": "facdb:6cdf13047e69cc53b7c1afb576fdad74", "name": "Selfhelp Community Services Inc", "category": "older-adults", "source": "facdb", "is_coad_member": false }, "geometry": { "type": "Point", "coordinates": [ -73.877376, 40.754934 ] } },
{ "type": "Feature", "properties": { "resource_id": "facdb:6d2a810b59ec5c51bfa821a4992a2648", "name": "Coalition for Hispanic Family Services", "category": "children-and-youth", "source": "facdb", "is_coad_member": false }, "geometry": { "type": "Point", "coordinates": [ -73.871389, 40.765088 ] } },
{ "type": "Feature", "properties": { "resource_id": "facdb:703f50cb35f2824292e966c35fa65a3c", "name": "Louis Armstrong House", "category": "libraries-and-community", "source": "facdb", "is_coad_member": false }, "geometry": { "type": "Point", "coordinates": [ -73.861529, 40.754584 ] } },
{ "type": "Feature", "properties": { "resource_id": "facdb:71faa41ac8239db413b5c712bd708822", "name": "Engine 307/LADDER 154", "category": "emergency-services", "source": "facdb", "is_coad_member": false }, "geometry": { "type": "Point", "coordinates": [ -73.885616, 40.755807 ] } },
{ "type": "Feature", "properties": { "resource_id": "facdb:725bd501865eec0bed1d89087b23ee17", "name": "Elmcor Youth & Adult Activities Inc", "category": "older-adults", "source": "facdb", "is_coad_member": false }, "geometry": { "type": "Point", "coordinates": [ -73.861359, 40.757274 ] } },
{ "type": "Feature", "properties": { "resource_id": "facdb:7295352ad48f543995fcf2bdeeb57489", "name": "Make the Road-Roosevelt Ave.", "category": "children-and-youth", "source": "facdb", "is_coad_member": false }, "geometry": { "type": "Point", "coordinates": [ -73.861162, 40.750291 ] } },
{ "type": "Feature", "properties": { "resource_id": "facdb:73fcb673ea789357be8513b0844f5c68", "name": "Galilee Gospel", "category": "children-and-youth", "source": "facdb", "is_coad_member": false }, "geometry": { "type": "Point", "coordinates": [ -73.865811, 40.754846 ] } },
{ "type": "Feature", "properties": { "resource_id": "facdb:75be0f9877aafd0df6c9a55235d31d1f", "name": "Flamenco Latino, Inc.", "category": "libraries-and-community", "source": "facdb", "is_coad_member": false }, "geometry": { "type": "Point", "coordinates": [ -73.882408, 40.751794 ] } },
{ "type": "Feature", "properties": { "resource_id": "facdb:76ed27bbbaa34b4e76513688c2c50487", "name": "Asian Americans for Equality Inc", "category": "immigration-and-language", "source": "facdb", "is_coad_member": false }, "geometry": { "type": "Point", "coordinates": [ -73.881644, 40.748124 ] } },
{ "type": "Feature", "properties": { "resource_id": "facdb:775b47ae9280cad21ec7abce790deffe", "name": "Junction Playground", "category": "parks-and-environment", "source": "facdb", "is_coad_member": false }, "geometry": { "type": "Point", "coordinates": [ -73.872143, 40.754707 ] } },
{ "type": "Feature", "properties": { "resource_id": "facdb:795e9ee61f9222bc2ba3294b90986b3f", "name": "Korean Community Services of Metropolitan New York Inc", "category": "older-adults", "source": "facdb", "is_coad_member": false }, "geometry": { "type": "Point", "coordinates": [ -73.857238, 40.75359 ] } },
{ "type": "Feature", "properties": { "resource_id": "facdb:7979eda5dbf66faee8c0523ffc1207c6", "name": "Louis C. Moser Playground", "category": "parks-and-environment", "source": "facdb", "is_coad_member": false }, "geometry": { "type": "Point", "coordinates": [ -73.892234, 40.763107 ] } },
{ "type": "Feature", "properties": { "resource_id": "facdb:79a6430cf5105c768c75f1ba4cbb180e", "name": "78th Street Plaza", "category": "parks-and-environment", "source": "facdb", "is_coad_member": false }, "geometry": { "type": "Point", "coordinates": [ -73.888872, 40.753988 ] } },
{ "type": "Feature", "properties": { "resource_id": "facdb:7b41428049412478b847fb5b17e0efb6", "name": "Fisher Pool", "category": "children-and-youth", "source": "facdb", "is_coad_member": false }, "geometry": { "type": "Point", "coordinates": [ -73.869586, 40.758483 ] } },
{ "type": "Feature", "properties": { "resource_id": "facdb:7b9aa5869d257e5f6820a1dfed3a810d", "name": "Korean Church of Queens", "category": "children-and-youth", "source": "facdb", "is_coad_member": false }, "geometry": { "type": "Point", "coordinates": [ -73.879991, 40.767104 ] } },
{ "type": "Feature", "properties": { "resource_id": "facdb:7bfb4e74fe27be1255da505c341398e1", "name": "P.S. 280", "category": "children-and-youth", "source": "facdb", "is_coad_member": false }, "geometry": { "type": "Point", "coordinates": [ -73.873944, 40.753829 ] } },
{ "type": "Feature", "properties": { "resource_id": "facdb:7c050ef84e1b6347fd34ee1b3280cb85", "name": "One Room Schoolhouse Park", "category": "parks-and-environment", "source": "facdb", "is_coad_member": false }, "geometry": { "type": "Point", "coordinates": [ -73.879421, 40.763326 ] } },
{ "type": "Feature", "properties": { "resource_id": "facdb:7d4599850d5a8d0cf6ee979d150c4c96", "name": "Elmcor Youth & Adult Activities Inc", "category": "older-adults", "source": "facdb", "is_coad_member": false }, "geometry": { "type": "Point", "coordinates": [ -73.870615, 40.762479 ] } },
{ "type": "Feature", "properties": { "resource_id": "facdb:7f12da8ad8abf7bf82a4f009b1050329", "name": "Rory Staunton Field", "category": "parks-and-environment", "source": "facdb", "is_coad_member": false }, "geometry": { "type": "Point", "coordinates": [ -73.888455, 40.754418 ] } },
{ "type": "Feature", "properties": { "resource_id": "facdb:7f35d05efdbb4178be63c290b63d66d5", "name": "Hunger Free America Inc", "category": "children-and-youth", "source": "facdb", "is_coad_member": false }, "geometry": { "type": "Point", "coordinates": [ -73.892053, 40.748641 ] } },
{ "type": "Feature", "properties": { "resource_id": "facdb:80fa971e154893c4a03a40b73902b828", "name": "United States Post Office-Jackson Heights Station", "category": "parks-and-environment", "source": "facdb", "is_coad_member": false }, "geometry": { "type": "Point", "coordinates": [ -73.887518, 40.749162 ] } },
{ "type": "Feature", "properties": { "resource_id": "facdb:81060accd3200406d06e107807ce6686", "name": "Laguardia Landing Lights", "category": "parks-and-environment", "source": "facdb", "is_coad_member": false }, "geometry": { "type": "Point", "coordinates": [ -73.887548, 40.764686 ] } },
{ "type": "Feature", "properties": { "resource_id": "facdb:8463d217651f577a0be576935cd329af", "name": "Correction Headquarters", "category": "government-offices", "source": "facdb", "is_coad_member": false }, "geometry": { "type": "Point", "coordinates": [ -73.893244, 40.764136 ] } },
{ "type": "Feature", "properties": { "resource_id": "facdb:847d48e6a3c91864029bc307909af686", "name": "Chhaya Community Development Corp", "category": "children-and-youth", "source": "facdb", "is_coad_member": false }, "geometry": { "type": "Point", "coordinates": [ -73.888584, 40.747976 ] } },
{ "type": "Feature", "properties": { "resource_id": "facdb:881b4894a4abac12118a1584723b20c4", "name": "82nd Street Academics", "category": "children-and-youth", "source": "facdb", "is_coad_member": false }, "geometry": { "type": "Point", "coordinates": [ -73.873944, 40.753829 ] } },
{ "type": "Feature", "properties": { "resource_id": "facdb:8dcddb7954807869406316ec6018e4fb", "name": "Mexicanos Unidos de Queens, Inc.", "category": "libraries-and-community", "source": "facdb", "is_coad_member": false }, "geometry": { "type": "Point", "coordinates": [ -73.873545, 40.75852 ] } },
{ "type": "Feature", "properties": { "resource_id": "facdb:8f6c240535c8e7e7790ac34049d6e35d", "name": "Fisher Pool", "category": "parks-and-environment", "source": "facdb", "is_coad_member": false }, "geometry": { "type": "Point", "coordinates": [ -73.869586, 40.758483 ] } },
{ "type": "Feature", "properties": { "resource_id": "facdb:905b6fa7f4305ec7083254b357550f09", "name": "Jackson Heights Historic District", "category": "parks-and-environment", "source": "facdb", "is_coad_member": false }, "geometry": { "type": "Point", "coordinates": [ -73.885789, 40.751583 ] } },
{ "type": "Feature", "properties": { "resource_id": "facdb:94351f5368b067ab79bb204a17e2889f", "name": "Barclay Triangle", "category": "parks-and-environment", "source": "facdb", "is_coad_member": false }, "geometry": { "type": "Point", "coordinates": [ -73.867034, 40.761374 ] } },
{ "type": "Feature", "properties": { "resource_id": "facdb:96ca5585c46289c54301f87e937ece95", "name": "Lexington Center for Mental Health Services Inc.", "category": "mental-health-and-recovery", "source": "facdb", "is_coad_member": false }, "geometry": { "type": "Point", "coordinates": [ -73.89374, 40.761293 ] } },
{ "type": "Feature", "properties": { "resource_id": "facdb:99dbe71829d6c44edc76928b9a1ed6ab", "name": "Kinding Sindaw Heritage Foundation, Inc.", "category": "libraries-and-community", "source": "facdb", "is_coad_member": false }, "geometry": { "type": "Point", "coordinates": [ -73.893782, 40.753743 ] } },
{ "type": "Feature", "properties": { "resource_id": "facdb:9aaabd6b17bbd749468e8d1dfd8aeaa8", "name": "Jackson Heights Beautification Group", "category": "children-and-youth", "source": "facdb", "is_coad_member": false }, "geometry": { "type": "Point", "coordinates": [ -73.887427, 40.749666 ] } },
{ "type": "Feature", "properties": { "resource_id": "facdb:9b85b9aa514836b34212deacf808505b", "name": "Louis Armstrong Recreation Building", "category": "children-and-youth", "source": "facdb", "is_coad_member": false }, "geometry": { "type": "Point", "coordinates": [ -73.861359, 40.757274 ] } },
{ "type": "Feature", "properties": { "resource_id": "facdb:9c10a6e91430c3152f45b1a79e25f8c5", "name": "First Baptist Church : First Baptist Church", "category": "food-assistance", "source": "facdb", "is_coad_member": false }, "geometry": { "type": "Point", "coordinates": [ -73.868819, 40.761513 ] } },
{ "type": "Feature", "properties": { "resource_id": "facdb:9e02b438a0a91846dbe0513c5f4d2d1d", "name": "Planeview Park", "category": "parks-and-environment", "source": "facdb", "is_coad_member": false }, "geometry": { "type": "Point", "coordinates": [ -73.884392, 40.767327 ] } },
{ "type": "Feature", "properties": { "resource_id": "facdb:9efd176e702aaf9176cdc4f559b944be", "name": "Lexington Center for Mental Health Services Inc", "category": "mental-health-and-recovery", "source": "facdb", "is_coad_member": false }, "geometry": { "type": "Point", "coordinates": [ -73.89374, 40.761293 ] } },
{ "type": "Feature", "properties": { "resource_id": "facdb:a0cc2e36e917514fcd15540fc6aa247a", "name": "Excel Career Training School Inc", "category": "education-and-jobs", "source": "facdb", "is_coad_member": false }, "geometry": { "type": "Point", "coordinates": [ -73.874137, 40.758229 ] } },
{ "type": "Feature", "properties": { "resource_id": "facdb:a290643b419abd702d3327e0fd6643ce", "name": "115th Police Precinct", "category": "emergency-services", "source": "facdb", "is_coad_member": false }, "geometry": { "type": "Point", "coordinates": [ -73.875655, 40.756853 ] } },
{ "type": "Feature", "properties": { "resource_id": "facdb:a2a753edf93e0f99d570d79da0524285", "name": "Metropolis Ensemble, Inc.", "category": "libraries-and-community", "source": "facdb", "is_coad_member": false }, "geometry": { "type": "Point", "coordinates": [ -73.882771, 40.752913 ] } },
{ "type": "Feature", "properties": { "resource_id": "facdb:a2ae165a95fb954640155a1e784bf745", "name": "YMCA of Greater New York", "category": "children-and-youth", "source": "facdb", "is_coad_member": false }, "geometry": { "type": "Point", "coordinates": [ -73.874882, 40.756944 ] } },
{ "type": "Feature", "properties": { "resource_id": "facdb:a2c058e82d6711f392725aea6c3ce77a", "name": "Catholic Charities Neighborhood Services Inc", "category": "education-and-jobs", "source": "facdb", "is_coad_member": false }, "geometry": { "type": "Point", "coordinates": [ -73.88395, 40.751476 ] } },
{ "type": "Feature", "properties": { "resource_id": "facdb:a4a10e42faa2ea0a0ba37d7d280b1ae2", "name": "Elmcor Youth and Adult Activities, Inc. #2 : Elmcor Youth & Adult Activities Inc.", "category": "food-assistance", "source": "facdb", "is_coad_member": false }, "geometry": { "type": "Point", "coordinates": [ -73.861236, 40.75758 ] } },
{ "type": "Feature", "properties": { "resource_id": "facdb:a5406feef00baebefd201bb782d068e7", "name": "Armstrong, Louis, House", "category": "parks-and-environment", "source": "facdb", "is_coad_member": false }, "geometry": { "type": "Point", "coordinates": [ -73.861597, 40.754574 ] } },
{ "type": "Feature", "properties": { "resource_id": "facdb:a54f5a4e04174d0ef090914fae3cfa62", "name": "St. Mark AME Church : the Voices of Hagar", "category": "food-assistance", "source": "facdb", "is_coad_member": false }, "geometry": { "type": "Point", "coordinates": [ -73.872407, 40.756613 ] } },
{ "type": "Feature", "properties": { "resource_id": "facdb:a662bfcf83bcaa6906faa40d0c5a2d11", "name": "Louis Armstrong Playground", "category": "parks-and-environment", "source": "facdb", "is_coad_member": false }, "geometry": { "type": "Point", "coordinates": [ -73.855964, 40.755809 ] } },
{ "type": "Feature", "properties": { "resource_id": "facdb:a9bfd26ebf21ec92db0a044b754878ae", "name": "Regal Heights Rehabilitation and Health Care Center", "category": "health-care", "source": "facdb", "is_coad_member": false }, "geometry": { "type": "Point", "coordinates": [ -73.895437, 40.750956 ] } },
{ "type": "Feature", "properties": { "resource_id": "facdb:aac228ca754138338e855489cb94bec5", "name": "Langston Hughes", "category": "libraries-and-community", "source": "facdb", "is_coad_member": false }, "geometry": { "type": "Point", "coordinates": [ -73.86814, 40.75764 ] } },
{ "type": "Feature", "properties": { "resource_id": "facdb:ac85497453c93d0381463ec53950a15e", "name": "J. Pulitzer Intermediate School - Sbmh", "category": "mental-health-and-recovery", "source": "facdb", "is_coad_member": false }, "geometry": { "type": "Point", "coordinates": [ -73.887425, 40.754271 ] } },
{ "type": "Feature", "properties": { "resource_id": "facdb:ad3715cee62ed476f8836f73c53af3c8", "name": "Ps/Is 127", "category": "children-and-youth", "source": "facdb", "is_coad_member": false }, "geometry": { "type": "Point", "coordinates": [ -73.871389, 40.765088 ] } },
{ "type": "Feature", "properties": { "resource_id": "facdb:ad7820b675220f2b969261d6e1e4b20f", "name": "Northern Playground", "category": "parks-and-environment", "source": "facdb", "is_coad_member": false }, "geometry": { "type": "Point", "coordinates": [ -73.874428, 40.755291 ] } },
{ "type": "Feature", "properties": { "resource_id": "facdb:ae3a2ae8b3e6d069b3a513e654c14d26", "name": "Ballet Folklorico Mexicano de Nueva York", "category": "libraries-and-community", "source": "facdb", "is_coad_member": false }, "geometry": { "type": "Point", "coordinates": [ -73.886156, 40.76389 ] } },
{ "type": "Feature", "properties": { "resource_id": "facdb:af4223ee36a7fb0808424622809c2fa4", "name": "C & T Medical", "category": "health-care", "source": "facdb", "is_coad_member": false }, "geometry": { "type": "Point", "coordinates": [ -73.891324, 40.749249 ] } },
{ "type": "Feature", "properties": { "resource_id": "facdb:b5ebc3a3411e088dbd87afe65148c4d0", "name": "Elmcor-Todays Champions", "category": "children-and-youth", "source": "facdb", "is_coad_member": false }, "geometry": { "type": "Point", "coordinates": [ -73.861359, 40.757274 ] } },
{ "type": "Feature", "properties": { "resource_id": "facdb:b618e03579c2b72b8ace2f39d9ce0671", "name": "A Childs Place", "category": "children-and-youth", "source": "facdb", "is_coad_member": false }, "geometry": { "type": "Point", "coordinates": [ -73.861245, 40.758127 ] } },
{ "type": "Feature", "properties": { "resource_id": "facdb:b75b289b1d567c37aff784d71921e24c", "name": "Queens - Make the Road NY", "category": "immigration-and-language", "source": "facdb", "is_coad_member": false }, "geometry": { "type": "Point", "coordinates": [ -73.861162, 40.750291 ] } },
{ "type": "Feature", "properties": { "resource_id": "facdb:b7e0a2d91e6559bf0ed28f1c1e564048", "name": "Ccns Corona Pros", "category": "mental-health-and-recovery", "source": "facdb", "is_coad_member": false }, "geometry": { "type": "Point", "coordinates": [ -73.875361, 40.75051 ] } },
{ "type": "Feature", "properties": { "resource_id": "facdb:b858300b23892b2dea8587c8a93fd0f2", "name": "Educational Data Systems Inc", "category": "education-and-jobs", "source": "facdb", "is_coad_member": false }, "geometry": { "type": "Point", "coordinates": [ -73.891324, 40.749249 ] } },
{ "type": "Feature", "properties": { "resource_id": "facdb:b979c19ec0e7a390e9811300301be757", "name": "Junction Boulevard Child Health Clinic", "category": "health-care", "source": "facdb", "is_coad_member": false }, "geometry": { "type": "Point", "coordinates": [ -73.871968, 40.754211 ] } },
{ "type": "Feature", "properties": { "resource_id": "facdb:ba018636a73d5217b513cbea91067641", "name": "Corona SDA Church Vbs", "category": "children-and-youth", "source": "facdb", "is_coad_member": false }, "geometry": { "type": "Point", "coordinates": [ -73.865003, 40.753803 ] } },
{ "type": "Feature", "properties": { "resource_id": "facdb:bbdaecade2288caed657f97b765bad71", "name": "Laguardia Family Residence Win", "category": "children-and-youth", "source": "facdb", "is_coad_member": false }, "geometry": { "type": "Point", "coordinates": [ -73.868226, 40.768355 ] } },
{ "type": "Feature", "properties": { "resource_id": "facdb:c18d839498dc3af0900202dae69c1ecc", "name": "Jackson Heights", "category": "libraries-and-community", "source": "facdb", "is_coad_member": false }, "geometry": { "type": "Point", "coordinates": [ -73.88507, 40.75021 ] } },
{ "type": "Feature", "properties": { "resource_id": "facdb:c1f7d84c9d2765cf7c5931e8db4a8582", "name": "Coalition for Hispanic Family Services", "category": "children-and-youth", "source": "facdb", "is_coad_member": false }, "geometry": { "type": "Point", "coordinates": [ -73.868685, 40.756019 ] } },
{ "type": "Feature", "properties": { "resource_id": "facdb:c2b12dcb03b2cbad61d371dfa24a0e5c", "name": "Laguardia Landing Lights", "category": "parks-and-environment", "source": "facdb", "is_coad_member": false }, "geometry": { "type": "Point", "coordinates": [ -73.889879, 40.762327 ] } },
{ "type": "Feature", "properties": { "resource_id": "facdb:c321a14903c2d656bc43f5ca1d4330f9", "name": "Mobile Pantry @ Travers Park : Mobile Pantry @ Travers Park", "category": "food-assistance", "source": "facdb", "is_coad_member": false }, "geometry": { "type": "Point", "coordinates": [ -73.890199, 40.753472 ] } },
{ "type": "Feature", "properties": { "resource_id": "facdb:c84bb794ee14bd34d91f2b9cf98652ae", "name": "Roberta Wells Conservatory of Arts & Learning, Inc.", "category": "libraries-and-community", "source": "facdb", "is_coad_member": false }, "geometry": { "type": "Point", "coordinates": [ -73.87092, 40.76548 ] } },
{ "type": "Feature", "properties": { "resource_id": "facdb:c8658deac14fa47eb034e7c9e33c8c1b", "name": "Engine 316", "category": "emergency-services", "source": "facdb", "is_coad_member": false }, "geometry": { "type": "Point", "coordinates": [ -73.869098, 40.762357 ] } },
{ "type": "Feature", "properties": { "resource_id": "facdb:c943c83ef4c0c96450298ee2ca904c59", "name": "Assured Care Home Health, LLC", "category": "health-care", "source": "facdb", "is_coad_member": false }, "geometry": { "type": "Point", "coordinates": [ -73.870549, 40.769848 ] } },
{ "type": "Feature", "properties": { "resource_id": "facdb:ca72bb24ff11f3919efac5b294b25527", "name": "Queens Library-Jackson Heights", "category": "children-and-youth", "source": "facdb", "is_coad_member": false }, "geometry": { "type": "Point", "coordinates": [ -73.88507, 40.75021 ] } },
{ "type": "Feature", "properties": { "resource_id": "facdb:cca4d1c85e31d7493408563b3bcf5503", "name": "City Year After School", "category": "children-and-youth", "source": "facdb", "is_coad_member": false }, "geometry": { "type": "Point", "coordinates": [ -73.874428, 40.755291 ] } },
{ "type": "Feature", "properties": { "resource_id": "facdb:d07cfb4c6226d1a77ee9ef613ee9cb8a", "name": "Renaissance Charter School", "category": "children-and-youth", "source": "facdb", "is_coad_member": false }, "geometry": { "type": "Point", "coordinates": [ -73.884827, 40.749936 ] } },
{ "type": "Feature", "properties": { "resource_id": "facdb:d0d1d1b59a9747a230fd2f246875f257", "name": "Usda-Ceo P811Q at PS 222Q", "category": "children-and-youth", "source": "facdb", "is_coad_member": false }, "geometry": { "type": "Point", "coordinates": [ -73.879993, 40.750451 ] } },
{ "type": "Feature", "properties": { "resource_id": "facdb:d20ee61dba66bf9f2e5fc31742d5ca6b", "name": "Queens Library-Corona", "category": "children-and-youth", "source": "facdb", "is_coad_member": false }, "geometry": { "type": "Point", "coordinates": [ -73.861982, 40.750899 ] } },
{ "type": "Feature", "properties": { "resource_id": "facdb:d6becdf6486bae3e3a7a100e0738abde", "name": "Queens Library-East Elmhurst", "category": "children-and-youth", "source": "facdb", "is_coad_member": false }, "geometry": { "type": "Point", "coordinates": [ -73.873873, 40.762426 ] } },
{ "type": "Feature", "properties": { "resource_id": "facdb:dc00027397d95624627b855e87f41d56", "name": "Florence E. Smith Senior Service", "category": "older-adults", "source": "facdb", "is_coad_member": false }, "geometry": { "type": "Point", "coordinates": [ -73.865705, 40.756042 ] } },
{ "type": "Feature", "properties": { "resource_id": "facdb:dd2459d99221cc43793491711bd85bb3", "name": "Louis Armstrong Community Center", "category": "parks-and-environment", "source": "facdb", "is_coad_member": false }, "geometry": { "type": "Point", "coordinates": [ -73.861359, 40.757274 ] } },
{ "type": "Feature", "properties": { "resource_id": "facdb:dde667bab7492d0fe3c5ed5c8c7d5872", "name": "The Ecuadorian Civic Committee of New York Inc", "category": "children-and-youth", "source": "facdb", "is_coad_member": false }, "geometry": { "type": "Point", "coordinates": [ -73.869055, 40.749378 ] } },
{ "type": "Feature", "properties": { "resource_id": "facdb:e19506cec95838536e31d08fc4f96c99", "name": "Main Street Radiology at Bayside LLC", "category": "health-care", "source": "facdb", "is_coad_member": false }, "geometry": { "type": "Point", "coordinates": [ -73.894315, 40.754277 ] } },
{ "type": "Feature", "properties": { "resource_id": "facdb:e3803c4235e72824757087667472ff8f", "name": "Salvation Army", "category": "libraries-and-community", "source": "facdb", "is_coad_member": false }, "geometry": { "type": "Point", "coordinates": [ -73.880667, 40.752456 ] } },
{ "type": "Feature", "properties": { "resource_id": "facdb:e3b10600dcae6228e3c8be29b13ad028", "name": "Grand Central Parkway Extension", "category": "parks-and-environment", "source": "facdb", "is_coad_member": false }, "geometry": { "type": "Point", "coordinates": [ -73.855371, 40.756808 ] } },
{ "type": "Feature", "properties": { "resource_id": "facdb:e5e376f1fe708c323edf8680d421b7f9", "name": "Helen Marshall Playground", "category": "parks-and-environment", "source": "facdb", "is_coad_member": false }, "geometry": { "type": "Point", "coordinates": [ -73.871389, 40.765088 ] } },
{ "type": "Feature", "properties": { "resource_id": "facdb:e6b02b748c63c9b90bb4d289d00394e8", "name": "Renaissance Charter School", "category": "children-and-youth", "source": "facdb", "is_coad_member": false }, "geometry": { "type": "Point", "coordinates": [ -73.884827, 40.749936 ] } },
{ "type": "Feature", "properties": { "resource_id": "facdb:e6c10497a6186d1922c08eea61531f4a", "name": "Travers Park", "category": "parks-and-environment", "source": "facdb", "is_coad_member": false }, "geometry": { "type": "Point", "coordinates": [ -73.889478, 40.754374 ] } },
{ "type": "Feature", "properties": { "resource_id": "facdb:e735e8e9b503e497eafca2573878bd9d", "name": "Elmcor-Core Peer Support", "category": "mental-health-and-recovery", "source": "facdb", "is_coad_member": false }, "geometry": { "type": "Point", "coordinates": [ -73.86129, 40.75781 ] } },
{ "type": "Feature", "properties": { "resource_id": "facdb:e79e0bcf2744374a041e0580e4033f8b", "name": "Liberated Movement, Inc.", "category": "libraries-and-community", "source": "facdb", "is_coad_member": false }, "geometry": { "type": "Point", "coordinates": [ -73.880044, 40.754543 ] } },
{ "type": "Feature", "properties": { "resource_id": "facdb:e81eb0d6793c3626f1eb9dee8e0d3cc4", "name": "O'Sullivan Plaza", "category": "parks-and-environment", "source": "facdb", "is_coad_member": false }, "geometry": { "type": "Point", "coordinates": [ -73.88101, 40.763736 ] } },
{ "type": "Feature", "properties": { "resource_id": "facdb:e9d11a49ac8b7974d5d4526b99c1efac", "name": "Gorman Playground", "category": "parks-and-environment", "source": "facdb", "is_coad_member": false }, "geometry": { "type": "Point", "coordinates": [ -73.884157, 40.761939 ] } },
{ "type": "Feature", "properties": { "resource_id": "facdb:eab7b9e97d0b5f8a251fb91fdad9d173", "name": "Helen Keller International", "category": "children-and-youth", "source": "facdb", "is_coad_member": false }, "geometry": { "type": "Point", "coordinates": [ -73.887425, 40.754271 ] } },
{ "type": "Feature", "properties": { "resource_id": "facdb:ec6bb43dc734c72a2a4aed2d60a889b5", "name": "Calpulli Mexican Dance Company, Inc.", "category": "libraries-and-community", "source": "facdb", "is_coad_member": false }, "geometry": { "type": "Point", "coordinates": [ -73.891565, 40.762125 ] } },
{ "type": "Feature", "properties": { "resource_id": "facdb:ed09bdd1247a5d35e86495ecd52bf949", "name": "82nd Street Academics", "category": "children-and-youth", "source": "facdb", "is_coad_member": false }, "geometry": { "type": "Point", "coordinates": [ -73.884827, 40.749936 ] } },
{ "type": "Feature", "properties": { "resource_id": "facdb:ed47d8fe72972f9e067d221ec261918e", "name": "Chhaya Community Development Corporation", "category": "libraries-and-community", "source": "facdb", "is_coad_member": false }, "geometry": { "type": "Point", "coordinates": [ -73.888584, 40.747976 ] } },
{ "type": "Feature", "properties": { "resource_id": "facdb:efe835ef7ae638446973a3ca05fef75f", "name": "Ccns Corona Behavioral Health Center", "category": "mental-health-and-recovery", "source": "facdb", "is_coad_member": false }, "geometry": { "type": "Point", "coordinates": [ -73.875361, 40.75051 ] } },
{ "type": "Feature", "properties": { "resource_id": "facdb:f06fb5f76ddf9833f3a1a00a6c6c3d1d", "name": "Correction Headquarters", "category": "government-offices", "source": "facdb", "is_coad_member": false }, "geometry": { "type": "Point", "coordinates": [ -73.893244, 40.764136 ] } },
{ "type": "Feature", "properties": { "resource_id": "facdb:f12926b8252990d7719057a9883e8c02", "name": "Lexington Center for Mental Health Services Inc.", "category": "mental-health-and-recovery", "source": "facdb", "is_coad_member": false }, "geometry": { "type": "Point", "coordinates": [ -73.89374, 40.761293 ] } },
{ "type": "Feature", "properties": { "resource_id": "facdb:f649ce8272d77c45e96b1d7275509392", "name": "Jackson Heights Health Center", "category": "health-care", "source": "facdb", "is_coad_member": false }, "geometry": { "type": "Point", "coordinates": [ -73.884064, 40.750022 ] } },
{ "type": "Feature", "properties": { "resource_id": "facdb:f99c79d881bd3cf930afac51803a44fb", "name": "Queens Community House, Inc.", "category": "children-and-youth", "source": "facdb", "is_coad_member": false }, "geometry": { "type": "Point", "coordinates": [ -73.874428, 40.755291 ] } },
{ "type": "Feature", "properties": { "resource_id": "facdb:fa17471caccfdac806fe330ac0445d15", "name": "We Build the Block", "category": "children-and-youth", "source": "facdb", "is_coad_member": false }, "geometry": { "type": "Point", "coordinates": [ -73.886624, 40.753329 ] } },
{ "type": "Feature", "properties": { "resource_id": "facdb:fac5160e52a4be9931615e39cd5731b9", "name": "New York Junior Tennis League Inc", "category": "children-and-youth", "source": "facdb", "is_coad_member": false }, "geometry": { "type": "Point", "coordinates": [ -73.878697, 40.757979 ] } },
{ "type": "Feature", "properties": { "resource_id": "facdb:fad8deaea7d557c1e0d946df42ffb9cb", "name": "Renaissance Charter School", "category": "children-and-youth", "source": "facdb", "is_coad_member": false }, "geometry": { "type": "Point", "coordinates": [ -73.884827, 40.749936 ] } },
{ "type": "Feature", "properties": { "resource_id": "facdb:fb29b162c51122859079a57b4e240701", "name": "Mt. Olivet Gospel Church : Mt. Olivet Gospel Church Food Pantry", "category": "food-assistance", "source": "facdb", "is_coad_member": false }, "geometry": { "type": "Point", "coordinates": [ -73.870847, 40.756154 ] } },
{ "type": "Feature", "properties": { "resource_id": "facdb:fbaf307d842c4283d67c0fe4ac6303c6", "name": "Hungarian Theatre & Art Association Inc.", "category": "libraries-and-community", "source": "facdb", "is_coad_member": false }, "geometry": { "type": "Point", "coordinates": [ -73.877759, 40.757981 ] } },
{ "type": "Feature", "properties": { "resource_id": "facdb:fbc481b6648b8f175910c835dc78cc51", "name": "Travers Park", "category": "children-and-youth", "source": "facdb", "is_coad_member": false }, "geometry": { "type": "Point", "coordinates": [ -73.87575, 40.754755 ] } },
{ "type": "Feature", "properties": { "resource_id": "facdb:fc24931a48fb94cd8d726056c69e1fa3", "name": "Salvation Army : the Salvation Army - Templo de Queens", "category": "food-assistance", "source": "facdb", "is_coad_member": false }, "geometry": { "type": "Point", "coordinates": [ -73.880667, 40.752456 ] } },
{ "type": "Feature", "properties": { "resource_id": "facdb:fca99f434d889a1b71cce299d1b0bcc6", "name": "P.S. 127 Aerospace Science Magnet School", "category": "children-and-youth", "source": "facdb", "is_coad_member": false }, "geometry": { "type": "Point", "coordinates": [ -73.871389, 40.765088 ] } },
{ "type": "Feature", "properties": { "resource_id": "qnpd:34th-avenue-open-streets-coalition", "name": "34th Avenue Open Streets Coalition", "category": "libraries-and-community", "source": "qnpd", "is_coad_member": false }, "geometry": { "type": "Point", "coordinates": [ -73.877398, 40.752017 ] } },
{ "type": "Feature", "properties": { "resource_id": "qnpd:brigada-de-esperanza-inc", "name": "Brigada de Esperanza Inc", "category": "food-assistance", "source": "qnpd", "is_coad_member": false }, "geometry": { "type": "Point", "coordinates": [ -73.879756, 40.764046 ] } },
{ "type": "Feature", "properties": { "resource_id": "qnpd:cayena-press-inc", "name": "Cayena Press, Inc.", "category": "libraries-and-community", "source": "qnpd", "is_coad_member": false }, "geometry": { "type": "Point", "coordinates": [ -73.876291, 40.761664 ] } },
{ "type": "Feature", "properties": { "resource_id": "qnpd:chhaya-community-development-corporation--1", "name": "Chhaya Community Development Corporation", "category": "government-offices", "source": "qnpd", "is_coad_member": false }, "geometry": { "type": "Point", "coordinates": [ -73.888584, 40.747976 ] } },
{ "type": "Feature", "properties": { "resource_id": "qnpd:chhaya-community-development-corporation--2", "name": "Chhaya Community Development Corporation", "category": "benefits-and-legal", "source": "qnpd", "is_coad_member": false }, "geometry": { "type": "Point", "coordinates": [ -73.888584, 40.747976 ] } },
{ "type": "Feature", "properties": { "resource_id": "qnpd:chhaya-community-development-corporation--3", "name": "Chhaya Community Development Corporation", "category": "housing-and-shelter", "source": "qnpd", "is_coad_member": false }, "geometry": { "type": "Point", "coordinates": [ -73.888584, 40.747976 ] } },
{ "type": "Feature", "properties": { "resource_id": "qnpd:fluent-futures", "name": "Fluent Futures", "category": "education-and-jobs", "source": "qnpd", "is_coad_member": false }, "geometry": { "type": "Point", "coordinates": [ -73.886052, 40.751905 ] } },
{ "type": "Feature", "properties": { "resource_id": "qnpd:nauw-flushing-north-shore", "name": "NAUW-Flushing North Shore", "category": "government-offices", "source": "qnpd", "is_coad_member": false }, "geometry": { "type": "Point", "coordinates": [ -73.874882, 40.756944 ] } },
{ "type": "Feature", "properties": { "resource_id": "qnpd:queens-world-film-festival", "name": "Queens World Film Festival", "category": "libraries-and-community", "source": "qnpd", "is_coad_member": false }, "geometry": { "type": "Point", "coordinates": [ -73.891684, 40.751312 ] } },
{ "type": "Feature", "properties": { "resource_id": "qnpd:the-connected-chef-foundation-inc", "name": "The Connected Chef Foundation, Inc.", "category": "food-assistance", "source": "qnpd", "is_coad_member": false }, "geometry": { "type": "Point", "coordinates": [ -73.892081, 40.757505 ] } },
{ "type": "Feature", "properties": { "resource_id": "qnpd:together-we-can-family-youth-peer-support-services", "name": "Together We Can/Family Youth Peer Support Services", "category": "benefits-and-legal", "source": "qnpd", "is_coad_member": false }, "geometry": { "type": "Point", "coordinates": [ -73.862558, 40.752798 ] } }
]
}
