{
"type": "FeatureCollection",
"name": "q04",
"features": [
{ "type": "Feature", "properties": { "resource_id": "facdb:006d4995c302e75b925dc061e6b41de6", "name": "PS 14 Annex", "category": "children-and-youth", "source": "facdb", "is_coad_member": false }, "geometry": { "type": "Point", "coordinates": [ -73.876708, 40.742735 ] } },
{ "type": "Feature", "properties": { "resource_id": "facdb:047eda58d1b7ef0fdc8ee816f6667d43", "name": "Spanish Speaking Elderly Council Raices Inc.", "category": "older-adults", "source": "facdb", "is_coad_member": false }, "geometry": { "type": "Point", "coordinates": [ -73.855453, 40.743293 ] } },
{ "type": "Feature", "properties": { "resource_id": "facdb:0706ace4d7fd5adf5746b5ac69545029", "name": "Asian Americans for Equality Inc", "category": "immigration-and-language", "source": "facdb", "is_coad_member": false }, "geometry": { "type": "Point", "coordinates": [ -73.874023, 40.748429 ] } },
{ "type": "Feature", "properties": { "resource_id": "facdb:07a9100a180904fa6854bb8be4cb6fd2", "name": "First Presbyterian Church of Newtown", "category": "parks-and-environment", "source": "facdb", "is_coad_member": false }, "geometry": { "type": "Point", "coordinates": [ -73.877086, 40.735582 ] } },
{ "type": "Feature", "properties": { "resource_id": "facdb:099180b50f6ef8ff01f84c0e26fefc2d", "name": "Sitting Area", "category": "parks-and-environment", "source": "facdb", "is_coad_member": false }, "geometry": { "type": "Point", "coordinates": [ -73.886983, 40.728491 ] } },
{ "type": "Feature", "properties": { "resource_id": "facdb:0bcd95070b817a6102a4d50e73e46e52", "name": "NYC Business Solutions Industrial and Transportation - Queens", "category": "education-and-jobs", "source": "facdb", "is_coad_member": false }, "geometry": { "type": "Point", "coordinates": [ -73.868468, 40.748714 ] } },
{ "type": "Feature", "properties": { "resource_id": "facdb:0c29d1059cb5d7b06a8e0401c32cc8a4", "name": "Manuel de Dios Unanue Triangle", "category": "parks-and-environment", "source": "facdb", "is_coad_member": false }, "geometry": { "type": "Point", "coordinates": [ -73.882806, 40.747595 ] } },
{ "type": "Feature", "properties": { "resource_id": "facdb:0ca26c210ed243b24817c406f4f6c780", "name": "Queens Borough Public Library", "category": "immigration-and-language", "source": "facdb", "is_coad_member": false }, "geometry": { "type": "Point", "coordinates": [ -73.861573, 40.737441 ] } },
{ "type": "Feature", "properties": { "resource_id": "facdb:0e115ae79f6d5382209f3e63bc05ad2c", "name": "Castle Senior Living at Forest Hills", "category": "health-care", "source": "facdb", "is_coad_member": false }, "geometry": { "type": "Point", "coordinates": [ -73.851472, 40.738472 ] } },
{ "type": "Feature", "properties": { "resource_id": "facdb:0e66c1bb44cba0604f9c2486fb7de7d1", "name": "Make the Road", "category": "children-and-youth", "source": "facdb", "is_coad_member": false }, "geometry": { "type": "Point", "coordinates": [ -73.874023, 40.748429 ] } },
{ "type": "Feature", "properties": { "resource_id": "facdb:0f202b332c7afb0cf04af43f035594be", "name": "Elmhurst Partial Hospitalization Program", "category": "mental-health-and-recovery", "source": "facdb", "is_coad_member": false }, "geometry": { "type": "Point", "coordinates": [ -73.88567, 40.745088 ] } },
{ "type": "Feature", "properties": { "resource_id": "facdb:0f4646aac32c322f99c4012a502fc9d1", "name": "NYPD 110th Precinct Station House", "category": "emergency-services", "source": "facdb", "is_coad_member": false }, "geometry": { "type": "Point", "coordinates": [ -73.870076, 40.745237 ] } },
{ "type": "Feature", "properties": { "resource_id": "facdb:14a0564bba34f1469b638218a427bd27", "name": "Long Island Consultation Center", "category": "mental-health-and-recovery", "source": "facdb", "is_coad_member": false }, "geometry": { "type": "Point", "coordinates": [ -73.869345, 40.733671 ] } },
{ "type": "Feature", "properties": { "resource_id": "facdb:14db4f6793f2138e0088b568071a8ec7", "name": "Foundation for Filipino Artists (2)", "category": "children-and-youth", "source": "facdb", "is_coad_member": false }, "geometry": { "type": "Point", "coordinates": [ -73.878096, 40.734327 ] } },
{ "type": "Feature", "properties": { "resource_id": "facdb:166c823a5db5dd3795fd965d27e2f8d6", "name": "The Child Center of NY Inc", "category": "mental-health-and-recovery", "source": "facdb", "is_coad_member": false }, "geometry": { "type": "Point", "coordinates": [ -73.881773, 40.737188 ] } },
{ "type": "Feature", "properties": { "resource_id": "facdb:1abb9cf34b5bf96baaa665fdc2012568", "name": "South Asain Youth Action", "category": "children-and-youth", "source": "facdb", "is_coad_member": false }, "geometry": { "type": "Point", "coordinates": [ -73.8771, 40.735547 ] } },
{ "type": "Feature", "properties": { "resource_id": "facdb:1b11d37d84a9009f2f13f7fa2e3951ae", "name": "Zoni Lang Ctr", "category": "education-and-jobs", "source": "facdb", "is_coad_member": false }, "geometry": { "type": "Point", "coordinates": [ -73.884128, 40.747153 ] } },
{ "type": "Feature", "properties": { "resource_id": "facdb:1bdf3460e828902ce36ef167c3b2d9f3", "name": "Park", "category": "parks-and-environment", "source": "facdb", "is_coad_member": false }, "geometry": { "type": "Point", "coordinates": [ -73.874974, 40.731022 ] } },
{ "type": "Feature", "properties": { "resource_id": "facdb:1be249a737e92a67855e588f65686575", "name": "Park", "category": "parks-and-environment", "source": "facdb", "is_coad_member": false }, "geometry": { "type": "Point", "coordinates": [ -73.867806, 40.733985 ] } },
{ "type": "Feature", "properties": { "resource_id": "facdb:1c2788b6d0856e0b063f45b9f82d95f3", "name": "PS 19 Marino Jeantet Annex", "category": "children-and-youth", "source": "facdb", "is_coad_member": false }, "geometry": { "type": "Point", "coordinates": [ -73.866797, 40.745629 ] } },
{ "type": "Feature", "properties": { "resource_id": "facdb:1e08f1dff5c4175bc83cfd227fb494c2", "name": "Reformed Church of Newtown Complex", "category": "parks-and-environment", "source": "facdb", "is_coad_member": false }, "geometry": { "type": "Point", "coordinates": [ -73.877384, 40.739286 ] } },
{ "type": "Feature", "properties": { "resource_id": "facdb:1e7c451bd78acbd04c29a471ea2a7779", "name": "Corona Arts & Sciences Academy", "category": "children-and-youth", "source": "facdb", "is_coad_member": false }, "geometry": { "type": "Point", "coordinates": [ -73.865135, 40.745964 ] } },
{ "type": "Feature", "properties": { "resource_id": "facdb:1f17b4b53c757e1040669f59bc11bcd9", "name": "Corona Plaza", "category": "parks-and-environment", "source": "facdb", "is_coad_member": false }, "geometry": { "type": "Point", "coordinates": [ -73.862288, 40.74969 ] } },
{ "type": "Feature", "properties": { "resource_id": "facdb:1f99de1e8d41ef5074ca37cc50efce45", "name": "Elmhurst Day Care", "category": "children-and-youth", "source": "facdb", "is_coad_member": false }, "geometry": { "type": "Point", "coordinates": [ -73.875829, 40.746505 ] } },
{ "type": "Feature", "properties": { "resource_id": "facdb:262a5423b95c47a4dc3a249ad7c990e1", "name": "New York City Parents of Lesbians and Gay Men Inc", "category": "children-and-youth", "source": "facdb", "is_coad_member": false }, "geometry": { "type": "Point", "coordinates": [ -73.877921, 40.739964 ] } },
{ "type": "Feature", "properties": { "resource_id": "facdb:266074d26ffeba19ff5ddbd4c79742a9", "name": "PS 19 Annex", "category": "children-and-youth", "source": "facdb", "is_coad_member": false }, "geometry": { "type": "Point", "coordinates": [ -73.878626, 40.735885 ] } },
{ "type": "Feature", "properties": { "resource_id": "facdb:26bd88d7c99aa7fd51709f4eaacaccc8", "name": "Corona Christian Academy", "category": "children-and-youth", "source": "facdb", "is_coad_member": false }, "geometry": { "type": "Point", "coordinates": [ -73.859657, 40.738756 ] } },
{ "type": "Feature", "properties": { "resource_id": "facdb:26ed24c4eabcd83bb37d831015421039", "name": "Elmhurst Park", "category": "parks-and-environment", "source": "facdb", "is_coad_member": false }, "geometry": { "type": "Point", "coordinates": [ -73.885249, 40.728943 ] } },
{ "type": "Feature", "properties": { "resource_id": "facdb:26f2d00904ba5cf38219b8a1e95591bd", "name": "Sunnyside Community Services Inc", "category": "children-and-youth", "source": "facdb", "is_coad_member": false }, "geometry": { "type": "Point", "coordinates": [ -73.866777, 40.749069 ] } },
{ "type": "Feature", "properties": { "resource_id": "facdb:2a8f5ceeca00efd100757ecff06ed4a5", "name": "Pre-K Center at 57-08 99th Street", "category": "children-and-youth", "source": "facdb", "is_coad_member": false }, "geometry": { "type": "Point", "coordinates": [ -73.85996, 40.737456 ] } },
{ "type": "Feature", "properties": { "resource_id": "facdb:2ae21420c0ab2f6f0f604709a6e3b2c9", "name": "Samuel Field YM & YWHA, Inc.", "category": "children-and-youth", "source": "facdb", "is_coad_member": false }, "geometry": { "type": "Point", "coordinates": [ -73.886468, 40.738922 ] } },
{ "type": "Feature", "properties": { "resource_id": "facdb:2bddadd3c5308ba1683272032bb6b8be", "name": "Elmhurst Hospital Center - Hbci", "category": "mental-health-and-recovery", "source": "facdb", "is_coad_member": false }, "geometry": { "type": "Point", "coordinates": [ -73.88567, 40.745088 ] } },
{ "type": "Feature", "properties": { "resource_id": "facdb:2ec6bceed8f0108184c1551f887f4053", "name": "P.S. 89 Elmhurst", "category": "children-and-youth", "source": "facdb", "is_coad_member": false }, "geometry": { "type": "Point", "coordinates": [ -73.879601, 40.745959 ] } },
{ "type": "Feature", "properties": { "resource_id": "facdb:30605af89b6bc2b44097e50a38a2d8a8", "name": "Liaison & Consultation Unit", "category": "mental-health-and-recovery", "source": "facdb", "is_coad_member": false }, "geometry": { "type": "Point", "coordinates": [ -73.88567, 40.745088 ] } },
{ "type": "Feature", "properties": { "resource_id": "facdb:321d2e5f1fcbf7c27c534b1a54a71ac9", "name": "New York Junior Tennis League Inc", "category": "children-and-youth", "source": "facdb", "is_coad_member": false }, "geometry": { "type": "Point", "coordinates": [ -73.862703, 40.742134 ] } },
{ "type": "Feature", "properties": { "resource_id": "facdb:34165ebd3aa841b130cbe60db14027e8", "name": "Community Csoc : Community Ccso", "category": "food-assistance", "source": "facdb", "is_coad_member": false }, "geometry": { "type": "Point", "coordinates": [ -73.870742, 40.742679 ] } },
{ "type": "Feature", "properties": { "resource_id": "facdb:345db6a06ecf38a0fdabec83de627a86", "name": "PS 19 Marino Jeantet (24Q019)", "category": "children-and-youth", "source": "facdb", "is_coad_member": false }, "geometry": { "type": "Point", "coordinates": [ -73.866777, 40.749069 ] } },
{ "type": "Feature", "properties": { "resource_id": "facdb:34d4ae4ddb8151e625f64c6a03e09fb9", "name": "Samuel Field YM & YWHA, Inc. Dba Commonpoint Queens", "category": "children-and-youth", "source": "facdb", "is_coad_member": false }, "geometry": { "type": "Point", "coordinates": [ -73.886468, 40.738922 ] } },
{ "type": "Feature", "properties": { "resource_id": "facdb:3619734469d95c6da948591012c04347", "name": "Helen Keller International", "category": "children-and-youth", "source": "facdb", "is_coad_member": false }, "geometry": { "type": "Point", "coordinates": [ -73.862703, 40.742134 ] } },
{ "type": "Feature", "properties": { "resource_id": "facdb:36199c12b6038af657752f0c81f5e3b3", "name": "Broadway Inc", "category": "children-and-youth", "source": "facdb", "is_coad_member": false }, "geometry": { "type": "Point", "coordinates": [ -73.888094, 40.746941 ] } },
{ "type": "Feature", "properties": { "resource_id": "facdb:36a1236d97fc56085e15580505bda27d", "name": "NY Tibetan Service Center", "category": "children-and-youth", "source": "facdb", "is_coad_member": false }, "geometry": { "type": "Point", "coordinates": [ -73.88759, 40.739273 ] } },
{ "type": "Feature", "properties": { "resource_id": "facdb:3735983b7e0aba8cf3729d397c735a72", "name": "Elmhurst Hospital Center", "category": "health-care", "source": "facdb", "is_coad_member": false }, "geometry": { "type": "Point", "coordinates": [ -73.878351, 40.73871 ] } },
{ "type": "Feature", "properties": { "resource_id": "facdb:381168a92014417992571240057145ca", "name": "Elmhurst", "category": "children-and-youth", "source": "facdb", "is_coad_member": false }, "geometry": { "type": "Point", "coordinates": [ -73.886468, 40.738922 ] } },
{ "type": "Feature", "properties": { "resource_id": "facdb:3ac5d2ad870955ce8ffefed6de0497a8", "name": "Hoffman Park", "category": "parks-and-environment", "source": "facdb", "is_coad_member": false }, "geometry": { "type": "Point", "coordinates": [ -73.872122, 40.732802 ] } },
{ "type": "Feature", "properties": { "resource_id": "facdb:3ad4b6a9eb25bd4f282791fd9f8d85f9", "name": "Elmhurst", "category": "libraries-and-community", "source": "facdb", "is_coad_member": false }, "geometry": { "type": "Point", "coordinates": [ -73.876871, 40.738518 ] } },
{ "type": "Feature", "properties": { "resource_id": "facdb:3b218c613275d61378eeb029e671948d", "name": "Lefrak City - Office", "category": "government-offices", "source": "facdb", "is_coad_member": false }, "geometry": { "type": "Point", "coordinates": [ -73.864388, 40.734781 ] } },
{ "type": "Feature", "properties": { "resource_id": "facdb:3be599a27725c34d10171e4a7085420c", "name": "Las Americas Jewelry School", "category": "education-and-jobs", "source": "facdb", "is_coad_member": false }, "geometry": { "type": "Point", "coordinates": [ -73.872048, 40.748729 ] } },
{ "type": "Feature", "properties": { "resource_id": "facdb:447b1a85e6370561f3a1e4879a4475ec", "name": "Make the Road New York", "category": "education-and-jobs", "source": "facdb", "is_coad_member": false }, "geometry": { "type": "Point", "coordinates": [ -73.874023, 40.748429 ] } },
{ "type": "Feature", "properties": { "resource_id": "facdb:44ff00456e74d0ab505fc10d7a5a037c", "name": "Samuel Field YM & YWHA Inc", "category": "children-and-youth", "source": "facdb", "is_coad_member": false }, "geometry": { "type": "Point", "coordinates": [ -73.871499, 40.743368 ] } },
{ "type": "Feature", "properties": { "resource_id": "facdb:4534633af590be7d3c1d872c183a7e35", "name": "Congregation Tifereth Israel", "category": "parks-and-environment", "source": "facdb", "is_coad_member": false }, "geometry": { "type": "Point", "coordinates": [ -73.852917, 40.742108 ] } },
{ "type": "Feature", "properties": { "resource_id": "facdb:4927ccc4ec1d42dcac298f95266eeb3f", "name": "Queens Library-Elmhurst", "category": "children-and-youth", "source": "facdb", "is_coad_member": false }, "geometry": { "type": "Point", "coordinates": [ -73.876871, 40.738518 ] } },
{ "type": "Feature", "properties": { "resource_id": "facdb:4a54ae4115caac32e307cfcd5f609e6d", "name": "Corona Child Health Clinic", "category": "health-care", "source": "facdb", "is_coad_member": false }, "geometry": { "type": "Point", "coordinates": [ -73.858429, 40.743779 ] } },
{ "type": "Feature", "properties": { "resource_id": "facdb:4d55edcb444bb0882b7fb05c866997ad", "name": "Commonpoint Queens' Central Queens (Formerly Known as Central Queens Y)", "category": "children-and-youth", "source": "facdb", "is_coad_member": false }, "geometry": { "type": "Point", "coordinates": [ -73.886468, 40.738922 ] } },
{ "type": "Feature", "properties": { "resource_id": "facdb:4fed1bd13bab1da65774dc7876f7797a", "name": "Latinas on the Verge of Excellence Love Inc", "category": "children-and-youth", "source": "facdb", "is_coad_member": false }, "geometry": { "type": "Point", "coordinates": [ -73.874108, 40.740813 ] } },
{ "type": "Feature", "properties": { "resource_id": "facdb:503ead58d67568dc109a70ad38265f0c", "name": "Queens Borough Public Library", "category": "immigration-and-language", "source": "facdb", "is_coad_member": false }, "geometry": { "type": "Point", "coordinates": [ -73.876871, 40.738518 ] } },
{ "type": "Feature", "properties": { "resource_id": "facdb:505b6344a211520ca748d232d4cc3efd", "name": "Frank D. O'Connor Playground", "category": "parks-and-environment", "source": "facdb", "is_coad_member": false }, "geometry": { "type": "Point", "coordinates": [ -73.886717, 40.744206 ] } },
{ "type": "Feature", "properties": { "resource_id": "facdb:551b2ea2df07198f2776658f49a38834", "name": "Elmhurst Hospital Mental Health Clinic", "category": "mental-health-and-recovery", "source": "facdb", "is_coad_member": false }, "geometry": { "type": "Point", "coordinates": [ -73.88567, 40.745088 ] } },
{ "type": "Feature", "properties": { "resource_id": "facdb:556b6d6e1881a7d367e1c0f09e233572", "name": "Geneis Medical Training", "category": "education-and-jobs", "source": "facdb", "is_coad_member": false }, "geometry": { "type": "Point", "coordinates": [ -73.869345, 40.733671 ] } },
{ "type": "Feature", "properties": { "resource_id": "facdb:55a5df7ef59314f4b267240a1c924f56", "name": "Sparrow's Nest Community Garden", "category": "parks-and-environment", "source": "facdb", "is_coad_member": false }, "geometry": { "type": "Point", "coordinates": [ -73.859089, 40.740336 ] } },
{ "type": "Feature", "properties": { "resource_id": "facdb:55c2c8a49fb9afb484b5056539b101ec", "name": "Central Queens Academy Charter School (24Q083)", "category": "children-and-youth", "source": "facdb", "is_coad_member": false }, "geometry": { "type": "Point", "coordinates": [ -73.875283, 40.736628 ] } },
{ "type": "Feature", "properties": { "resource_id": "facdb:55de4b12df7ec5deeba1b4071ca622f5", "name": "Nypcc Queens Adult Home Clinic Treatment", "category": "mental-health-and-recovery", "source": "facdb", "is_coad_member": false }, "geometry": { "type": "Point", "coordinates": [ -73.883931, 40.741253 ] } },
{ "type": "Feature", "properties": { "resource_id": "facdb:56e07860694c0a45182d97ad24967998", "name": "NY Tibetan Service Center, Inc.", "category": "children-and-youth", "source": "facdb", "is_coad_member": false }, "geometry": { "type": "Point", "coordinates": [ -73.880144, 40.740852 ] } },
{ "type": "Feature", "properties": { "resource_id": "facdb:59ce3687a74d47888158da01b45de5a1", "name": "Italian Senior Citizens Center Inc.", "category": "older-adults", "source": "facdb", "is_coad_member": false }, "geometry": { "type": "Point", "coordinates": [ -73.879746, 40.736803 ] } },
{ "type": "Feature", "properties": { "resource_id": "facdb:59e6b319669249b3e1d2da7bf9512c4b", "name": "Mti Business School", "category": "education-and-jobs", "source": "facdb", "is_coad_member": false }, "geometry": { "type": "Point", "coordinates": [ -73.864366, 40.734807 ] } },
{ "type": "Feature", "properties": { "resource_id": "facdb:5de2f0eff2ff01f90e3690b562cc1833", "name": "Elmjack Mall", "category": "parks-and-environment", "source": "facdb", "is_coad_member": false }, "geometry": { "type": "Point", "coordinates": [ -73.89034, 40.746117 ] } },
{ "type": "Feature", "properties": { "resource_id": "facdb:5e11d9b13b984088db872719dec7ca50", "name": "Elmhurst Hospital Center Inpatient Services", "category": "mental-health-and-recovery", "source": "facdb", "is_coad_member": false }, "geometry": { "type": "Point", "coordinates": [ -73.88567, 40.745088 ] } },
{ "type": "Feature", "properties": { "resource_id": "facdb:60614f192206d694af85aedd32bfddf4", "name": "William F Moore Park", "category": "parks-and-environment", "source": "facdb", "is_coad_member": false }, "geometry": { "type": "Point", "coordinates": [ -73.855448, 40.743665 ] } },
{ "type": "Feature", "properties": { "resource_id": "facdb:61087f87c757c50ce43b689037c19a41", "name": "Elmhurst Hospital Cnter/Ems 46", "category": "emergency-services", "source": "facdb", "is_coad_member": false }, "geometry": { "type": "Point", "coordinates": [ -73.885641, 40.745121 ] } },
{ "type": "Feature", "properties": { "resource_id": "facdb:6191910bac199932f621a33762e89710", "name": "Udi Career Training Institute", "category": "education-and-jobs", "source": "facdb", "is_coad_member": false }, "geometry": { "type": "Point", "coordinates": [ -73.887203, 40.747048 ] } },
{ "type": "Feature", "properties": { "resource_id": "facdb:61a97440b257dcb3a4e747675aaf2717", "name": "New Life Community Development : New Life Food & Clothing Pantry", "category": "food-assistance", "source": "facdb", "is_coad_member": false }, "geometry": { "type": "Point", "coordinates": [ -73.881142, 40.736919 ] } },
{ "type": "Feature", "properties": { "resource_id": "facdb:62cf0aff8a2b2e9fae9caf7643e544a1", "name": "Shetu Inc", "category": "children-and-youth", "source": "facdb", "is_coad_member": false }, "geometry": { "type": "Point", "coordinates": [ -73.88567, 40.745088 ] } },
{ "type": "Feature", "properties": { "resource_id": "facdb:653dc90bbb173107896d028c65c23212", "name": "Park Terrace Care Center", "category": "health-care", "source": "facdb", "is_coad_member": false }, "geometry": { "type": "Point", "coordinates": [ -73.849787, 40.738831 ] } },
{ "type": "Feature", "properties": { "resource_id": "facdb:65c35dca9983f18328d148024b5e06ff", "name": "Elmhurst Hospital Center (Hhc) Otp", "category": "mental-health-and-recovery", "source": "facdb", "is_coad_member": false }, "geometry": { "type": "Point", "coordinates": [ -73.88567, 40.745088 ] } },
{ "type": "Feature", "properties": { "resource_id": "facdb:66482458c121c306949b0476ecbcc0c1", "name": "The Child Center of NY Inc", "category": "children-and-youth", "source": "facdb", "is_coad_member": false }, "geometry": { "type": "Point", "coordinates": [ -73.865135, 40.745964 ] } },
{ "type": "Feature", "properties": { "resource_id": "facdb:68667392135e5b2701e562cc93caf7b4", "name": "PS 7 Louis F. Simeone", "category": "children-and-youth", "source": "facdb", "is_coad_member": false }, "geometry": { "type": "Point", "coordinates": [ -73.882417, 40.739895 ] } },
{ "type": "Feature", "properties": { "resource_id": "facdb:6b5b7282fa405d14e552e412073e56a9", "name": "New York Harbor Foundation Inc", "category": "children-and-youth", "source": "facdb", "is_coad_member": false }, "geometry": { "type": "Point", "coordinates": [ -73.867796, 40.737352 ] } },
{ "type": "Feature", "properties": { "resource_id": "facdb:6b71baf1be46c0abeb24e88057089b4c", "name": "Communities of Maspeth-Elm- Hurst Together Inc", "category": "children-and-youth", "source": "facdb", "is_coad_member": false }, "geometry": { "type": "Point", "coordinates": [ -73.883162, 40.732803 ] } },
{ "type": "Feature", "properties": { "resource_id": "facdb:6c53892f461d883e740a77d29680e4f1", "name": "Lefrak City - Office", "category": "government-offices", "source": "facdb", "is_coad_member": false }, "geometry": { "type": "Point", "coordinates": [ -73.8635, 40.735021 ] } },
{ "type": "Feature", "properties": { "resource_id": "facdb:6c72a6f6a8d2578280f339803ebf7858", "name": "Josephine Caminiti Playground", "category": "parks-and-environment", "source": "facdb", "is_coad_member": false }, "geometry": { "type": "Point", "coordinates": [ -73.861554, 40.743795 ] } },
{ "type": "Feature", "properties": { "resource_id": "facdb:6d98436e161c187125715e4151389311", "name": "South Asian Youth Action Saya Inc", "category": "children-and-youth", "source": "facdb", "is_coad_member": false }, "geometry": { "type": "Point", "coordinates": [ -73.8771, 40.735547 ] } },
{ "type": "Feature", "properties": { "resource_id": "facdb:72190223e5335c579d587b38528e16fe", "name": "Rego Park Nursing Home", "category": "health-care", "source": "facdb", "is_coad_member": false }, "geometry": { "type": "Point", "coordinates": [ -73.848999, 40.7401 ] } },
{ "type": "Feature", "properties": { "resource_id": "facdb:733d177200793a98be20d4a0bc653890", "name": "The New York Immigration Coalition Inc", "category": "children-and-youth", "source": "facdb", "is_coad_member": false }, "geometry": { "type": "Point", "coordinates": [ -73.866777, 40.749069 ] } },
{ "type": "Feature", "properties": { "resource_id": "facdb:73f69ff9ac50bcb17706c4323b88551c", "name": "Hanac Inc", "category": "children-and-youth", "source": "facdb", "is_coad_member": false }, "geometry": { "type": "Point", "coordinates": [ -73.866777, 40.749069 ] } },
{ "type": "Feature", "properties": { "resource_id": "facdb:7636af06a5657169c8bd3a5cc579a4f9", "name": "Newtown Playground", "category": "parks-and-environment", "source": "facdb", "is_coad_member": false }, "geometry": { "type": "Point", "coordinates": [ -73.869826, 40.73625 ] } },
{ "type": "Feature", "properties": { "resource_id": "facdb:76415897b105c02544243a572d7b4217", "name": "P.S. 019 Marino Jeantet", "category": "health-care", "source": "facdb", "is_coad_member": false }, "geometry": { "type": "Point", "coordinates": [ -73.866777, 40.749069 ] } },
{ "type": "Feature", "properties": { "resource_id": "facdb:7708e2e023a5a48b1a995a5fab4f17d0", "name": "Elmhurst Library", "category": "children-and-youth", "source": "facdb", "is_coad_member": false }, "geometry": { "type": "Point", "coordinates": [ -73.876871, 40.738518 ] } },
{ "type": "Feature", "properties": { "resource_id": "facdb:77fa1d13478a5acac2e3b846818fb32b", "name": "American Triangle", "category": "parks-and-environment", "source": "facdb", "is_coad_member": false }, "geometry": { "type": "Point", "coordinates": [ -73.863361, 40.748419 ] } },
{ "type": "Feature", "properties": { "resource_id": "facdb:7b45e96e97cf9518ae33bad3cb84b40c", "name": "The Greater Ridgewood Youth Council Inc", "category": "children-and-youth", "source": "facdb", "is_coad_member": false }, "geometry": { "type": "Point", "coordinates": [ -73.878071, 40.733214 ] } },
{ "type": "Feature", "properties": { "resource_id": "facdb:7b46c2247134c646c53db420a884365a", "name": "Corona Plaza", "category": "parks-and-environment", "source": "facdb", "is_coad_member": false }, "geometry": { "type": "Point", "coordinates": [ -73.862528, 40.74972 ] } },
{ "type": "Feature", "properties": { "resource_id": "facdb:7cc6c2035b14197a780fc43a5b999608", "name": "Queens Library-Lefrak City", "category": "children-and-youth", "source": "facdb", "is_coad_member": false }, "geometry": { "type": "Point", "coordinates": [ -73.861573, 40.737441 ] } },
{ "type": "Feature", "properties": { "resource_id": "facdb:7e61b8676fb6eafbf6b822a3dba37c38", "name": "Saint Adalbert School", "category": "children-and-youth", "source": "facdb", "is_coad_member": false }, "geometry": { "type": "Point", "coordinates": [ -73.883507, 40.732967 ] } },
{ "type": "Feature", "properties": { "resource_id": "facdb:7edf042c79f4c7308c3044cebf29e571", "name": "NY Tibetan Service Center, Inc.", "category": "libraries-and-community", "source": "facdb", "is_coad_member": false }, "geometry": { "type": "Point", "coordinates": [ -73.880125, 40.740838 ] } },
{ "type": "Feature", "properties": { "resource_id": "facdb:7f79faaf94ce6e3deece74f531c054c1", "name": "Middleburgh Triangle", "category": "parks-and-environment", "source": "facdb", "is_coad_member": false }, "geometry": { "type": "Point", "coordinates": [ -73.875055, 40.741322 ] } },
{ "type": "Feature", "properties": { "resource_id": "facdb:8067841a75ac71a327a1c83e254529ba", "name": "Corona Taxpayers Association", "category": "parks-and-environment", "source": "facdb", "is_coad_member": false }, "geometry": { "type": "Point", "coordinates": [ -73.860082, 40.74139 ] } },
{ "type": "Feature", "properties": { "resource_id": "facdb:815897cdcea9355f4318522d278d9ee2", "name": "Maspeth Town Hall, Inc.", "category": "children-and-youth", "source": "facdb", "is_coad_member": false }, "geometry": { "type": "Point", "coordinates": [ -73.866797, 40.745629 ] } },
{ "type": "Feature", "properties": { "resource_id": "facdb:822e821cfbee6e130ff35c7f1e46e55e", "name": "Elmcare Dialysis", "category": "health-care", "source": "facdb", "is_coad_member": false }, "geometry": { "type": "Point", "coordinates": [ -73.883819, 40.738438 ] } },
{ "type": "Feature", "properties": { "resource_id": "facdb:82f5aede877139da83b3406357c4d917", "name": "PS 143 Louis Armstrong Annex II", "category": "children-and-youth", "source": "facdb", "is_coad_member": false }, "geometry": { "type": "Point", "coordinates": [ -73.878626, 40.735885 ] } },
{ "type": "Feature", "properties": { "resource_id": "facdb:856bef58695ffb392825bcb2ab9b8425", "name": "Lefrak City", "category": "libraries-and-community", "source": "facdb", "is_coad_member": false }, "geometry": { "type": "Point", "coordinates": [ -73.861573, 40.737441 ] } },
{ "type": "Feature", "properties": { "resource_id": "facdb:86161183ba82ea796f0475e038939459", "name": "P.S. 102 Bayview", "category": "children-and-youth", "source": "facdb", "is_coad_member": false }, "geometry": { "type": "Point", "coordinates": [ -73.878071, 40.733214 ] } },
{ "type": "Feature", "properties": { "resource_id": "facdb:86be111eaa9e9cd1d04552c3f362471b", "name": "Penaranda Inst of Dental Lab Tech", "category": "education-and-jobs", "source": "facdb", "is_coad_member": false }, "geometry": { "type": "Point", "coordinates": [ -73.883542, 40.747129 ] } },
{ "type": "Feature", "properties": { "resource_id": "facdb:88c361aee44965f934d601dceaeb19a1", "name": "Nine Heroes Plaza", "category": "parks-and-environment", "source": "facdb", "is_coad_member": false }, "geometry": { "type": "Point", "coordinates": [ -73.889135, 40.745541 ] } },
{ "type": "Feature", "properties": { "resource_id": "facdb:8c422dec6288779bef43a398feb91091", "name": "Haitian American Cultural and Educational Foundation", "category": "libraries-and-community", "source": "facdb", "is_coad_member": false }, "geometry": { "type": "Point", "coordinates": [ -73.873758, 40.74415 ] } },
{ "type": "Feature", "properties": { "resource_id": "facdb:8dddcb1207d51f05f94ed44c460e6c53", "name": "Horsebrook Island", "category": "parks-and-environment", "source": "facdb", "is_coad_member": false }, "geometry": { "type": "Point", "coordinates": [ -73.872537, 40.735908 ] } },
{ "type": "Feature", "properties": { "resource_id": "facdb:8f0074df809f2ebbce222a5e0e8431ac", "name": "New Life Food Pantry", "category": "children-and-youth", "source": "facdb", "is_coad_member": false }, "geometry": { "type": "Point", "coordinates": [ -73.881142, 40.736919 ] } },
{ "type": "Feature", "properties": { "resource_id": "facdb:8f80489776fcfa5927ea24def82961d2", "name": "Drum Desis Rising Up and Moving Inc", "category": "benefits-and-legal", "source": "facdb", "is_coad_member": false }, "geometry": { "type": "Point", "coordinates": [ -73.892843, 40.746488 ] } },
{ "type": "Feature", "properties": { "resource_id": "facdb:8fe8e915ff3b162ed38d3c0c19586be6", "name": "I.S. 61 Leonardo Da Vinci", "category": "children-and-youth", "source": "facdb", "is_coad_member": false }, "geometry": { "type": "Point", "coordinates": [ -73.862703, 40.742134 ] } },
{ "type": "Feature", "properties": { "resource_id": "facdb:90da56f446c4d01998a0a046ac0b3920", "name": "Forest Hills Community Center", "category": "children-and-youth", "source": "facdb", "is_coad_member": false }, "geometry": { "type": "Point", "coordinates": [ -73.886468, 40.738922 ] } },
{ "type": "Feature", "properties": { "resource_id": "facdb:91383f22fa5bccee9b3733a00279b838", "name": "Italian Charities of America", "category": "children-and-youth", "source": "facdb", "is_coad_member": false }, "geometry": { "type": "Point", "coordinates": [ -73.879746, 40.736803 ] } },
{ "type": "Feature", "properties": { "resource_id": "facdb:91a8366e1151ebe2995a20cd3440233d", "name": "Ontrackny at Elmhurst", "category": "mental-health-and-recovery", "source": "facdb", "is_coad_member": false }, "geometry": { "type": "Point", "coordinates": [ -73.88567, 40.745088 ] } },
{ "type": "Feature", "properties": { "resource_id": "facdb:937b1c484d350af9c390518c2567aea7", "name": "Elmhurst Hospital Center", "category": "health-care", "source": "facdb", "is_coad_member": false }, "geometry": { "type": "Point", "coordinates": [ -73.88567, 40.745088 ] } },
{ "type": "Feature", "properties": { "resource_id": "facdb:97dffa34f94ccaa955e474749621fe4c", "name": "Benevolent and Protective Order of Elks, Lodge #878", "category": "parks-and-environment", "source": "facdb", "is_coad_member": false }, "geometry": { "type": "Point", "coordinates": [ -73.88115, 40.736903 ] } },
{ "type": "Feature", "properties": { "resource_id": "facdb:97f7968c05365613590d6ae6d34022ca", "name": "Crowley Playground", "category": "parks-and-environment", "source": "facdb", "is_coad_member": false }, "geometry": { "type": "Point", "coordinates": [ -73.879611, 40.729562 ] } },
{ "type": "Feature", "properties": { "resource_id": "facdb:9978823ad11c1b9dda23332e63f13b72", "name": "New Immigrant Community Empowerment Inc", "category": "children-and-youth", "source": "facdb", "is_coad_member": false }, "geometry": { "type": "Point", "coordinates": [ -73.893907, 40.746731 ] } },
{ "type": "Feature", "properties": { "resource_id": "facdb:99c3e6590d0afa3dd353c018caaa5b5a", "name": "Elmhurst Act Program", "category": "mental-health-and-recovery", "source": "facdb", "is_coad_member": false }, "geometry": { "type": "Point", "coordinates": [ -73.887145, 40.745809 ] } },
{ "type": "Feature", "properties": { "resource_id": "facdb:9a256e438c3018898e01669cc3f4167b", "name": "NY Tibetan Service Center, Inc.", "category": "children-and-youth", "source": "facdb", "is_coad_member": false }, "geometry": { "type": "Point", "coordinates": [ -73.880144, 40.740852 ] } },
{ "type": "Feature", "properties": { "resource_id": "facdb:9c39361be9407f7a88db1863f8abd8ad", "name": "Division 14/ENGINE 324", "category": "emergency-services", "source": "facdb", "is_coad_member": false }, "geometry": { "type": "Point", "coordinates": [ -73.851968, 40.737956 ] } },
{ "type": "Feature", "properties": { "resource_id": "facdb:9cd5160f97f89cb3297ec2d463d2d26f", "name": "Child & Adolescent Partial Hospital", "category": "mental-health-and-recovery", "source": "facdb", "is_coad_member": false }, "geometry": { "type": "Point", "coordinates": [ -73.88567, 40.745088 ] } },
{ "type": "Feature", "properties": { "resource_id": "facdb:9e511846b376ce69fea43f24db708205", "name": "Long Island Mews", "category": "parks-and-environment", "source": "facdb", "is_coad_member": false }, "geometry": { "type": "Point", "coordinates": [ -73.890204, 40.736097 ] } },
{ "type": "Feature", "properties": { "resource_id": "facdb:a04b7d3a0e3232767fbc0f833061152d", "name": "Mti Business School-Queens (5002)", "category": "education-and-jobs", "source": "facdb", "is_coad_member": false }, "geometry": { "type": "Point", "coordinates": [ -73.864366, 40.734807 ] } },
{ "type": "Feature", "properties": { "resource_id": "facdb:a2836b6d2165aba2e56629e0bdc9d2f0", "name": "Coalition for Hispanic Family Services", "category": "children-and-youth", "source": "facdb", "is_coad_member": false }, "geometry": { "type": "Point", "coordinates": [ -73.882417, 40.739895 ] } },
{ "type": "Feature", "properties": { "resource_id": "facdb:a31b095f7eb9e7f85d12c6ec7921740e", "name": "Make the Road New York", "category": "children-and-youth", "source": "facdb", "is_coad_member": false }, "geometry": { "type": "Point", "coordinates": [ -73.874023, 40.748429 ] } },
{ "type": "Feature", "properties": { "resource_id": "facdb:a52c210de48a71a130950a60ecb0ca52", "name": "Veterans Grove", "category": "parks-and-environment", "source": "facdb", "is_coad_member": false }, "geometry": { "type": "Point", "coordinates": [ -73.877578, 40.74265 ] } },
{ "type": "Feature", "properties": { "resource_id": "facdb:a5392b593d3eccbc29ea85a97b34db73", "name": "Engine 289/LADDER 138", "category": "emergency-services", "source": "facdb", "is_coad_member": false }, "geometry": { "type": "Point", "coordinates": [ -73.865287, 40.746219 ] } },
{ "type": "Feature", "properties": { "resource_id": "facdb:a5c2ad4bb96b516a6e6a64d33a521964", "name": "Pan American International High School (24Q296)", "category": "children-and-youth", "source": "facdb", "is_coad_member": false }, "geometry": { "type": "Point", "coordinates": [ -73.871499, 40.743368 ] } },
{ "type": "Feature", "properties": { "resource_id": "facdb:a609c7ea4ce488d00f8de887afb1c77c", "name": "Pre-K Center at 50-51 98th Street", "category": "children-and-youth", "source": "facdb", "is_coad_member": false }, "geometry": { "type": "Point", "coordinates": [ -73.863511, 40.741385 ] } },
{ "type": "Feature", "properties": { "resource_id": "facdb:a7f4bb5cab77d313da268b34373bfc15", "name": "Ace Institute of Technology", "category": "education-and-jobs", "source": "facdb", "is_coad_member": false }, "geometry": { "type": "Point", "coordinates": [ -73.890595, 40.745779 ] } },
{ "type": "Feature", "properties": { "resource_id": "facdb:a8379b7ed83c9d53c0aa9ba0f30c6780", "name": "Queens Adult Care Center", "category": "health-care", "source": "facdb", "is_coad_member": false }, "geometry": { "type": "Point", "coordinates": [ -73.884252, 40.740979 ] } },
{ "type": "Feature", "properties": { "resource_id": "facdb:a9457f8df8bac8f55ab674c74a77339b", "name": "New Immigrant Community Empowerment (Nice)", "category": "children-and-youth", "source": "facdb", "is_coad_member": false }, "geometry": { "type": "Point", "coordinates": [ -73.893907, 40.746731 ] } },
{ "type": "Feature", "properties": { "resource_id": "facdb:aa81c75249b3ff48ea62899cef20a0c8", "name": "Hanac Inc", "category": "children-and-youth", "source": "facdb", "is_coad_member": false }, "geometry": { "type": "Point", "coordinates": [ -73.866777, 40.749069 ] } },
{ "type": "Feature", "properties": { "resource_id": "facdb:ab70871e96bf88ce18de37168f763e3d", "name": "Pan American International High School (24Q296)", "category": "children-and-youth", "source": "facdb", "is_coad_member": false }, "geometry": { "type": "Point", "coordinates": [ -73.871499, 40.743368 ] } },
{ "type": "Feature", "properties": { "resource_id": "facdb:af177fa560d2c5c9b0d54402fada16b2", "name": "Make the Road New York", "category": "immigration-and-language", "source": "facdb", "is_coad_member": false }, "geometry": { "type": "Point", "coordinates": [ -73.874023, 40.748429 ] } },
{ "type": "Feature", "properties": { "resource_id": "facdb:b0534b3b8ad4b55f4ca4a238c8c31b2e", "name": "Make the Road New York", "category": "immigration-and-language", "source": "facdb", "is_coad_member": false }, "geometry": { "type": "Point", "coordinates": [ -73.874023, 40.748429 ] } },
{ "type": "Feature", "properties": { "resource_id": "facdb:b12c25f0b8c170c3d2d51db722bb1268", "name": "Queens - Make the Road NY", "category": "immigration-and-language", "source": "facdb", "is_coad_member": false }, "geometry": { "type": "Point", "coordinates": [ -73.874023, 40.748429 ] } },
{ "type": "Feature", "properties": { "resource_id": "facdb:b1e2502dbb0910946943aedd706a2679", "name": "Women's Medical Center at Corona", "category": "health-care", "source": "facdb", "is_coad_member": false }, "geometry": { "type": "Point", "coordinates": [ -73.864366, 40.734807 ] } },
{ "type": "Feature", "properties": { "resource_id": "facdb:b2b82710ae7b48d147d4551aad34237e", "name": "Grand Slope", "category": "parks-and-environment", "source": "facdb", "is_coad_member": false }, "geometry": { "type": "Point", "coordinates": [ -73.883034, 40.734436 ] } },
{ "type": "Feature", "properties": { "resource_id": "facdb:b313bdb6dfaf52cbfb409ce6634dec5e", "name": "Saint James Church", "category": "parks-and-environment", "source": "facdb", "is_coad_member": false }, "geometry": { "type": "Point", "coordinates": [ -73.877825, 40.73835 ] } },
{ "type": "Feature", "properties": { "resource_id": "facdb:b528e546f57ebdbd1ba58835ce53c268", "name": "The Child Center of NY Inc", "category": "children-and-youth", "source": "facdb", "is_coad_member": false }, "geometry": { "type": "Point", "coordinates": [ -73.879601, 40.745959 ] } },
{ "type": "Feature", "properties": { "resource_id": "facdb:b5843fe5132919c0e0cbee8ea35d4176", "name": "Park", "category": "parks-and-environment", "source": "facdb", "is_coad_member": false }, "geometry": { "type": "Point", "coordinates": [ -73.865656, 40.734051 ] } },
{ "type": "Feature", "properties": { "resource_id": "facdb:b58a9f3ee7fb79d7275785d383322ffe", "name": "Elmhurst Hospital Cnter/Ems 46", "category": "emergency-services", "source": "facdb", "is_coad_member": false }, "geometry": { "type": "Point", "coordinates": [ -73.885641, 40.745121 ] } },
{ "type": "Feature", "properties": { "resource_id": "facdb:b60050e7e2cdd528a25e6effa32c65ee", "name": "Queens Community House, Inc.", "category": "children-and-youth", "source": "facdb", "is_coad_member": false }, "geometry": { "type": "Point", "coordinates": [ -73.871499, 40.743368 ] } },
{ "type": "Feature", "properties": { "resource_id": "facdb:b683a180787959a870b87ddc630b90c9", "name": "New York Edge Inc", "category": "children-and-youth", "source": "facdb", "is_coad_member": false }, "geometry": { "type": "Point", "coordinates": [ -73.854399, 40.741021 ] } },
{ "type": "Feature", "properties": { "resource_id": "facdb:b79d23726f726f21b3d725677632b77a", "name": "Blau-Weiss Gottschee Inc", "category": "children-and-youth", "source": "facdb", "is_coad_member": false }, "geometry": { "type": "Point", "coordinates": [ -73.878626, 40.735885 ] } },
{ "type": "Feature", "properties": { "resource_id": "facdb:bb88c312c3d1ef03e0e3a79317d133b3", "name": "Queens Community House, Inc.", "category": "children-and-youth", "source": "facdb", "is_coad_member": false }, "geometry": { "type": "Point", "coordinates": [ -73.874108, 40.740813 ] } },
{ "type": "Feature", "properties": { "resource_id": "facdb:be2d835af9d506a6484ebd845c8aa6cc", "name": "Coalition for Hispanic Family Services", "category": "children-and-youth", "source": "facdb", "is_coad_member": false }, "geometry": { "type": "Point", "coordinates": [ -73.887085, 40.73723 ] } },
{ "type": "Feature", "properties": { "resource_id": "facdb:c12565aad3fd8dbb8bec8d3e24636f79", "name": "Institute for the Puerto Rican Hispanic Elderly Inc", "category": "older-adults", "source": "facdb", "is_coad_member": false }, "geometry": { "type": "Point", "coordinates": [ -73.890081, 40.746428 ] } },
{ "type": "Feature", "properties": { "resource_id": "facdb:c3c00127627077ffebc418995eabcf70", "name": "Comm Bd 4", "category": "government-offices", "source": "facdb", "is_coad_member": false }, "geometry": { "type": "Point", "coordinates": [ -73.859446, 40.7461 ] } },
{ "type": "Feature", "properties": { "resource_id": "facdb:c494932de988708d7c9762a9bcb87ffb", "name": "Dunningham Triangle", "category": "parks-and-environment", "source": "facdb", "is_coad_member": false }, "geometry": { "type": "Point", "coordinates": [ -73.883599, 40.74634 ] } },
{ "type": "Feature", "properties": { "resource_id": "facdb:c55fbaec8f5d96987d7d764ee53269be", "name": "NYC H+H Corp (Elmhurst) C22791GG-1-2 Suicide Prevention Prog", "category": "mental-health-and-recovery", "source": "facdb", "is_coad_member": false }, "geometry": { "type": "Point", "coordinates": [ -73.88567, 40.745088 ] } },
{ "type": "Feature", "properties": { "resource_id": "facdb:c8548e27a03a1309ab538ed0fbaf0cc4", "name": "The Boulevard Family Center", "category": "children-and-youth", "source": "facdb", "is_coad_member": false }, "geometry": { "type": "Point", "coordinates": [ -73.884653, 40.737745 ] } },
{ "type": "Feature", "properties": { "resource_id": "facdb:cafe2de717b5aa3b54fa0c6268e8883b", "name": "Css Psychosocial Club", "category": "mental-health-and-recovery", "source": "facdb", "is_coad_member": false }, "geometry": { "type": "Point", "coordinates": [ -73.88567, 40.745088 ] } },
{ "type": "Feature", "properties": { "resource_id": "facdb:cc9fac928f1fc932e1eb0be2f67bfc42", "name": "Newtown High School", "category": "children-and-youth", "source": "facdb", "is_coad_member": false }, "geometry": { "type": "Point", "coordinates": [ -73.874108, 40.740813 ] } },
{ "type": "Feature", "properties": { "resource_id": "facdb:ce4f10f81d6c9cce277c2df5c8ea6a2f", "name": "Park of the Americas", "category": "parks-and-environment", "source": "facdb", "is_coad_member": false }, "geometry": { "type": "Point", "coordinates": [ -73.861779, 40.748954 ] } },
{ "type": "Feature", "properties": { "resource_id": "facdb:cedda6f29af37cfbafdd3e4f0d0248ed", "name": "Samuel Field Queens Blvd", "category": "children-and-youth", "source": "facdb", "is_coad_member": false }, "geometry": { "type": "Point", "coordinates": [ -73.886468, 40.738922 ] } },
{ "type": "Feature", "properties": { "resource_id": "facdb:cf2c9a7cdbf5a8efba6880d4808af349", "name": "Castle Senior Living at Forest Hills", "category": "health-care", "source": "facdb", "is_coad_member": false }, "geometry": { "type": "Point", "coordinates": [ -73.851472, 40.738472 ] } },
{ "type": "Feature", "properties": { "resource_id": "facdb:cfd18fe785e448e1f5cb287c31ef7eb7", "name": "The Greater Ridgewood Youth Council Inc", "category": "children-and-youth", "source": "facdb", "is_coad_member": false }, "geometry": { "type": "Point", "coordinates": [ -73.878071, 40.733214 ] } },
{ "type": "Feature", "properties": { "resource_id": "facdb:d1b8458cac00017bea75200caa58c5fd", "name": "Soc Decontamination Laundry", "category": "emergency-services", "source": "facdb", "is_coad_member": false }, "geometry": { "type": "Point", "coordinates": [ -73.859338, 40.747766 ] } },
{ "type": "Feature", "properties": { "resource_id": "facdb:d4d76c0d5c341841b166662845dce352", "name": "Battalion 46/ENGINE 287/LADDER 136", "category": "emergency-services", "source": "facdb", "is_coad_member": false }, "geometry": { "type": "Point", "coordinates": [ -73.878849, 40.736452 ] } },
{ "type": "Feature", "properties": { "resource_id": "facdb:d7184db2fe6018f5975bb0642f20b6f2", "name": "Hanac Inc", "category": "education-and-jobs", "source": "facdb", "is_coad_member": false }, "geometry": { "type": "Point", "coordinates": [ -73.866777, 40.749069 ] } },
{ "type": "Feature", "properties": { "resource_id": "facdb:d72a74708b50e1dcde0f16d16923b2a3", "name": "Queens Community House, Inc.", "category": "children-and-youth", "source": "facdb", "is_coad_member": false }, "geometry": { "type": "Point", "coordinates": [ -73.874108, 40.740813 ] } },
{ "type": "Feature", "properties": { "resource_id": "facdb:d8c1e15865195efb0789dff4169ac9e8", "name": "Exodus Transitional Community Inc", "category": "benefits-and-legal", "source": "facdb", "is_coad_member": false }, "geometry": { "type": "Point", "coordinates": [ -73.84862, 40.739134 ] } },
{ "type": "Feature", "properties": { "resource_id": "facdb:da0a46a8dae02738b6339b87230882b2", "name": "Star Paradise", "category": "children-and-youth", "source": "facdb", "is_coad_member": false }, "geometry": { "type": "Point", "coordinates": [ -73.877073, 40.737166 ] } },
{ "type": "Feature", "properties": { "resource_id": "facdb:dbed5c97d5518044eea118429380f6e9", "name": "Elmhurst Community Service", "category": "children-and-youth", "source": "facdb", "is_coad_member": false }, "geometry": { "type": "Point", "coordinates": [ -73.875569, 40.74075 ] } },
{ "type": "Feature", "properties": { "resource_id": "facdb:dc2498f6b4e8677d8f506d0f52b642ba", "name": "Triangle 90", "category": "parks-and-environment", "source": "facdb", "is_coad_member": false }, "geometry": { "type": "Point", "coordinates": [ -73.876482, 40.748264 ] } },
{ "type": "Feature", "properties": { "resource_id": "facdb:dc24e3bb991ca1866ec41145eb1903b2", "name": "Family Resource Center-Queens Mha", "category": "children-and-youth", "source": "facdb", "is_coad_member": false }, "geometry": { "type": "Point", "coordinates": [ -73.876465, 40.737183 ] } },
{ "type": "Feature", "properties": { "resource_id": "facdb:dca66a02e8cd5358f6119e87bb080418", "name": "Elmhurst Hospital Center - Cpep", "category": "mental-health-and-recovery", "source": "facdb", "is_coad_member": false }, "geometry": { "type": "Point", "coordinates": [ -73.88567, 40.745088 ] } },
{ "type": "Feature", "properties": { "resource_id": "facdb:e0cbec813aacd3548d603353b17c48d7", "name": "Corona - Nta QN0402", "category": "children-and-youth", "source": "facdb", "is_coad_member": false }, "geometry": { "type": "Point", "coordinates": [ -73.865135, 40.745964 ] } },
{ "type": "Feature", "properties": { "resource_id": "facdb:e15c728bf7322263030285868bce3d14", "name": "Elmcor Youth & Adult Activities Inc", "category": "older-adults", "source": "facdb", "is_coad_member": false }, "geometry": { "type": "Point", "coordinates": [ -73.863557, 40.734943 ] } },
{ "type": "Feature", "properties": { "resource_id": "facdb:e2c5abe1f785ebabce0d2c374d734e65", "name": "Lefrak City - Office", "category": "government-offices", "source": "facdb", "is_coad_member": false }, "geometry": { "type": "Point", "coordinates": [ -73.864388, 40.734781 ] } },
{ "type": "Feature", "properties": { "resource_id": "facdb:e56aac5e467965e1ed6361f57402ce8c", "name": "Star Paradise Inc", "category": "children-and-youth", "source": "facdb", "is_coad_member": false }, "geometry": { "type": "Point", "coordinates": [ -73.884582, 40.744002 ] } },
{ "type": "Feature", "properties": { "resource_id": "facdb:e676c08bd33aaa757d9189da7eaeb4e5", "name": "PS 14 Fairview (24Q014)", "category": "children-and-youth", "source": "facdb", "is_coad_member": false }, "geometry": { "type": "Point", "coordinates": [ -73.854399, 40.741021 ] } },
{ "type": "Feature", "properties": { "resource_id": "facdb:e7469ea01804407f0dbb436dcd16d98e", "name": "Alstyne Playground", "category": "children-and-youth", "source": "facdb", "is_coad_member": false }, "geometry": { "type": "Point", "coordinates": [ -73.86177, 40.744276 ] } },
{ "type": "Feature", "properties": { "resource_id": "facdb:e97e91a8056b50237392cc0f03b2d8ac", "name": "Elmhurst Avenue Subway Station (Ind)", "category": "parks-and-environment", "source": "facdb", "is_coad_member": false }, "geometry": { "type": "Point", "coordinates": [ -73.881924, 40.742374 ] } },
{ "type": "Feature", "properties": { "resource_id": "facdb:eb673520d868ba90f63d9db9a4582858", "name": "Lirr Wall", "category": "children-and-youth", "source": "facdb", "is_coad_member": false }, "geometry": { "type": "Point", "coordinates": [ -73.865135, 40.745964 ] } },
{ "type": "Feature", "properties": { "resource_id": "facdb:ec0fd9d9512785cd273a61d84f5df19b", "name": "Sheba USA Inc.", "category": "libraries-and-community", "source": "facdb", "is_coad_member": false }, "geometry": { "type": "Point", "coordinates": [ -73.88377, 40.742961 ] } },
{ "type": "Feature", "properties": { "resource_id": "facdb:ec8e2df44c5cee7348f3ebfa92828333", "name": "Campus Education", "category": "education-and-jobs", "source": "facdb", "is_coad_member": false }, "geometry": { "type": "Point", "coordinates": [ -73.880095, 40.740817 ] } },
{ "type": "Feature", "properties": { "resource_id": "facdb:ed18939bf7f219357d3a7692af3c197d", "name": "Corona Health Sanctuary", "category": "parks-and-environment", "source": "facdb", "is_coad_member": false }, "geometry": { "type": "Point", "coordinates": [ -73.858517, 40.743806 ] } },
{ "type": "Feature", "properties": { "resource_id": "facdb:ee50b6a5ce2b4224baf735193e18774d", "name": "Bayside Glee Club, Inc.", "category": "libraries-and-community", "source": "facdb", "is_coad_member": false }, "geometry": { "type": "Point", "coordinates": [ -73.878038, 40.737931 ] } },
{ "type": "Feature", "properties": { "resource_id": "facdb:eeba76f42462f2363c696735c7d989d0", "name": "Broadway Dialysis Center", "category": "health-care", "source": "facdb", "is_coad_member": false }, "geometry": { "type": "Point", "coordinates": [ -73.88567, 40.745088 ] } },
{ "type": "Feature", "properties": { "resource_id": "facdb:eec78a11c4f5681b88fdd2031544998f", "name": "The Greater Ridgewood Youth Council Inc", "category": "children-and-youth", "source": "facdb", "is_coad_member": false }, "geometry": { "type": "Point", "coordinates": [ -73.883507, 40.732967 ] } },
{ "type": "Feature", "properties": { "resource_id": "facdb:eecc0eaa809cccaef040846f8ce73032", "name": "Newtown High School (24Q455)", "category": "children-and-youth", "source": "facdb", "is_coad_member": false }, "geometry": { "type": "Point", "coordinates": [ -73.874108, 40.740813 ] } },
{ "type": "Feature", "properties": { "resource_id": "facdb:ef3fb3e7ee6e2eded6de5493eb08eeed", "name": "Elmhurst Voyages High School", "category": "health-care", "source": "facdb", "is_coad_member": false }, "geometry": { "type": "Point", "coordinates": [ -73.871499, 40.743368 ] } },
{ "type": "Feature", "properties": { "resource_id": "facdb:f08877a339d711f6974e96fd654e5556", "name": "United Sherpa Association (USA) Inc.", "category": "libraries-and-community", "source": "facdb", "is_coad_member": false }, "geometry": { "type": "Point", "coordinates": [ -73.889852, 40.74518 ] } },
{ "type": "Feature", "properties": { "resource_id": "facdb:f1840cdd9c78f6809a963f1da46c2019", "name": "Tung Ching Chinese Center for the Arts, Inc.", "category": "libraries-and-community", "source": "facdb", "is_coad_member": false }, "geometry": { "type": "Point", "coordinates": [ -73.872865, 40.73699 ] } },
{ "type": "Feature", "properties": { "resource_id": "facdb:f33954852f0d2fc8fe3f64616bdbca4b", "name": "Elmhurst Hospital Center", "category": "health-care", "source": "facdb", "is_coad_member": false }, "geometry": { "type": "Point", "coordinates": [ -73.878351, 40.73871 ] } },
{ "type": "Feature", "properties": { "resource_id": "facdb:f435e21ba37f31d76d28eb39bf9c4bc2", "name": "Moore Homestead Playground", "category": "parks-and-environment", "source": "facdb", "is_coad_member": false }, "geometry": { "type": "Point", "coordinates": [ -73.882397, 40.742142 ] } },
{ "type": "Feature", "properties": { "resource_id": "facdb:f831336ebbd2b65206c676e637538bed", "name": "Park", "category": "parks-and-environment", "source": "facdb", "is_coad_member": false }, "geometry": { "type": "Point", "coordinates": [ -73.876912, 40.731047 ] } },
{ "type": "Feature", "properties": { "resource_id": "facdb:f83c766657f598e863311c82b28902d9", "name": "Roosevelt Community Health Center of Excellence", "category": "health-care", "source": "facdb", "is_coad_member": false }, "geometry": { "type": "Point", "coordinates": [ -73.894425, 40.7472 ] } },
{ "type": "Feature", "properties": { "resource_id": "facdb:fb2b23c15aaad1cc78619c19f5f1453f", "name": "Simeone Park", "category": "parks-and-environment", "source": "facdb", "is_coad_member": false }, "geometry": { "type": "Point", "coordinates": [ -73.860082, 40.74139 ] } },
{ "type": "Feature", "properties": { "resource_id": "facdb:fb4e0330398e951c34476e0a87592715", "name": "Christian Testimony Church", "category": "children-and-youth", "source": "facdb", "is_coad_member": false }, "geometry": { "type": "Point", "coordinates": [ -73.878159, 40.742884 ] } },
{ "type": "Feature", "properties": { "resource_id": "facdb:fb8d781e039515bab358c3312c373607", "name": "Madison York Assisted Living Community, LLC", "category": "health-care", "source": "facdb", "is_coad_member": false }, "geometry": { "type": "Point", "coordinates": [ -73.84846, 40.739626 ] } },
{ "type": "Feature", "properties": { "resource_id": "facdb:fc160b5cff589be186b0e6449efee84a", "name": "Pan American International High School (24Q296)", "category": "children-and-youth", "source": "facdb", "is_coad_member": false }, "geometry": { "type": "Point", "coordinates": [ -73.871499, 40.743368 ] } },
{ "type": "Feature", "properties": { "resource_id": "facdb:fd0fac97baee51eaaddc6a523e0802b0", "name": "Central Queens YM & YWHA", "category": "children-and-youth", "source": "facdb", "is_coad_member": false }, "geometry": { "type": "Point", "coordinates": [ -73.886468, 40.738922 ] } },
{ "type": "Feature", "properties": { "resource_id": "facdb:fd16ea2d75171c0506d0892c3f32a34b", "name": "Corona Golf Playground", "category": "parks-and-environment", "source": "facdb", "is_coad_member": false }, "geometry": { "type": "Point", "coordinates": [ -73.854036, 40.747759 ] } },
{ "type": "Feature", "properties": { "resource_id": "facdb:fd94c42bce6efec9ec490ed9aa2d4197", "name": "PS 14 Fairview", "category": "health-care", "source": "facdb", "is_coad_member": false }, "geometry": { "type": "Point", "coordinates": [ -73.854399, 40.741021 ] } },
{ "type": "Feature", "properties": { "resource_id": "facdb:fee59dd790782460fcb8f73fa14d8121", "name": "Veteran's Square", "category": "parks-and-environment", "source": "facdb", "is_coad_member": false }, "geometry": { "type": "Point", "coordinates": [ -73.863286, 40.747702 ] } },
{ "type": "Feature", "properties": { "resource_id": "facdb:ff56aaefc9bc278f266ad74d7c366024", "name": "Hanac, Inc.", "category": "children-and-youth", "source": "facdb", "is_coad_member": false }, "geometry": { "type": "Point", "coordinates": [ -73.866777, 40.749069 ] } },
{ "type": "Feature", "properties": { "resource_id": "qnpd:commonpoint-the-jack-and-shirley-silver-hub", "name": "Commonpoint - The Jack and Shirley Silver Hub", "category": "education-and-jobs", "source": "qnpd", "is_coad_member": false }, "geometry": { "type": "Point", "coordinates": [ -73.886476, 40.738917 ] } },
{ "type": "Feature", "properties": { "resource_id": "qnpd:italian-charities-of-america", "name": "Italian Charities of America", "category": "libraries-and-community", "source": "qnpd", "is_coad_member": false }, "geometry": { "type": "Point", "coordinates": [ -73.879739, 40.736805 ] } },
{ "type": "Feature", "properties": { "resource_id": "qnpd:minority-empowerment-network", "name": "Minority Empowerment Network", "category": "mental-health-and-recovery", "source": "qnpd", "is_coad_member": false }, "geometry": { "type": "Point", "coordinates": [ -73.889788, 40.746696 ] } },
{ "type": "Feature", "properties": { "resource_id": "qnpd:new-immigrant-community-empowerment-nice--1", "name": "New Immigrant Community Empowerment (NICE)", "category": "immigration-and-language", "source": "qnpd", "is_coad_member": false }, "geometry": { "type": "Point", "coordinates": [ -73.892842, 40.746898 ] } },
{ "type": "Feature", "properties": { "resource_id": "qnpd:new-immigrant-community-empowerment-nice--2", "name": "New Immigrant Community Empowerment (NICE)", "category": "education-and-jobs", "source": "qnpd", "is_coad_member": false }, "geometry": { "type": "Point", "coordinates": [ -73.892842, 40.746898 ] } },
{ "type": "Feature", "properties": { "resource_id": "qnpd:new-york-tibetan-service-center--1", "name": "New York Tibetan Service Center", "category": "benefits-and-legal", "source": "qnpd", "is_coad_member": false }, "geometry": { "type": "Point", "coordinates": [ -73.887577, 40.73928 ] } },
{ "type": "Feature", "properties": { "resource_id": "qnpd:new-york-tibetan-service-center--2", "name": "New York Tibetan Service Center", "category": "immigration-and-language", "source": "qnpd", "is_coad_member": false }, "geometry": { "type": "Point", "coordinates": [ -73.887577, 40.73928 ] } }
]
}
