{
"type": "FeatureCollection",
"name": "q05",
"features": [
{ "type": "Feature", "properties": { "resource_id": "facdb:003289bd5abac8d32f751c40bebd986d", "name": "Bushwick Center for Rehabilitation and Health Care", "category": "health-care", "source": "facdb", "is_coad_member": false }, "geometry": { "type": "Point", "coordinates": [ -73.900902, 40.704689 ] } },
{ "type": "Feature", "properties": { "resource_id": "facdb:019e895c402489cc810237a89a0e53b4", "name": "Pre-K Center at 68-10 Central Avenue", "category": "children-and-youth", "source": "facdb", "is_coad_member": false }, "geometry": { "type": "Point", "coordinates": [ -73.884051, 40.703542 ] } },
{ "type": "Feature", "properties": { "resource_id": "facdb:01ac245d7598c8a4364f72358d406690", "name": "Middle Village Veterans Triangle", "category": "parks-and-environment", "source": "facdb", "is_coad_member": false }, "geometry": { "type": "Point", "coordinates": [ -73.877265, 40.714464 ] } },
{ "type": "Feature", "properties": { "resource_id": "facdb:02164d9962e51d81389d01146bb7ab88", "name": "Park", "category": "parks-and-environment", "source": "facdb", "is_coad_member": false }, "geometry": { "type": "Point", "coordinates": [ -73.895773, 40.729135 ] } },
{ "type": "Feature", "properties": { "resource_id": "facdb:024a46344604967e76cba9bc185daa96", "name": "Ridgewood Communicare Clinic", "category": "health-care", "source": "facdb", "is_coad_member": false }, "geometry": { "type": "Point", "coordinates": [ -73.905378, 40.703055 ] } },
{ "type": "Feature", "properties": { "resource_id": "facdb:02cb698f33a96d5ab6deb0cb9df019c1", "name": "Glendale", "category": "libraries-and-community", "source": "facdb", "is_coad_member": false }, "geometry": { "type": "Point", "coordinates": [ -73.875799, 40.702581 ] } },
{ "type": "Feature", "properties": { "resource_id": "facdb:02e54f89399f6bb2ad30a5125f1fd418", "name": "Highland Park", "category": "parks-and-environment", "source": "facdb", "is_coad_member": false }, "geometry": { "type": "Point", "coordinates": [ -73.888354, 40.687724 ] } },
{ "type": "Feature", "properties": { "resource_id": "facdb:0383b93d997fbb43399f7484cb465afe", "name": "The Greater Ridgewood Youth Council Inc", "category": "children-and-youth", "source": "facdb", "is_coad_member": false }, "geometry": { "type": "Point", "coordinates": [ -73.896406, 40.704088 ] } },
{ "type": "Feature", "properties": { "resource_id": "facdb:041e60005734505a50f60881796955ce", "name": "Park", "category": "parks-and-environment", "source": "facdb", "is_coad_member": false }, "geometry": { "type": "Point", "coordinates": [ -73.889751, 40.725792 ] } },
{ "type": "Feature", "properties": { "resource_id": "facdb:061bdcf21d4068330d8dd80553aeb409", "name": "Selfhelp Community Services Inc", "category": "older-adults", "source": "facdb", "is_coad_member": false }, "geometry": { "type": "Point", "coordinates": [ -73.893702, 40.727231 ] } },
{ "type": "Feature", "properties": { "resource_id": "facdb:068412ac6c6877d499a88e8fa4b2f949", "name": "Central Ridgewood Historic District", "category": "parks-and-environment", "source": "facdb", "is_coad_member": false }, "geometry": { "type": "Point", "coordinates": [ -73.898381, 40.703051 ] } },
{ "type": "Feature", "properties": { "resource_id": "facdb:0aea34598ba541a290df33070ce1fb7a", "name": "The Greater Ridgewood Youth Council Inc", "category": "children-and-youth", "source": "facdb", "is_coad_member": false }, "geometry": { "type": "Point", "coordinates": [ -73.89816, 40.699503 ] } },
{ "type": "Feature", "properties": { "resource_id": "facdb:0c686f5f63b0a476ff29958755427201", "name": "Yeshua Worldwide Ministries Food Pantry : Yeshua Worldwide Ministries Food Pantry", "category": "food-assistance", "source": "facdb", "is_coad_member": false }, "geometry": { "type": "Point", "coordinates": [ -73.880222, 40.725791 ] } },
{ "type": "Feature", "properties": { "resource_id": "facdb:0da55f5f4f22789439351902d0994497", "name": "Venditti Square Plaza", "category": "parks-and-environment", "source": "facdb", "is_coad_member": false }, "geometry": { "type": "Point", "coordinates": [ -73.909416, 40.699951 ] } },
{ "type": "Feature", "properties": { "resource_id": "facdb:0e330e57e58096b84dd522f8ff500810", "name": "Cornelia-Putnam Historic District", "category": "parks-and-environment", "source": "facdb", "is_coad_member": false }, "geometry": { "type": "Point", "coordinates": [ -73.907118, 40.698989 ] } },
{ "type": "Feature", "properties": { "resource_id": "facdb:0e67082253a9fc7863d2457073d39e62", "name": "St Stanislaus Roman Catholic Church", "category": "children-and-youth", "source": "facdb", "is_coad_member": false }, "geometry": { "type": "Point", "coordinates": [ -73.904327, 40.722548 ] } },
{ "type": "Feature", "properties": { "resource_id": "facdb:103a65511b7e4bb119689e92da5da8b3", "name": "St John's Ridgewood United, Inc.", "category": "children-and-youth", "source": "facdb", "is_coad_member": false }, "geometry": { "type": "Point", "coordinates": [ -73.909712, 40.703567 ] } },
{ "type": "Feature", "properties": { "resource_id": "facdb:10671e416b3fbcc9b14544b0583f53e9", "name": "The Greater Ridgewood Youth Council Inc", "category": "children-and-youth", "source": "facdb", "is_coad_member": false }, "geometry": { "type": "Point", "coordinates": [ -73.902342, 40.699042 ] } },
{ "type": "Feature", "properties": { "resource_id": "facdb:12dc8026a9c02f8579330a2400b42586", "name": "Sitting Area 127 Cxxvii", "category": "parks-and-environment", "source": "facdb", "is_coad_member": false }, "geometry": { "type": "Point", "coordinates": [ -73.892136, 40.725016 ] } },
{ "type": "Feature", "properties": { "resource_id": "facdb:12fab5967b90b1267f7008293608d64a", "name": "I.S. 73 the Frank Sansivieri Intermediate", "category": "children-and-youth", "source": "facdb", "is_coad_member": false }, "geometry": { "type": "Point", "coordinates": [ -73.893385, 40.728691 ] } },
{ "type": "Feature", "properties": { "resource_id": "facdb:135e9de07b2fa7e52fedc6980b7d4bc0", "name": "MADISON-PUTNAM-60TH Place Historic District", "category": "parks-and-environment", "source": "facdb", "is_coad_member": false }, "geometry": { "type": "Point", "coordinates": [ -73.900475, 40.705858 ] } },
{ "type": "Feature", "properties": { "resource_id": "facdb:13f6832de184c7d33bd8be6d3f759381", "name": "New York City Street Photography Collective", "category": "libraries-and-community", "source": "facdb", "is_coad_member": false }, "geometry": { "type": "Point", "coordinates": [ -73.90825, 40.700805 ] } },
{ "type": "Feature", "properties": { "resource_id": "facdb:170eb239f1fc6e89b017007480e8b54a", "name": "Maspeth Town Hall, Inc.", "category": "children-and-youth", "source": "facdb", "is_coad_member": false }, "geometry": { "type": "Point", "coordinates": [ -73.893385, 40.728691 ] } },
{ "type": "Feature", "properties": { "resource_id": "facdb:19b761c9eab005460de5cf92452d116c", "name": "Musica Reginae Productions, Ltd.", "category": "libraries-and-community", "source": "facdb", "is_coad_member": false }, "geometry": { "type": "Point", "coordinates": [ -73.906333, 40.721698 ] } },
{ "type": "Feature", "properties": { "resource_id": "facdb:1a9c14beec8c85cc571300e7f15d1485", "name": "The Greater Ridgewood Youth Council Inc", "category": "children-and-youth", "source": "facdb", "is_coad_member": false }, "geometry": { "type": "Point", "coordinates": [ -73.89816, 40.699503 ] } },
{ "type": "Feature", "properties": { "resource_id": "facdb:1b0e23e1a1e169ecfddb499b2f90c938", "name": "Blau-Weiss Gottschee Inc", "category": "children-and-youth", "source": "facdb", "is_coad_member": false }, "geometry": { "type": "Point", "coordinates": [ -73.875488, 40.719655 ] } },
{ "type": "Feature", "properties": { "resource_id": "facdb:1dd805071268d3b906a48a8166f3f84b", "name": "Whitefish Triangle", "category": "parks-and-environment", "source": "facdb", "is_coad_member": false }, "geometry": { "type": "Point", "coordinates": [ -73.898895, 40.725183 ] } },
{ "type": "Feature", "properties": { "resource_id": "facdb:1e7b03d615f7e8d0cdbacec9d851b4bf", "name": "Ridgewood", "category": "libraries-and-community", "source": "facdb", "is_coad_member": false }, "geometry": { "type": "Point", "coordinates": [ -73.902573, 40.705179 ] } },
{ "type": "Feature", "properties": { "resource_id": "facdb:1ec47738dbc03bdb7412623506234184", "name": "Our Lady of the Miraculous Medal Roman Catholic Church", "category": "children-and-youth", "source": "facdb", "is_coad_member": false }, "geometry": { "type": "Point", "coordinates": [ -73.902872, 40.711598 ] } },
{ "type": "Feature", "properties": { "resource_id": "facdb:1f73904743dd06b0d3347becf0681c9c", "name": "Our Lady of the Miracle Medal", "category": "children-and-youth", "source": "facdb", "is_coad_member": false }, "geometry": { "type": "Point", "coordinates": [ -73.902872, 40.711598 ] } },
{ "type": "Feature", "properties": { "resource_id": "facdb:20fa463c78da50a56a88b221cc02ad24", "name": "Main Street Radiology at Bayside", "category": "health-care", "source": "facdb", "is_coad_member": false }, "geometry": { "type": "Point", "coordinates": [ -73.865782, 40.710377 ] } },
{ "type": "Feature", "properties": { "resource_id": "facdb:23c5ac9f45365c9e8781ed9403470b88", "name": "Juniper Valley Park #2", "category": "children-and-youth", "source": "facdb", "is_coad_member": false }, "geometry": { "type": "Point", "coordinates": [ -73.880765, 40.717355 ] } },
{ "type": "Feature", "properties": { "resource_id": "facdb:25d950edce8aa0aaad02b9c87e1aef96", "name": "Sanitation Police Enforcement", "category": "emergency-services", "source": "facdb", "is_coad_member": false }, "geometry": { "type": "Point", "coordinates": [ -73.915681, 40.714186 ] } },
{ "type": "Feature", "properties": { "resource_id": "facdb:279596651f821cc6ff3c06ec8ac46660", "name": "Park", "category": "parks-and-environment", "source": "facdb", "is_coad_member": false }, "geometry": { "type": "Point", "coordinates": [ -73.879273, 40.728758 ] } },
{ "type": "Feature", "properties": { "resource_id": "facdb:2845508c4044fe87e29c397b3b09f5db", "name": "Evergreen Park", "category": "parks-and-environment", "source": "facdb", "is_coad_member": false }, "geometry": { "type": "Point", "coordinates": [ -73.896669, 40.697537 ] } },
{ "type": "Feature", "properties": { "resource_id": "facdb:28e016c78e285714357693e10adba4ef", "name": "Maspeth Town Hall, Inc.", "category": "libraries-and-community", "source": "facdb", "is_coad_member": false }, "geometry": { "type": "Point", "coordinates": [ -73.892143, 40.730374 ] } },
{ "type": "Feature", "properties": { "resource_id": "facdb:2a8227b25d2e7eeba6ca010e87d298af", "name": "Seneca-Onderdonk-Woodward Historic District", "category": "parks-and-environment", "source": "facdb", "is_coad_member": false }, "geometry": { "type": "Point", "coordinates": [ -73.904267, 40.702579 ] } },
{ "type": "Feature", "properties": { "resource_id": "facdb:2c62562bfd9d483940b78c48f5922230", "name": "Gryc Summer Learning Experience", "category": "children-and-youth", "source": "facdb", "is_coad_member": false }, "geometry": { "type": "Point", "coordinates": [ -73.893138, 40.700688 ] } },
{ "type": "Feature", "properties": { "resource_id": "facdb:303dcdad58d6d00ce1ada71b3f32c0ea", "name": "Benninger Playground", "category": "parks-and-environment", "source": "facdb", "is_coad_member": false }, "geometry": { "type": "Point", "coordinates": [ -73.898282, 40.707057 ] } },
{ "type": "Feature", "properties": { "resource_id": "facdb:30a574b1d0e2db3ef8dfeaf2d30fd69a", "name": "Myrtle/Cooper Plaza", "category": "parks-and-environment", "source": "facdb", "is_coad_member": false }, "geometry": { "type": "Point", "coordinates": [ -73.88093, 40.701826 ] } },
{ "type": "Feature", "properties": { "resource_id": "facdb:30a7854f49e71dd04b116a48f61f4a2e", "name": "Herman Hochberg Plaza", "category": "parks-and-environment", "source": "facdb", "is_coad_member": false }, "geometry": { "type": "Point", "coordinates": [ -73.899444, 40.700627 ] } },
{ "type": "Feature", "properties": { "resource_id": "facdb:3196cbf001cb1a8133a5974c9b365757", "name": "The Greater Ridgewood Youth Council Inc", "category": "children-and-youth", "source": "facdb", "is_coad_member": false }, "geometry": { "type": "Point", "coordinates": [ -73.871802, 40.711585 ] } },
{ "type": "Feature", "properties": { "resource_id": "facdb:327d720f71b5aa1a2f725dcdc4f863f2", "name": "Rosemary's Playground", "category": "parks-and-environment", "source": "facdb", "is_coad_member": false }, "geometry": { "type": "Point", "coordinates": [ -73.904435, 40.704624 ] } },
{ "type": "Feature", "properties": { "resource_id": "facdb:32d1ca21a54e1e44a4856ce65ca649d3", "name": "The Greater Ridgewood Youth Council Inc", "category": "children-and-youth", "source": "facdb", "is_coad_member": false }, "geometry": { "type": "Point", "coordinates": [ -73.911998, 40.703845 ] } },
{ "type": "Feature", "properties": { "resource_id": "facdb:332ceef8afadea3564a2ed6143d07243", "name": "P.S./I.S. 87 Middle Village", "category": "children-and-youth", "source": "facdb", "is_coad_member": false }, "geometry": { "type": "Point", "coordinates": [ -73.871802, 40.711585 ] } },
{ "type": "Feature", "properties": { "resource_id": "facdb:335254f929857470409a8df160edf3b1", "name": "P.S. 128 the Lorraine Tuzzo Juniper Valley Elementary School", "category": "children-and-youth", "source": "facdb", "is_coad_member": false }, "geometry": { "type": "Point", "coordinates": [ -73.886143, 40.714965 ] } },
{ "type": "Feature", "properties": { "resource_id": "facdb:38f99d9d3266265bd6940be377d19f7d", "name": "Central Avenue Historic District", "category": "parks-and-environment", "source": "facdb", "is_coad_member": false }, "geometry": { "type": "Point", "coordinates": [ -73.889598, 40.702928 ] } },
{ "type": "Feature", "properties": { "resource_id": "facdb:395a65647855cad38de65e14a52dc9eb", "name": "Maspeth Town Hall, Inc.", "category": "children-and-youth", "source": "facdb", "is_coad_member": false }, "geometry": { "type": "Point", "coordinates": [ -73.897085, 40.73464 ] } },
{ "type": "Feature", "properties": { "resource_id": "facdb:39f8156be6294ed05ddda63d5f3dddef", "name": "The Greater Ridgewood Youth Council Inc", "category": "children-and-youth", "source": "facdb", "is_coad_member": false }, "geometry": { "type": "Point", "coordinates": [ -73.904786, 40.711414 ] } },
{ "type": "Feature", "properties": { "resource_id": "facdb:3c2c8d0d4569e5fbeeedcb4147cbcc47", "name": "Starr Playground", "category": "parks-and-environment", "source": "facdb", "is_coad_member": false }, "geometry": { "type": "Point", "coordinates": [ -73.917806, 40.709786 ] } },
{ "type": "Feature", "properties": { "resource_id": "facdb:3d19f45d232081a8f424593f607ad79e", "name": "P.S. 128 the Lorraine Tuzzo Juniper Valley Elementary School", "category": "children-and-youth", "source": "facdb", "is_coad_member": false }, "geometry": { "type": "Point", "coordinates": [ -73.886143, 40.714965 ] } },
{ "type": "Feature", "properties": { "resource_id": "facdb:3e4c5fa672673eafc7727d823ae39a5f", "name": "The Greater Ridgewood Youth Council Inc", "category": "children-and-youth", "source": "facdb", "is_coad_member": false }, "geometry": { "type": "Point", "coordinates": [ -73.888465, 40.710746 ] } },
{ "type": "Feature", "properties": { "resource_id": "facdb:4487c58cb2de3db8c50b8ed3af8cb3e2", "name": "Vander Ende--Onderdonk House Site", "category": "parks-and-environment", "source": "facdb", "is_coad_member": false }, "geometry": { "type": "Point", "coordinates": [ -73.919587, 40.710821 ] } },
{ "type": "Feature", "properties": { "resource_id": "facdb:489827a3b035e69e59f6535bfdfa644a", "name": "Greater Ridgewood Youth Council, Inc.", "category": "libraries-and-community", "source": "facdb", "is_coad_member": false }, "geometry": { "type": "Point", "coordinates": [ -73.89816, 40.699503 ] } },
{ "type": "Feature", "properties": { "resource_id": "facdb:4a8379f1d6e728cdd3ccf7b2b0d6a56f", "name": "Frank Principe Park", "category": "parks-and-environment", "source": "facdb", "is_coad_member": false }, "geometry": { "type": "Point", "coordinates": [ -73.904744, 40.727459 ] } },
{ "type": "Feature", "properties": { "resource_id": "facdb:4a888cc6550771fe734931d8df6f634a", "name": "New York Career and Business School,", "category": "education-and-jobs", "source": "facdb", "is_coad_member": false }, "geometry": { "type": "Point", "coordinates": [ -73.909045, 40.699576 ] } },
{ "type": "Feature", "properties": { "resource_id": "facdb:4a8ae3574d11b6499226f65620fc7a7b", "name": "St. Matthias Rc Church Complex", "category": "parks-and-environment", "source": "facdb", "is_coad_member": false }, "geometry": { "type": "Point", "coordinates": [ -73.90253, 40.702157 ] } },
{ "type": "Feature", "properties": { "resource_id": "facdb:4ad290860cb59afbf6cc058a5378e081", "name": "Usda-Ceo P075Q at PS 88Q", "category": "children-and-youth", "source": "facdb", "is_coad_member": false }, "geometry": { "type": "Point", "coordinates": [ -73.896406, 40.704088 ] } },
{ "type": "Feature", "properties": { "resource_id": "facdb:4c49d4249ec4a5d66b775b3792123aa4", "name": "Usda Ceo P721Q at Maspeth Senior Ctr", "category": "children-and-youth", "source": "facdb", "is_coad_member": false }, "geometry": { "type": "Point", "coordinates": [ -73.893702, 40.727231 ] } },
{ "type": "Feature", "properties": { "resource_id": "facdb:4df8f6cd562624416b74ac8151d2fbbf", "name": "68th AVENUE-64TH Place Historic District", "category": "parks-and-environment", "source": "facdb", "is_coad_member": false }, "geometry": { "type": "Point", "coordinates": [ -73.89368, 40.705769 ] } },
{ "type": "Feature", "properties": { "resource_id": "facdb:4e93db126ab5a66faa1da14399f285b6", "name": "Trap, Neuter & Return of Feral Cats - Council District 32", "category": "children-and-youth", "source": "facdb", "is_coad_member": false }, "geometry": { "type": "Point", "coordinates": [ -73.880971, 40.71797 ] } },
{ "type": "Feature", "properties": { "resource_id": "facdb:4ed85a9080a14de7826e85ce543f3487", "name": "Park", "category": "parks-and-environment", "source": "facdb", "is_coad_member": false }, "geometry": { "type": "Point", "coordinates": [ -73.890795, 40.726383 ] } },
{ "type": "Feature", "properties": { "resource_id": "facdb:50d4dfae0f16f50207756e996fa93b0c", "name": "Juniper Valley Park", "category": "parks-and-environment", "source": "facdb", "is_coad_member": false }, "geometry": { "type": "Point", "coordinates": [ -73.880425, 40.720184 ] } },
{ "type": "Feature", "properties": { "resource_id": "facdb:5168415c40c42c68a0433415774a7d27", "name": "Queens Library - Glendale", "category": "children-and-youth", "source": "facdb", "is_coad_member": false }, "geometry": { "type": "Point", "coordinates": [ -73.876986, 40.705987 ] } },
{ "type": "Feature", "properties": { "resource_id": "facdb:5372b5c9f5e92e0294bf8135ed0d98f1", "name": "Ridgewood Property Owners and Civic Association Inc", "category": "children-and-youth", "source": "facdb", "is_coad_member": false }, "geometry": { "type": "Point", "coordinates": [ -73.901191, 40.701819 ] } },
{ "type": "Feature", "properties": { "resource_id": "facdb:53c58d8b36ea5a72370933f0aaa3b30d", "name": "Ridge Care Dialysis", "category": "health-care", "source": "facdb", "is_coad_member": false }, "geometry": { "type": "Point", "coordinates": [ -73.903823, 40.69993 ] } },
{ "type": "Feature", "properties": { "resource_id": "facdb:53fa1d853500fe924e55fbaf6a85d6b5", "name": "All Faiths Restoration & Beautification Program, Inc", "category": "libraries-and-community", "source": "facdb", "is_coad_member": false }, "geometry": { "type": "Point", "coordinates": [ -73.889045, 40.712559 ] } },
{ "type": "Feature", "properties": { "resource_id": "facdb:567268784839c37c8bd5177f76b5fed7", "name": "Queens Library-Ridgewood", "category": "children-and-youth", "source": "facdb", "is_coad_member": false }, "geometry": { "type": "Point", "coordinates": [ -73.902573, 40.705179 ] } },
{ "type": "Feature", "properties": { "resource_id": "facdb:587faaf6f1fd102918da6f5184fae8e0", "name": "\"Uncle\" Vito F. Maranzano Glendale Playground", "category": "parks-and-environment", "source": "facdb", "is_coad_member": false }, "geometry": { "type": "Point", "coordinates": [ -73.881757, 40.704932 ] } },
{ "type": "Feature", "properties": { "resource_id": "facdb:58cc7713294f6807c482e2417afc8851", "name": "Blau-Weiss Gottschee Inc", "category": "children-and-youth", "source": "facdb", "is_coad_member": false }, "geometry": { "type": "Point", "coordinates": [ -73.893385, 40.728691 ] } },
{ "type": "Feature", "properties": { "resource_id": "facdb:598299a6bec5e6590b83a253a55b59ee", "name": "The Greater Ridgewood Youth Council Inc", "category": "children-and-youth", "source": "facdb", "is_coad_member": false }, "geometry": { "type": "Point", "coordinates": [ -73.904088, 40.716414 ] } },
{ "type": "Feature", "properties": { "resource_id": "facdb:5a3f031b81eb92e2fb317269e831726d", "name": "Ridgewood Fresh Pond Road-Myrtle Avenue Historic District", "category": "parks-and-environment", "source": "facdb", "is_coad_member": false }, "geometry": { "type": "Point", "coordinates": [ -73.899111, 40.702974 ] } },
{ "type": "Feature", "properties": { "resource_id": "facdb:5a762ae676f44ed7697446e351459202", "name": "I.S. 119 the Glendale", "category": "children-and-youth", "source": "facdb", "is_coad_member": false }, "geometry": { "type": "Point", "coordinates": [ -73.87495, 40.704991 ] } },
{ "type": "Feature", "properties": { "resource_id": "facdb:5c23d9f85d05424dcba9dddc22e2d667", "name": "Peter Cardella Senior Citizen Center Inc", "category": "older-adults", "source": "facdb", "is_coad_member": false }, "geometry": { "type": "Point", "coordinates": [ -73.895974, 40.703652 ] } },
{ "type": "Feature", "properties": { "resource_id": "facdb:5ea01fe993c194dadb9a6d5e0db1faed", "name": "Ridgewood Reservoir", "category": "parks-and-environment", "source": "facdb", "is_coad_member": false }, "geometry": { "type": "Point", "coordinates": [ -73.886852, 40.688736 ] } },
{ "type": "Feature", "properties": { "resource_id": "facdb:616455a9e0cb574e97510c7d74921887", "name": "Polonians Organized to Minister to Our Community, Inc", "category": "children-and-youth", "source": "facdb", "is_coad_member": false }, "geometry": { "type": "Point", "coordinates": [ -73.897592, 40.70716 ] } },
{ "type": "Feature", "properties": { "resource_id": "facdb:61cb36d6d7e9353ccdba67cfba7476b3", "name": "Bright Kids of Middle Village", "category": "children-and-youth", "source": "facdb", "is_coad_member": false }, "geometry": { "type": "Point", "coordinates": [ -73.876167, 40.728404 ] } },
{ "type": "Feature", "properties": { "resource_id": "facdb:639c0d9ad957db8f2c5f887b74e362c0", "name": "Myrtle Avenue Clemens Triangle", "category": "parks-and-environment", "source": "facdb", "is_coad_member": false }, "geometry": { "type": "Point", "coordinates": [ -73.906626, 40.700185 ] } },
{ "type": "Feature", "properties": { "resource_id": "facdb:63ba7f0a920e15ecaa605629b3fcfb64", "name": "Middle Village Playground", "category": "parks-and-environment", "source": "facdb", "is_coad_member": false }, "geometry": { "type": "Point", "coordinates": [ -73.873626, 40.710095 ] } },
{ "type": "Feature", "properties": { "resource_id": "facdb:63d5b30e02a88ce81086c68d005a99b2", "name": "Woodbine-Palmetto-Gates Historic District", "category": "parks-and-environment", "source": "facdb", "is_coad_member": false }, "geometry": { "type": "Point", "coordinates": [ -73.904155, 40.706731 ] } },
{ "type": "Feature", "properties": { "resource_id": "facdb:6478e5138e15b5b03e1b830dd9dc5beb", "name": "Quick Brown Fox Triangle", "category": "parks-and-environment", "source": "facdb", "is_coad_member": false }, "geometry": { "type": "Point", "coordinates": [ -73.888785, 40.727537 ] } },
{ "type": "Feature", "properties": { "resource_id": "facdb:64cbdba17b8d2206dd45f04c9a835ca6", "name": "Frontera Park", "category": "parks-and-environment", "source": "facdb", "is_coad_member": false }, "geometry": { "type": "Point", "coordinates": [ -73.895371, 40.724676 ] } },
{ "type": "Feature", "properties": { "resource_id": "facdb:64f5783af41418fb082dda57960a9713", "name": "The Glendale Civilian Observation Patrol, Inc.", "category": "children-and-youth", "source": "facdb", "is_coad_member": false }, "geometry": { "type": "Point", "coordinates": [ -73.880109, 40.701747 ] } },
{ "type": "Feature", "properties": { "resource_id": "facdb:65d1b8016b177a2c8cf9918fa6d57b1c", "name": "The Legacy Center Community Development Corp. : the Legacy Center Community Development Corp.", "category": "food-assistance", "source": "facdb", "is_coad_member": false }, "geometry": { "type": "Point", "coordinates": [ -73.8923, 40.701519 ] } },
{ "type": "Feature", "properties": { "resource_id": "facdb:68cd803631b2ab1de2317175c2c068ed", "name": "New York City H2O Inc", "category": "children-and-youth", "source": "facdb", "is_coad_member": false }, "geometry": { "type": "Point", "coordinates": [ -73.887702, 40.729098 ] } },
{ "type": "Feature", "properties": { "resource_id": "facdb:6cde2ad8072de17d3f813205652187b4", "name": "P.S. 49 Dorothy Bonawit Kole", "category": "children-and-youth", "source": "facdb", "is_coad_member": false }, "geometry": { "type": "Point", "coordinates": [ -73.875488, 40.719655 ] } },
{ "type": "Feature", "properties": { "resource_id": "facdb:6db0976ede309df4e4698ee99aca80cb", "name": "The Greater Ridgewood Youth Council Inc", "category": "children-and-youth", "source": "facdb", "is_coad_member": false }, "geometry": { "type": "Point", "coordinates": [ -73.899724, 40.701027 ] } },
{ "type": "Feature", "properties": { "resource_id": "facdb:6ed2c0e5ff8630e77085f51c66cabd6c", "name": "Outreach House", "category": "children-and-youth", "source": "facdb", "is_coad_member": false }, "geometry": { "type": "Point", "coordinates": [ -73.881865, 40.697965 ] } },
{ "type": "Feature", "properties": { "resource_id": "facdb:6fb0211cec3adbb798b6be7832e696aa", "name": "The Greater Ridgewood Restoration Corporation", "category": "children-and-youth", "source": "facdb", "is_coad_member": false }, "geometry": { "type": "Point", "coordinates": [ -73.901046, 40.702216 ] } },
{ "type": "Feature", "properties": { "resource_id": "facdb:720e3de9397577bac560759abce0927f", "name": "I.S. 77", "category": "children-and-youth", "source": "facdb", "is_coad_member": false }, "geometry": { "type": "Point", "coordinates": [ -73.902342, 40.699042 ] } },
{ "type": "Feature", "properties": { "resource_id": "facdb:729ad224cce79e6a5cf4790048155916", "name": "Bright Kids of Middle Village", "category": "children-and-youth", "source": "facdb", "is_coad_member": false }, "geometry": { "type": "Point", "coordinates": [ -73.876167, 40.728404 ] } },
{ "type": "Feature", "properties": { "resource_id": "facdb:731d5b3468750c34cd50787f7a0f3940", "name": "Fms-Queens Kidney Care", "category": "health-care", "source": "facdb", "is_coad_member": false }, "geometry": { "type": "Point", "coordinates": [ -73.901867, 40.715799 ] } },
{ "type": "Feature", "properties": { "resource_id": "facdb:740f4ac385ac7dea4e2e57263eb8efa4", "name": "Fgp NYC Inc", "category": "libraries-and-community", "source": "facdb", "is_coad_member": false }, "geometry": { "type": "Point", "coordinates": [ -73.895821, 40.702229 ] } },
{ "type": "Feature", "properties": { "resource_id": "facdb:748ad91d1aef12f95e96de258e565809", "name": "Maspeth Town Hall, Inc.", "category": "children-and-youth", "source": "facdb", "is_coad_member": false }, "geometry": { "type": "Point", "coordinates": [ -73.875488, 40.719655 ] } },
{ "type": "Feature", "properties": { "resource_id": "facdb:7701697816aacb66e8f0873da7443256", "name": "PS 128 Annex", "category": "children-and-youth", "source": "facdb", "is_coad_member": false }, "geometry": { "type": "Point", "coordinates": [ -73.887, 40.715256 ] } },
{ "type": "Feature", "properties": { "resource_id": "facdb:770ce1237ed7263ebc233f227823fa83", "name": "Reiff Playground", "category": "parks-and-environment", "source": "facdb", "is_coad_member": false }, "geometry": { "type": "Point", "coordinates": [ -73.901936, 40.718855 ] } },
{ "type": "Feature", "properties": { "resource_id": "facdb:792049cd28a90de665368d8a06ebddcb", "name": "Polonians Organized to Minister to Our Community, Inc", "category": "benefits-and-legal", "source": "facdb", "is_coad_member": false }, "geometry": { "type": "Point", "coordinates": [ -73.897592, 40.70716 ] } },
{ "type": "Feature", "properties": { "resource_id": "facdb:7b54f41019903866263fb50c203ddcac", "name": "Technical Sergeant Thomas J. Davey Triangle", "category": "parks-and-environment", "source": "facdb", "is_coad_member": false }, "geometry": { "type": "Point", "coordinates": [ -73.900599, 40.726351 ] } },
{ "type": "Feature", "properties": { "resource_id": "facdb:7c9b33bb03d2989d64394f0aa92b5757", "name": "Madison York Home for Adults", "category": "health-care", "source": "facdb", "is_coad_member": false }, "geometry": { "type": "Point", "coordinates": [ -73.871039, 40.726995 ] } },
{ "type": "Feature", "properties": { "resource_id": "facdb:7e44bab6c96af283e47f76de9491b3e5", "name": "Park Slope", "category": "parks-and-environment", "source": "facdb", "is_coad_member": false }, "geometry": { "type": "Point", "coordinates": [ -73.90386, 40.72542 ] } },
{ "type": "Feature", "properties": { "resource_id": "facdb:7e86c6a37601ee7e8232307edfd85659", "name": "Park", "category": "parks-and-environment", "source": "facdb", "is_coad_member": false }, "geometry": { "type": "Point", "coordinates": [ -73.859012, 40.707658 ] } },
{ "type": "Feature", "properties": { "resource_id": "facdb:7ee4442c099051f89230ddef37afc3ca", "name": "Yarnwire, Inc.", "category": "libraries-and-community", "source": "facdb", "is_coad_member": false }, "geometry": { "type": "Point", "coordinates": [ -73.919861, 40.709889 ] } },
{ "type": "Feature", "properties": { "resource_id": "facdb:7f9665f81ae489f266cb70b537af4281", "name": "Ridgewood YMCA", "category": "children-and-youth", "source": "facdb", "is_coad_member": false }, "geometry": { "type": "Point", "coordinates": [ -73.894095, 40.704141 ] } },
{ "type": "Feature", "properties": { "resource_id": "facdb:810651cd5b315abe57de04d60d059cd7", "name": "P.S. 229 Emanuel Kaplan", "category": "children-and-youth", "source": "facdb", "is_coad_member": false }, "geometry": { "type": "Point", "coordinates": [ -73.897085, 40.73464 ] } },
{ "type": "Feature", "properties": { "resource_id": "facdb:8249ba605e464c2d20406bfe5f4324a1", "name": "The Greater Ridgewood Youth Council Inc", "category": "children-and-youth", "source": "facdb", "is_coad_member": false }, "geometry": { "type": "Point", "coordinates": [ -73.86167, 40.70544 ] } },
{ "type": "Feature", "properties": { "resource_id": "facdb:863f5046b3473b35e18c0863eb0e1798", "name": "Glendale Veterans Triangle", "category": "parks-and-environment", "source": "facdb", "is_coad_member": false }, "geometry": { "type": "Point", "coordinates": [ -73.880849, 40.70185 ] } },
{ "type": "Feature", "properties": { "resource_id": "facdb:8673afb1e40dd521627b4702d7a4a512", "name": "Bella Abzug Leadership Institute Inc", "category": "children-and-youth", "source": "facdb", "is_coad_member": false }, "geometry": { "type": "Point", "coordinates": [ -73.87495, 40.704991 ] } },
{ "type": "Feature", "properties": { "resource_id": "facdb:895a46109b380bf6b3e3b5c3a1d8b88a", "name": "The Greater Ridgewood Youth Council Inc", "category": "children-and-youth", "source": "facdb", "is_coad_member": false }, "geometry": { "type": "Point", "coordinates": [ -73.89816, 40.699503 ] } },
{ "type": "Feature", "properties": { "resource_id": "facdb:89bc277601fd3f2ebdb85a5747e8f4be", "name": "Destination Tomorrow Inc", "category": "children-and-youth", "source": "facdb", "is_coad_member": false }, "geometry": { "type": "Point", "coordinates": [ -73.897085, 40.73464 ] } },
{ "type": "Feature", "properties": { "resource_id": "facdb:8ac7588a7e6ebd4a9aa4fdc6e2a99260", "name": "Mafera Park", "category": "parks-and-environment", "source": "facdb", "is_coad_member": false }, "geometry": { "type": "Point", "coordinates": [ -73.891233, 40.707213 ] } },
{ "type": "Feature", "properties": { "resource_id": "facdb:8ccb22ca3e7cc4fbd4102d6aae01fe1e", "name": "Building Services/Stationery", "category": "government-offices", "source": "facdb", "is_coad_member": false }, "geometry": { "type": "Point", "coordinates": [ -73.909935, 40.719436 ] } },
{ "type": "Feature", "properties": { "resource_id": "facdb:8d8d04317d1f7b04341ad8dcca798157", "name": "Catalpa YMCA", "category": "children-and-youth", "source": "facdb", "is_coad_member": false }, "geometry": { "type": "Point", "coordinates": [ -73.904816, 40.700281 ] } },
{ "type": "Feature", "properties": { "resource_id": "facdb:8e9822b60754fd8123df48bfcbb7454b", "name": "Garlinge Triangle", "category": "parks-and-environment", "source": "facdb", "is_coad_member": false }, "geometry": { "type": "Point", "coordinates": [ -73.890883, 40.728359 ] } },
{ "type": "Feature", "properties": { "resource_id": "facdb:8f1667013a8ff8c059a4ede268c5147f", "name": "Hull Triangle", "category": "parks-and-environment", "source": "facdb", "is_coad_member": false }, "geometry": { "type": "Point", "coordinates": [ -73.90155, 40.725407 ] } },
{ "type": "Feature", "properties": { "resource_id": "facdb:8f44887a6839e1e9ad8cea3a70214f3a", "name": "The Greater Ridgewood Youth Council Inc", "category": "children-and-youth", "source": "facdb", "is_coad_member": false }, "geometry": { "type": "Point", "coordinates": [ -73.903066, 40.705612 ] } },
{ "type": "Feature", "properties": { "resource_id": "facdb:8fce81f22b2bcacbdf7bf09a86b22cd9", "name": "Evergreens Cemetery", "category": "parks-and-environment", "source": "facdb", "is_coad_member": false }, "geometry": { "type": "Point", "coordinates": [ -73.898788, 40.68642 ] } },
{ "type": "Feature", "properties": { "resource_id": "facdb:92822deda03fbada382abd5b922fb294", "name": "Showpaper, Inc", "category": "libraries-and-community", "source": "facdb", "is_coad_member": false }, "geometry": { "type": "Point", "coordinates": [ -73.90622, 40.697064 ] } },
{ "type": "Feature", "properties": { "resource_id": "facdb:935b6da480db571fda05c290a34e334a", "name": "Nia Community Services Network Inc", "category": "children-and-youth", "source": "facdb", "is_coad_member": false }, "geometry": { "type": "Point", "coordinates": [ -73.875488, 40.719655 ] } },
{ "type": "Feature", "properties": { "resource_id": "facdb:93bc1ae718ac1c89e5f72e152bedee39", "name": "Park", "category": "parks-and-environment", "source": "facdb", "is_coad_member": false }, "geometry": { "type": "Point", "coordinates": [ -73.876336, 40.729876 ] } },
{ "type": "Feature", "properties": { "resource_id": "facdb:9712771a6016590141b99a0220161fbe", "name": "Immediate Medium", "category": "libraries-and-community", "source": "facdb", "is_coad_member": false }, "geometry": { "type": "Point", "coordinates": [ -73.867178, 40.721615 ] } },
{ "type": "Feature", "properties": { "resource_id": "facdb:97d36b00d1fb1338385dea873fd8cbfc", "name": "Genesis Renal Care", "category": "health-care", "source": "facdb", "is_coad_member": false }, "geometry": { "type": "Point", "coordinates": [ -73.862562, 40.70821 ] } },
{ "type": "Feature", "properties": { "resource_id": "facdb:980a544ed0f4654561842be4e248a1e7", "name": "Catalpa YMCA Ridgewood", "category": "children-and-youth", "source": "facdb", "is_coad_member": false }, "geometry": { "type": "Point", "coordinates": [ -73.897367, 40.7033 ] } },
{ "type": "Feature", "properties": { "resource_id": "facdb:980c22e1020642435024fb93737fdb4d", "name": "Grove-Linden-St. John's Historic District", "category": "parks-and-environment", "source": "facdb", "is_coad_member": false }, "geometry": { "type": "Point", "coordinates": [ -73.90678, 40.706584 ] } },
{ "type": "Feature", "properties": { "resource_id": "facdb:991f3ba363eb9f24194568286f446dff", "name": "Home Health Consulting Agency, Inc.", "category": "education-and-jobs", "source": "facdb", "is_coad_member": false }, "geometry": { "type": "Point", "coordinates": [ -73.89173, 40.700864 ] } },
{ "type": "Feature", "properties": { "resource_id": "facdb:993dac9a67b80c4a68c6b511c384dddb", "name": "Community Alliance Initiative : Community Alliance Initiative", "category": "food-assistance", "source": "facdb", "is_coad_member": false }, "geometry": { "type": "Point", "coordinates": [ -73.895278, 40.700951 ] } },
{ "type": "Feature", "properties": { "resource_id": "facdb:9bf54c8a4cd7e4d951efe0b6ee9ee0d4", "name": "Agape Christian Center : Agape Christian Center", "category": "food-assistance", "source": "facdb", "is_coad_member": false }, "geometry": { "type": "Point", "coordinates": [ -73.8977, 40.699219 ] } },
{ "type": "Feature", "properties": { "resource_id": "facdb:9cefe2b2e70a01284c355c1ce7355a88", "name": "Nia Community Services Network Inc", "category": "children-and-youth", "source": "facdb", "is_coad_member": false }, "geometry": { "type": "Point", "coordinates": [ -73.875488, 40.719655 ] } },
{ "type": "Feature", "properties": { "resource_id": "facdb:9ee3e5a99d8e3b06e4be157ef37574e3", "name": "Ridgewood Communicare Center", "category": "health-care", "source": "facdb", "is_coad_member": false }, "geometry": { "type": "Point", "coordinates": [ -73.905378, 40.703055 ] } },
{ "type": "Feature", "properties": { "resource_id": "facdb:a0f85a1fcd01f3c39b42ca85c27e99cb", "name": "Ridgewood Dialysis Center", "category": "health-care", "source": "facdb", "is_coad_member": false }, "geometry": { "type": "Point", "coordinates": [ -73.914393, 40.707091 ] } },
{ "type": "Feature", "properties": { "resource_id": "facdb:a197717146556f9ecae8bb5c2ba1b911", "name": "Maspeth Town Hall, Inc.", "category": "children-and-youth", "source": "facdb", "is_coad_member": false }, "geometry": { "type": "Point", "coordinates": [ -73.87495, 40.704991 ] } },
{ "type": "Feature", "properties": { "resource_id": "facdb:a21a2e5196842ec20841caa1e1e3a562", "name": "Ridgewood Older Adult Center and Services Inc", "category": "older-adults", "source": "facdb", "is_coad_member": false }, "geometry": { "type": "Point", "coordinates": [ -73.899724, 40.701027 ] } },
{ "type": "Feature", "properties": { "resource_id": "facdb:a546f91833334f4b3fdeff4f8ba4cc59", "name": "Love and Care Health Career Center", "category": "education-and-jobs", "source": "facdb", "is_coad_member": false }, "geometry": { "type": "Point", "coordinates": [ -73.909048, 40.699587 ] } },
{ "type": "Feature", "properties": { "resource_id": "facdb:a5c400f388fc47f55c82f9555a4507fe", "name": "Be Kind Training Center", "category": "education-and-jobs", "source": "facdb", "is_coad_member": false }, "geometry": { "type": "Point", "coordinates": [ -73.872208, 40.718107 ] } },
{ "type": "Feature", "properties": { "resource_id": "facdb:a7dd9fa67f902a7ba5fb6124b54ed765", "name": "Stockholm-Dekalb-Hart Historic District", "category": "parks-and-environment", "source": "facdb", "is_coad_member": false }, "geometry": { "type": "Point", "coordinates": [ -73.914004, 40.709029 ] } },
{ "type": "Feature", "properties": { "resource_id": "facdb:a8aed8c007cff00b0e7b4f2a3ab5c7f1", "name": "The Greater Ridgewood Youth Council Inc", "category": "children-and-youth", "source": "facdb", "is_coad_member": false }, "geometry": { "type": "Point", "coordinates": [ -73.897314, 40.703166 ] } },
{ "type": "Feature", "properties": { "resource_id": "facdb:a8cdd02aca23a44a1af5690d4204f5fd", "name": "Peter Chahales Park", "category": "parks-and-environment", "source": "facdb", "is_coad_member": false }, "geometry": { "type": "Point", "coordinates": [ -73.894349, 40.724857 ] } },
{ "type": "Feature", "properties": { "resource_id": "facdb:aa1a1bd99f59a1c20a37ec9cb442f79f", "name": "Seneca Avenue East Historic District", "category": "parks-and-environment", "source": "facdb", "is_coad_member": false }, "geometry": { "type": "Point", "coordinates": [ -73.901265, 40.699236 ] } },
{ "type": "Feature", "properties": { "resource_id": "facdb:aa87ef28c50396a6bbdd6f71bf4b9d53", "name": "Central Queens Rehabilitation and Nursing Center", "category": "health-care", "source": "facdb", "is_coad_member": false }, "geometry": { "type": "Point", "coordinates": [ -73.891828, 40.726183 ] } },
{ "type": "Feature", "properties": { "resource_id": "facdb:aedf914eb45626c8aae5f64c10def66d", "name": "Middle Village", "category": "libraries-and-community", "source": "facdb", "is_coad_member": false }, "geometry": { "type": "Point", "coordinates": [ -73.880866, 40.712951 ] } },
{ "type": "Feature", "properties": { "resource_id": "facdb:b0b4fdca93a03e7d5de52618fb2f623a", "name": "P.S. 153 Maspeth Elem", "category": "children-and-youth", "source": "facdb", "is_coad_member": false }, "geometry": { "type": "Point", "coordinates": [ -73.904088, 40.716414 ] } },
{ "type": "Feature", "properties": { "resource_id": "facdb:b245b4e0921f521499770ec319d51b37", "name": "75th AVENUE-61ST Street Historic District", "category": "parks-and-environment", "source": "facdb", "is_coad_member": false }, "geometry": { "type": "Point", "coordinates": [ -73.893995, 40.698361 ] } },
{ "type": "Feature", "properties": { "resource_id": "facdb:b369b8cdad816d7e0dbe6935a4a342b8", "name": "Emu Health", "category": "health-care", "source": "facdb", "is_coad_member": false }, "geometry": { "type": "Point", "coordinates": [ -73.855942, 40.702035 ] } },
{ "type": "Feature", "properties": { "resource_id": "facdb:b4535762887c749ab60a00fde463af12", "name": "Rabbi Israel Meyer Hacohen Rabbinical Seminary of America", "category": "older-adults", "source": "facdb", "is_coad_member": false }, "geometry": { "type": "Point", "coordinates": [ -73.876914, 40.709227 ] } },
{ "type": "Feature", "properties": { "resource_id": "facdb:b903ba95228bc1545219bf43f6714e5a", "name": "Usda-Ceo P075Q at PS 239Q Annex", "category": "children-and-youth", "source": "facdb", "is_coad_member": false }, "geometry": { "type": "Point", "coordinates": [ -73.905002, 40.699695 ] } },
{ "type": "Feature", "properties": { "resource_id": "facdb:b957e4e2c694eba6d37dbd38e0f518c6", "name": "Pre-K Center at 67-54 80th St", "category": "children-and-youth", "source": "facdb", "is_coad_member": false }, "geometry": { "type": "Point", "coordinates": [ -73.871802, 40.711585 ] } },
{ "type": "Feature", "properties": { "resource_id": "facdb:bade086526ae9dd5a5b2aa71e8248252", "name": "The Greater Ridgewood Youth Council Inc", "category": "children-and-youth", "source": "facdb", "is_coad_member": false }, "geometry": { "type": "Point", "coordinates": [ -73.897345, 40.696978 ] } },
{ "type": "Feature", "properties": { "resource_id": "facdb:bb3f3017e9cb2b1b17f188b7fb32a054", "name": "Centerlight Healthcare D&Tc", "category": "health-care", "source": "facdb", "is_coad_member": false }, "geometry": { "type": "Point", "coordinates": [ -73.897907, 40.6966 ] } },
{ "type": "Feature", "properties": { "resource_id": "facdb:bcf55065b9859fec25511622cbb960c2", "name": "Park", "category": "parks-and-environment", "source": "facdb", "is_coad_member": false }, "geometry": { "type": "Point", "coordinates": [ -73.874952, 40.730385 ] } },
{ "type": "Feature", "properties": { "resource_id": "facdb:bd25731cd57bf68d50ae96b48486ec30", "name": "Drumm Triangle", "category": "parks-and-environment", "source": "facdb", "is_coad_member": false }, "geometry": { "type": "Point", "coordinates": [ -73.88825, 40.699363 ] } },
{ "type": "Feature", "properties": { "resource_id": "facdb:be4f800fefc98e1a58f22b51528db9f1", "name": "Cooper Avenue Row Historic District", "category": "parks-and-environment", "source": "facdb", "is_coad_member": false }, "geometry": { "type": "Point", "coordinates": [ -73.890474, 40.698069 ] } },
{ "type": "Feature", "properties": { "resource_id": "facdb:c28c21d916187f60a65bb7e482e00149", "name": "IS 093 Ridgewood", "category": "children-and-youth", "source": "facdb", "is_coad_member": false }, "geometry": { "type": "Point", "coordinates": [ -73.903066, 40.705612 ] } },
{ "type": "Feature", "properties": { "resource_id": "facdb:c29b013df646f14c12f8aee4165ddc0b", "name": "Ultissima Beauty Inst-Ridgewood", "category": "education-and-jobs", "source": "facdb", "is_coad_member": false }, "geometry": { "type": "Point", "coordinates": [ -73.909045, 40.699576 ] } },
{ "type": "Feature", "properties": { "resource_id": "facdb:c2ba4a8aeaf8739984bd0ea0b68efa3a", "name": "Middle Village Prep Charter School", "category": "children-and-youth", "source": "facdb", "is_coad_member": false }, "geometry": { "type": "Point", "coordinates": [ -73.888465, 40.710746 ] } },
{ "type": "Feature", "properties": { "resource_id": "facdb:c30fc746c15d27a5c288ebd1ca55c5c6", "name": "Maspeth Library", "category": "children-and-youth", "source": "facdb", "is_coad_member": false }, "geometry": { "type": "Point", "coordinates": [ -73.893086, 40.726983 ] } },
{ "type": "Feature", "properties": { "resource_id": "facdb:c5211edb6959265c4aa76e548539d6f3", "name": "Clemens Triangle", "category": "parks-and-environment", "source": "facdb", "is_coad_member": false }, "geometry": { "type": "Point", "coordinates": [ -73.905895, 40.700069 ] } },
{ "type": "Feature", "properties": { "resource_id": "facdb:c5aac9496ffcc3277893716250fa4506", "name": "Fresh Pond-Traffic Historic District", "category": "parks-and-environment", "source": "facdb", "is_coad_member": false }, "geometry": { "type": "Point", "coordinates": [ -73.896658, 40.709368 ] } },
{ "type": "Feature", "properties": { "resource_id": "facdb:c6365ba07f5b85e215b51185649c466c", "name": "NYPD 104th Precinct Station House", "category": "emergency-services", "source": "facdb", "is_coad_member": false }, "geometry": { "type": "Point", "coordinates": [ -73.893552, 40.704259 ] } },
{ "type": "Feature", "properties": { "resource_id": "facdb:c9506d55349780f435c7762fefff62b3", "name": "Maspeth", "category": "libraries-and-community", "source": "facdb", "is_coad_member": false }, "geometry": { "type": "Point", "coordinates": [ -73.893086, 40.726983 ] } },
{ "type": "Feature", "properties": { "resource_id": "facdb:cac152474d614f39ee502c36ffc8957d", "name": "Maspeth Town Hall, Inc.", "category": "children-and-youth", "source": "facdb", "is_coad_member": false }, "geometry": { "type": "Point", "coordinates": [ -73.890064, 40.728705 ] } },
{ "type": "Feature", "properties": { "resource_id": "facdb:caf05adba56d7a66a77f42ead6c9e847", "name": "Summerfield Street Row Historic District", "category": "parks-and-environment", "source": "facdb", "is_coad_member": false }, "geometry": { "type": "Point", "coordinates": [ -73.897107, 40.699854 ] } },
{ "type": "Feature", "properties": { "resource_id": "facdb:cc959d00e9f71fc48eae94fc133521e1", "name": "Engine 286/LADDER 135", "category": "emergency-services", "source": "facdb", "is_coad_member": false }, "geometry": { "type": "Point", "coordinates": [ -73.886652, 40.701242 ] } },
{ "type": "Feature", "properties": { "resource_id": "facdb:ce8e263cf089ead9daf2cfe92c2b89a6", "name": "Luke J. Lang Square", "category": "parks-and-environment", "source": "facdb", "is_coad_member": false }, "geometry": { "type": "Point", "coordinates": [ -73.90242, 40.718568 ] } },
{ "type": "Feature", "properties": { "resource_id": "facdb:cf95b53cd6a138f78dd9718a10c1d865", "name": "Pinocchio Playground", "category": "parks-and-environment", "source": "facdb", "is_coad_member": false }, "geometry": { "type": "Point", "coordinates": [ -73.87495, 40.704991 ] } },
{ "type": "Feature", "properties": { "resource_id": "facdb:d0b0420b07754b3e3be4d63e332c2338", "name": "Baisley Park Extension", "category": "children-and-youth", "source": "facdb", "is_coad_member": false }, "geometry": { "type": "Point", "coordinates": [ -73.880765, 40.717355 ] } },
{ "type": "Feature", "properties": { "resource_id": "facdb:d119a3ce5702a8df4fdf3d5e8328c9a4", "name": "P.S. 81 Jean Paul Richter", "category": "children-and-youth", "source": "facdb", "is_coad_member": false }, "geometry": { "type": "Point", "coordinates": [ -73.911998, 40.703845 ] } },
{ "type": "Feature", "properties": { "resource_id": "facdb:d3073eef2326b0dc0440306b4648782e", "name": "Sitting Area", "category": "parks-and-environment", "source": "facdb", "is_coad_member": false }, "geometry": { "type": "Point", "coordinates": [ -73.888997, 40.726297 ] } },
{ "type": "Feature", "properties": { "resource_id": "facdb:d59c8143d872eca9d3132db1d679af1d", "name": "Allied Veterans Memorial Committee of Ridgewood and Glendale", "category": "children-and-youth", "source": "facdb", "is_coad_member": false }, "geometry": { "type": "Point", "coordinates": [ -73.877577, 40.704549 ] } },
{ "type": "Feature", "properties": { "resource_id": "facdb:d7ec26d7a5483ed8cc117aa6f3f865e9", "name": "Peter Cardella Senior Citizen Center Inc", "category": "older-adults", "source": "facdb", "is_coad_member": false }, "geometry": { "type": "Point", "coordinates": [ -73.895974, 40.703652 ] } },
{ "type": "Feature", "properties": { "resource_id": "facdb:da476aeb0ef92a5edb00b227012a6716", "name": "P.S./I.S. 113 Anthony J. Pranzo", "category": "children-and-youth", "source": "facdb", "is_coad_member": false }, "geometry": { "type": "Point", "coordinates": [ -73.86167, 40.70544 ] } },
{ "type": "Feature", "properties": { "resource_id": "facdb:db9ef29e35f361782c1b9570d1170609", "name": "Salvation Army : Salvation Army Ridgewood Citadel Corps", "category": "food-assistance", "source": "facdb", "is_coad_member": false }, "geometry": { "type": "Point", "coordinates": [ -73.894581, 40.703004 ] } },
{ "type": "Feature", "properties": { "resource_id": "facdb:dcb53f0fc8220d5d44a97063d7412c5a", "name": "Heaven's Hands Community Services  Inc.", "category": "disability-and-access", "source": "facdb", "is_coad_member": false }, "geometry": { "type": "Point", "coordinates": [ -73.88562, 40.701292 ] } },
{ "type": "Feature", "properties": { "resource_id": "facdb:dcc6ba580df05149865c7ac0c1fe529a", "name": "Salvatore Larussa Dance Co.", "category": "libraries-and-community", "source": "facdb", "is_coad_member": false }, "geometry": { "type": "Point", "coordinates": [ -73.87933, 40.713165 ] } },
{ "type": "Feature", "properties": { "resource_id": "facdb:dd0c1a1ef39cf20e89c24381cbb9e34e", "name": "Roman Catholic Church of St. Margaret", "category": "children-and-youth", "source": "facdb", "is_coad_member": false }, "geometry": { "type": "Point", "coordinates": [ -73.872493, 40.715764 ] } },
{ "type": "Feature", "properties": { "resource_id": "facdb:dda09f86ffd178919602d3b966cec0d2", "name": "The Greater Ridgewood Youth Council Inc", "category": "children-and-youth", "source": "facdb", "is_coad_member": false }, "geometry": { "type": "Point", "coordinates": [ -73.903066, 40.705612 ] } },
{ "type": "Feature", "properties": { "resource_id": "facdb:e124d5ed63ef498be29227f27dfbfc70", "name": "South Asian Youth Action Saya Inc", "category": "children-and-youth", "source": "facdb", "is_coad_member": false }, "geometry": { "type": "Point", "coordinates": [ -73.857673, 40.702583 ] } },
{ "type": "Feature", "properties": { "resource_id": "facdb:e2ad4699846ce820a2edb4607651d9e0", "name": "Catholic Charities Neighborhood Services Inc", "category": "mental-health-and-recovery", "source": "facdb", "is_coad_member": false }, "geometry": { "type": "Point", "coordinates": [ -73.885427, 40.701821 ] } },
{ "type": "Feature", "properties": { "resource_id": "facdb:e2bd8db85740f3ec56408a245f8647a4", "name": "Offices", "category": "government-offices", "source": "facdb", "is_coad_member": false }, "geometry": { "type": "Point", "coordinates": [ -73.893316, 40.701116 ] } },
{ "type": "Feature", "properties": { "resource_id": "facdb:e3972ca0be7bf401aa8a906398253867", "name": "Federalist Triangle", "category": "parks-and-environment", "source": "facdb", "is_coad_member": false }, "geometry": { "type": "Point", "coordinates": [ -73.900542, 40.726798 ] } },
{ "type": "Feature", "properties": { "resource_id": "facdb:e3b4615953dfbaf7d74526e20b8c2dbf", "name": "Dry Harbor Nursing Home", "category": "health-care", "source": "facdb", "is_coad_member": false }, "geometry": { "type": "Point", "coordinates": [ -73.871405, 40.726832 ] } },
{ "type": "Feature", "properties": { "resource_id": "facdb:e3dd0583744d9be072a9883e4b5f6862", "name": "Cypress Avenue East Historic District", "category": "parks-and-environment", "source": "facdb", "is_coad_member": false }, "geometry": { "type": "Point", "coordinates": [ -73.908191, 40.701628 ] } },
{ "type": "Feature", "properties": { "resource_id": "facdb:e6ee4c7c4c19ba504668f9dad193dd3d", "name": "Engine 291/LADDER 140", "category": "emergency-services", "source": "facdb", "is_coad_member": false }, "geometry": { "type": "Point", "coordinates": [ -73.906643, 40.713165 ] } },
{ "type": "Feature", "properties": { "resource_id": "facdb:e707e4c5a00aaf1fecab082895cf39fa", "name": "YMCA of Greater New York", "category": "children-and-youth", "source": "facdb", "is_coad_member": false }, "geometry": { "type": "Point", "coordinates": [ -73.894095, 40.704141 ] } },
{ "type": "Feature", "properties": { "resource_id": "facdb:e7f081c6a2a1357f2a9ae15e934ade49", "name": "Blau-Weiss Gottschee Inc", "category": "children-and-youth", "source": "facdb", "is_coad_member": false }, "geometry": { "type": "Point", "coordinates": [ -73.897085, 40.73464 ] } },
{ "type": "Feature", "properties": { "resource_id": "facdb:ead1b9ce464b58ef21c776585f85ecbb", "name": "New York Sun Works Inc.", "category": "children-and-youth", "source": "facdb", "is_coad_member": false }, "geometry": { "type": "Point", "coordinates": [ -73.902339, 40.702117 ] } },
{ "type": "Feature", "properties": { "resource_id": "facdb:ef30a673e545ef70322963dcd8f19f46", "name": "Newtown Historical Society", "category": "children-and-youth", "source": "facdb", "is_coad_member": false }, "geometry": { "type": "Point", "coordinates": [ -73.913585, 40.70897 ] } },
{ "type": "Feature", "properties": { "resource_id": "facdb:ef52faff02242112f28ff016c4289e64", "name": "Kew Gardens Festival of Cinema, Inc.", "category": "libraries-and-community", "source": "facdb", "is_coad_member": false }, "geometry": { "type": "Point", "coordinates": [ -73.854808, 40.706005 ] } },
{ "type": "Feature", "properties": { "resource_id": "facdb:f1b9f19737a9d326e61602813e9967a0", "name": "Maurice Playground", "category": "children-and-youth", "source": "facdb", "is_coad_member": false }, "geometry": { "type": "Point", "coordinates": [ -73.907435, 40.72055 ] } },
{ "type": "Feature", "properties": { "resource_id": "facdb:f2f8d4358651be6ae08ecacb30825120", "name": "Cec Stuyvesant Cove Inc", "category": "children-and-youth", "source": "facdb", "is_coad_member": false }, "geometry": { "type": "Point", "coordinates": [ -73.914996, 40.706868 ] } },
{ "type": "Feature", "properties": { "resource_id": "facdb:f5c6c85be1d6eb6d5798d93ee4f9c73e", "name": "P.S. 88 Seneca", "category": "children-and-youth", "source": "facdb", "is_coad_member": false }, "geometry": { "type": "Point", "coordinates": [ -73.896406, 40.704088 ] } },
{ "type": "Feature", "properties": { "resource_id": "facdb:f7ccdad4853c6091dce8b5b0d5b3b6c7", "name": "Grover Cleveland Playground", "category": "parks-and-environment", "source": "facdb", "is_coad_member": false }, "geometry": { "type": "Point", "coordinates": [ -73.910949, 40.710895 ] } },
{ "type": "Feature", "properties": { "resource_id": "facdb:f8b022bcefb9d07643b1520f21344e3d", "name": "Greater Ridgewood Youth Council (Gryc)", "category": "children-and-youth", "source": "facdb", "is_coad_member": false }, "geometry": { "type": "Point", "coordinates": [ -73.89816, 40.699503 ] } },
{ "type": "Feature", "properties": { "resource_id": "facdb:f95e24dc4baa67e9329a7aa9ecc2055e", "name": "Greater Ridgewood Historical Society", "category": "libraries-and-community", "source": "facdb", "is_coad_member": false }, "geometry": { "type": "Point", "coordinates": [ -73.920019, 40.71092 ] } },
{ "type": "Feature", "properties": { "resource_id": "facdb:f9730d2672e1a3f4212f39e58687ea03", "name": "Engine 319", "category": "emergency-services", "source": "facdb", "is_coad_member": false }, "geometry": { "type": "Point", "coordinates": [ -73.874921, 40.712641 ] } },
{ "type": "Feature", "properties": { "resource_id": "facdb:fa6e35c24cc733523dcd393991ba5147", "name": "Squad 288", "category": "emergency-services", "source": "facdb", "is_coad_member": false }, "geometry": { "type": "Point", "coordinates": [ -73.896268, 40.726087 ] } },
{ "type": "Feature", "properties": { "resource_id": "facdb:fa89856ca01e2be37dea2ab37f81ed32", "name": "Queens Storehouse", "category": "government-offices", "source": "facdb", "is_coad_member": false }, "geometry": { "type": "Point", "coordinates": [ -73.89158, 40.710897 ] } },
{ "type": "Feature", "properties": { "resource_id": "facdb:fe04c7ada9e5dafdc6fae69331f56ba9", "name": "Forest-Norman Historic District", "category": "parks-and-environment", "source": "facdb", "is_coad_member": false }, "geometry": { "type": "Point", "coordinates": [ -73.898715, 40.699644 ] } },
{ "type": "Feature", "properties": { "resource_id": "qnpd:animal-care-centers-of-nyc--1", "name": "Animal Care Centers of NYC", "category": "libraries-and-community", "source": "qnpd", "is_coad_member": false }, "geometry": { "type": "Point", "coordinates": [ -73.918156, 40.712356 ] } },
{ "type": "Feature", "properties": { "resource_id": "qnpd:animal-care-centers-of-nyc--2", "name": "Animal Care Centers of NYC", "category": "benefits-and-legal", "source": "qnpd", "is_coad_member": false }, "geometry": { "type": "Point", "coordinates": [ -73.918156, 40.712356 ] } },
{ "type": "Feature", "properties": { "resource_id": "qnpd:festival-of-cinema-inc", "name": "Festival of Cinema Inc", "category": "libraries-and-community", "source": "qnpd", "is_coad_member": false }, "geometry": { "type": "Point", "coordinates": [ -73.854766, 40.706376 ] } },
{ "type": "Feature", "properties": { "resource_id": "qnpd:play4autism-foundation", "name": "Play4Autism Foundation", "category": "children-and-youth", "source": "qnpd", "is_coad_member": false }, "geometry": { "type": "Point", "coordinates": [ -73.863686, 40.709873 ] } },
{ "type": "Feature", "properties": { "resource_id": "qnpd:polonians-to-minister-to-our-community", "name": "Polonians to Minister to Our Community", "category": "older-adults", "source": "qnpd", "is_coad_member": false }, "geometry": { "type": "Point", "coordinates": [ -73.897591, 40.707159 ] } },
{ "type": "Feature", "properties": { "resource_id": "qnpd:ridgewood-jazz-fest-inc", "name": "Ridgewood Jazz Fest Inc", "category": "libraries-and-community", "source": "qnpd", "is_coad_member": false }, "geometry": { "type": "Point", "coordinates": [ -73.899448, 40.703731 ] } }
]
}
