{
"type": "FeatureCollection",
"name": "q06",
"features": [
{ "type": "Feature", "properties": { "resource_id": "facdb:0152b90fb8ce19e9749c8e13560f516e", "name": "The Jewish Association for Services for the Aged", "category": "older-adults", "source": "facdb", "is_coad_member": false }, "geometry": { "type": "Point", "coordinates": [ -73.858337, 40.729205 ] } },
{ "type": "Feature", "properties": { "resource_id": "facdb:018678eb8744c4c70837c846c05a8f76", "name": "One Stop Academy, Inc.", "category": "education-and-jobs", "source": "facdb", "is_coad_member": false }, "geometry": { "type": "Point", "coordinates": [ -73.842142, 40.719555 ] } },
{ "type": "Feature", "properties": { "resource_id": "facdb:0343c8020ddb08314fc49fff5ed2d4cb", "name": "Bleuler Psychotherapy Center", "category": "mental-health-and-recovery", "source": "facdb", "is_coad_member": false }, "geometry": { "type": "Point", "coordinates": [ -73.848407, 40.722962 ] } },
{ "type": "Feature", "properties": { "resource_id": "facdb:03f6510cce5ce1e888db58abba47d3c6", "name": "United Career Centers", "category": "education-and-jobs", "source": "facdb", "is_coad_member": false }, "geometry": { "type": "Point", "coordinates": [ -73.861109, 40.730524 ] } },
{ "type": "Feature", "properties": { "resource_id": "facdb:05a3c6dfc2d643727a3a614892b4287f", "name": "The Child Center of NY Inc", "category": "health-care", "source": "facdb", "is_coad_member": false }, "geometry": { "type": "Point", "coordinates": [ -73.830615, 40.715276 ] } },
{ "type": "Feature", "properties": { "resource_id": "facdb:05d5e0a8d82f943b5233f2e457dc29d1", "name": "Step Down - Non Medicaid Cc", "category": "mental-health-and-recovery", "source": "facdb", "is_coad_member": false }, "geometry": { "type": "Point", "coordinates": [ -73.830615, 40.715276 ] } },
{ "type": "Feature", "properties": { "resource_id": "facdb:0722046645ae905bd6321b62c9f34a42", "name": "Queens Boulevard Asc, LLC", "category": "health-care", "source": "facdb", "is_coad_member": false }, "geometry": { "type": "Point", "coordinates": [ -73.863586, 40.731227 ] } },
{ "type": "Feature", "properties": { "resource_id": "facdb:07922d2f3879db6ded345ad51e96d291", "name": "Environmental Justice Art Exhibit", "category": "children-and-youth", "source": "facdb", "is_coad_member": false }, "geometry": { "type": "Point", "coordinates": [ -73.850128, 40.736308 ] } },
{ "type": "Feature", "properties": { "resource_id": "facdb:08192af9f2e91d3a5799c4e5932551a5", "name": "Rego Park Mental Health Center", "category": "mental-health-and-recovery", "source": "facdb", "is_coad_member": false }, "geometry": { "type": "Point", "coordinates": [ -73.857113, 40.731878 ] } },
{ "type": "Feature", "properties": { "resource_id": "facdb:08826889705df3162dd788f6e55de399", "name": "Atria Forest Hills", "category": "health-care", "source": "facdb", "is_coad_member": false }, "geometry": { "type": "Point", "coordinates": [ -73.836672, 40.722056 ] } },
{ "type": "Feature", "properties": { "resource_id": "facdb:094b2d66724b3f6456ddc01187a62afd", "name": "Safe Horizon Inc", "category": "benefits-and-legal", "source": "facdb", "is_coad_member": false }, "geometry": { "type": "Point", "coordinates": [ -73.836204, 40.71843 ] } },
{ "type": "Feature", "properties": { "resource_id": "facdb:0b285e9948aef2efe51da683db233b0e", "name": "Cftss: Family Peer Support Services", "category": "mental-health-and-recovery", "source": "facdb", "is_coad_member": false }, "geometry": { "type": "Point", "coordinates": [ -73.830615, 40.715276 ] } },
{ "type": "Feature", "properties": { "resource_id": "facdb:0c02c2c5ff680e99d504ceab9d13f790", "name": "Engine 305/LADDER 151", "category": "emergency-services", "source": "facdb", "is_coad_member": false }, "geometry": { "type": "Point", "coordinates": [ -73.83773, 40.718241 ] } },
{ "type": "Feature", "properties": { "resource_id": "facdb:11caee080af8ca0063d5b1e922fbb753", "name": "Council for Unity, Inc.", "category": "children-and-youth", "source": "facdb", "is_coad_member": false }, "geometry": { "type": "Point", "coordinates": [ -73.855803, 40.708533 ] } },
{ "type": "Feature", "properties": { "resource_id": "facdb:12cb82726177871abb6b0e3e0b7996cd", "name": "The Jewish Association for Services for the Aged", "category": "older-adults", "source": "facdb", "is_coad_member": false }, "geometry": { "type": "Point", "coordinates": [ -73.858337, 40.729205 ] } },
{ "type": "Feature", "properties": { "resource_id": "facdb:12d59825a43543f2d01cb69832241d46", "name": "Willow Lake Playground", "category": "parks-and-environment", "source": "facdb", "is_coad_member": false }, "geometry": { "type": "Point", "coordinates": [ -73.837615, 40.722847 ] } },
{ "type": "Feature", "properties": { "resource_id": "facdb:1395d8d35e61c93e2480dba67b8c63a8", "name": "Jewish Institute of Queens (Elementary)", "category": "children-and-youth", "source": "facdb", "is_coad_member": false }, "geometry": { "type": "Point", "coordinates": [ -73.870958, 40.731222 ] } },
{ "type": "Feature", "properties": { "resource_id": "facdb:151179a742a8d732951499cc9e7917df", "name": "Queens Community House, Inc.", "category": "children-and-youth", "source": "facdb", "is_coad_member": false }, "geometry": { "type": "Point", "coordinates": [ -73.850128, 40.736308 ] } },
{ "type": "Feature", "properties": { "resource_id": "facdb:162a7928c2e20fc0c9c1909557ecbbb8", "name": "Queens Community House Inc.", "category": "older-adults", "source": "facdb", "is_coad_member": false }, "geometry": { "type": "Point", "coordinates": [ -73.850798, 40.736233 ] } },
{ "type": "Feature", "properties": { "resource_id": "facdb:16623182223f180cbf06ccb6adfab016", "name": "Berkowits School of Electrolysis", "category": "education-and-jobs", "source": "facdb", "is_coad_member": false }, "geometry": { "type": "Point", "coordinates": [ -73.845213, 40.709785 ] } },
{ "type": "Feature", "properties": { "resource_id": "facdb:170dfdbc5f3444db5e4d50cb4434bbc9", "name": "MacDonald Park", "category": "parks-and-environment", "source": "facdb", "is_coad_member": false }, "geometry": { "type": "Point", "coordinates": [ -73.846803, 40.722237 ] } },
{ "type": "Feature", "properties": { "resource_id": "facdb:1986b556b1ddb2e65dee4b55af522288", "name": "P. S. C. School of Careers", "category": "education-and-jobs", "source": "facdb", "is_coad_member": false }, "geometry": { "type": "Point", "coordinates": [ -73.858337, 40.729205 ] } },
{ "type": "Feature", "properties": { "resource_id": "facdb:1c89f678d4b5fa6e4860b1f4af340f2b", "name": "Queens Community House, Inc.", "category": "children-and-youth", "source": "facdb", "is_coad_member": false }, "geometry": { "type": "Point", "coordinates": [ -73.852996, 40.732336 ] } },
{ "type": "Feature", "properties": { "resource_id": "facdb:1f17a2b85addc7978f0fcece057f4ef7", "name": "North Forest Park", "category": "libraries-and-community", "source": "facdb", "is_coad_member": false }, "geometry": { "type": "Point", "coordinates": [ -73.853673, 40.711195 ] } },
{ "type": "Feature", "properties": { "resource_id": "facdb:214de44b6eabef49d94eaa8cc12ad945", "name": "Forestdale Inc", "category": "benefits-and-legal", "source": "facdb", "is_coad_member": false }, "geometry": { "type": "Point", "coordinates": [ -73.842297, 40.72952 ] } },
{ "type": "Feature", "properties": { "resource_id": "facdb:24dd0aa6daebe4c70360bb2a1b93d46c", "name": "Blau-Weiss Gottschee Inc", "category": "children-and-youth", "source": "facdb", "is_coad_member": false }, "geometry": { "type": "Point", "coordinates": [ -73.852854, 40.714982 ] } },
{ "type": "Feature", "properties": { "resource_id": "facdb:255729b30526803e9783c66c28ec111b", "name": "Jewish Institute of Queens", "category": "children-and-youth", "source": "facdb", "is_coad_member": false }, "geometry": { "type": "Point", "coordinates": [ -73.870958, 40.731222 ] } },
{ "type": "Feature", "properties": { "resource_id": "facdb:2785e7e43ac81b586b9f6e6d4c3d4131", "name": "The Painter's Playground", "category": "parks-and-environment", "source": "facdb", "is_coad_member": false }, "geometry": { "type": "Point", "coordinates": [ -73.859666, 40.720419 ] } },
{ "type": "Feature", "properties": { "resource_id": "facdb:281930a8881db7c9e6a4925e98e12095", "name": "Queens Community House, Inc.", "category": "children-and-youth", "source": "facdb", "is_coad_member": false }, "geometry": { "type": "Point", "coordinates": [ -73.851733, 40.723179 ] } },
{ "type": "Feature", "properties": { "resource_id": "facdb:29e54311ae12c926c281de9e25b108eb", "name": "Queens Community House, Inc.", "category": "older-adults", "source": "facdb", "is_coad_member": false }, "geometry": { "type": "Point", "coordinates": [ -73.850798, 40.736233 ] } },
{ "type": "Feature", "properties": { "resource_id": "facdb:2af1c549dc1f233eab7557298a110912", "name": "Metropolitan Learning Institute", "category": "education-and-jobs", "source": "facdb", "is_coad_member": false }, "geometry": { "type": "Point", "coordinates": [ -73.848407, 40.722962 ] } },
{ "type": "Feature", "properties": { "resource_id": "facdb:2b6aa1c054973c7fff1f13a0114d6b0a", "name": "Samuel Field YM & YWHA Inc", "category": "children-and-youth", "source": "facdb", "is_coad_member": false }, "geometry": { "type": "Point", "coordinates": [ -73.847089, 40.72872 ] } },
{ "type": "Feature", "properties": { "resource_id": "facdb:2baf525df56c8c6d7e0d9b096b55eca8", "name": "Underbridge Dog Run", "category": "parks-and-environment", "source": "facdb", "is_coad_member": false }, "geometry": { "type": "Point", "coordinates": [ -73.845219, 40.733862 ] } },
{ "type": "Feature", "properties": { "resource_id": "facdb:2bdc31515accad4a251a3d9c51bc4619", "name": "U.S. Renal Care Forest Hills Dialysis", "category": "health-care", "source": "facdb", "is_coad_member": false }, "geometry": { "type": "Point", "coordinates": [ -73.850611, 40.722067 ] } },
{ "type": "Feature", "properties": { "resource_id": "facdb:2ead2891e653cb92701eb102f5602a31", "name": "The Jewish Association for Services for the Aged", "category": "older-adults", "source": "facdb", "is_coad_member": false }, "geometry": { "type": "Point", "coordinates": [ -73.858337, 40.729205 ] } },
{ "type": "Feature", "properties": { "resource_id": "facdb:2edff8b79e6c1fdb1cc9fbf8ffc8f6eb", "name": "Queens Community House, Inc.", "category": "children-and-youth", "source": "facdb", "is_coad_member": false }, "geometry": { "type": "Point", "coordinates": [ -73.851733, 40.723179 ] } },
{ "type": "Feature", "properties": { "resource_id": "facdb:3031a9d9cd70af56f9b8ad0ed8f48e5d", "name": "Forest Hills Chamber of Commerce of Queens Inc", "category": "children-and-youth", "source": "facdb", "is_coad_member": false }, "geometry": { "type": "Point", "coordinates": [ -73.842899, 40.719234 ] } },
{ "type": "Feature", "properties": { "resource_id": "facdb:317574c1c9582f2c6b384459c1700ed2", "name": "Our Savior Summer Camp", "category": "children-and-youth", "source": "facdb", "is_coad_member": false }, "geometry": { "type": "Point", "coordinates": [ -73.865479, 40.720833 ] } },
{ "type": "Feature", "properties": { "resource_id": "facdb:342be2282e4e306ddacf8593d50ae04d", "name": "Ehrenreich-Austin Playground", "category": "parks-and-environment", "source": "facdb", "is_coad_member": false }, "geometry": { "type": "Point", "coordinates": [ -73.837045, 40.715791 ] } },
{ "type": "Feature", "properties": { "resource_id": "facdb:348cfbea44508306562960e398e45238", "name": "Queens Community House, Inc.", "category": "children-and-youth", "source": "facdb", "is_coad_member": false }, "geometry": { "type": "Point", "coordinates": [ -73.84547, 40.720177 ] } },
{ "type": "Feature", "properties": { "resource_id": "facdb:35462c97721bd5578eccff1215dbe571", "name": "Project Eden", "category": "parks-and-environment", "source": "facdb", "is_coad_member": false }, "geometry": { "type": "Point", "coordinates": [ -73.857647, 40.716204 ] } },
{ "type": "Feature", "properties": { "resource_id": "facdb:363b5e3fdae1b34345f4556f4fd97615", "name": "Safe Horizon Inc", "category": "libraries-and-community", "source": "facdb", "is_coad_member": false }, "geometry": { "type": "Point", "coordinates": [ -73.865248, 40.72663 ] } },
{ "type": "Feature", "properties": { "resource_id": "facdb:36e72c21b7e0eae70ec3b50a8f2d91f3", "name": "Children's Health Home Care Coordination", "category": "mental-health-and-recovery", "source": "facdb", "is_coad_member": false }, "geometry": { "type": "Point", "coordinates": [ -73.830615, 40.715276 ] } },
{ "type": "Feature", "properties": { "resource_id": "facdb:37ba808d073da39342d33ac78e289e8d", "name": "Cftss: Other Licensed Practitioner", "category": "mental-health-and-recovery", "source": "facdb", "is_coad_member": false }, "geometry": { "type": "Point", "coordinates": [ -73.830615, 40.715276 ] } },
{ "type": "Feature", "properties": { "resource_id": "facdb:37f9b109b1af080519c61ac85a0b45af", "name": "Masbia of Queens : Masbia of Queens", "category": "food-assistance", "source": "facdb", "is_coad_member": false }, "geometry": { "type": "Point", "coordinates": [ -73.849784, 40.732352 ] } },
{ "type": "Feature", "properties": { "resource_id": "facdb:3ab7d19b088fabc805dd9f39c97311cb", "name": "Barrier Playground", "category": "parks-and-environment", "source": "facdb", "is_coad_member": false }, "geometry": { "type": "Point", "coordinates": [ -73.854934, 40.73627 ] } },
{ "type": "Feature", "properties": { "resource_id": "facdb:3cfe533100deca229d0676a3f44d95e9", "name": "Remsen Family Cemetery", "category": "parks-and-environment", "source": "facdb", "is_coad_member": false }, "geometry": { "type": "Point", "coordinates": [ -73.858479, 40.712327 ] } },
{ "type": "Feature", "properties": { "resource_id": "facdb:3e620d2763cd5a1675da7ec1d6d3e42e", "name": "NY Med", "category": "health-care", "source": "facdb", "is_coad_member": false }, "geometry": { "type": "Point", "coordinates": [ -73.84848, 40.721569 ] } },
{ "type": "Feature", "properties": { "resource_id": "facdb:3f2117c1f3f01e42094b9a432f124eef", "name": "Hh Medical Center", "category": "health-care", "source": "facdb", "is_coad_member": false }, "geometry": { "type": "Point", "coordinates": [ -73.848774, 40.732063 ] } },
{ "type": "Feature", "properties": { "resource_id": "facdb:3f4aacbd367a3d8dca33d7c441caf170", "name": "Blue Pipa, Inc.", "category": "libraries-and-community", "source": "facdb", "is_coad_member": false }, "geometry": { "type": "Point", "coordinates": [ -73.852954, 40.717301 ] } },
{ "type": "Feature", "properties": { "resource_id": "facdb:4027953d1a1be924bf246ac9be17376e", "name": "Mouse Inc", "category": "children-and-youth", "source": "facdb", "is_coad_member": false }, "geometry": { "type": "Point", "coordinates": [ -73.862885, 40.728128 ] } },
{ "type": "Feature", "properties": { "resource_id": "facdb:418d48a20d6ec1cde4942eed43706dee", "name": "Children's Non-Medicaid Care Coordination", "category": "mental-health-and-recovery", "source": "facdb", "is_coad_member": false }, "geometry": { "type": "Point", "coordinates": [ -73.830615, 40.715276 ] } },
{ "type": "Feature", "properties": { "resource_id": "facdb:426957df61cc60acfb735c2580e0fe24", "name": "PS 175 the Lynn Gross Discovery School (28Q175)", "category": "children-and-youth", "source": "facdb", "is_coad_member": false }, "geometry": { "type": "Point", "coordinates": [ -73.852585, 40.730902 ] } },
{ "type": "Feature", "properties": { "resource_id": "facdb:461328d2236d0fc40f4cde0851f3b7a8", "name": "Queens Community House Inc.", "category": "older-adults", "source": "facdb", "is_coad_member": false }, "geometry": { "type": "Point", "coordinates": [ -73.850128, 40.736308 ] } },
{ "type": "Feature", "properties": { "resource_id": "facdb:46af377c15b406772b59f79e5c345722", "name": "Queens Community House, Inc.", "category": "children-and-youth", "source": "facdb", "is_coad_member": false }, "geometry": { "type": "Point", "coordinates": [ -73.842968, 40.720242 ] } },
{ "type": "Feature", "properties": { "resource_id": "facdb:4730fd961a79fd05047089be52b5f7d0", "name": "Rego Park", "category": "libraries-and-community", "source": "facdb", "is_coad_member": false }, "geometry": { "type": "Point", "coordinates": [ -73.864507, 40.727323 ] } },
{ "type": "Feature", "properties": { "resource_id": "facdb:48a4cdd7a9e8c2d03b6993da8951ee89", "name": "Forest Park School", "category": "children-and-youth", "source": "facdb", "is_coad_member": false }, "geometry": { "type": "Point", "coordinates": [ -73.853566, 40.7335 ] } },
{ "type": "Feature", "properties": { "resource_id": "facdb:497687da0afcbc04b816edaac77f5cd5", "name": "Forest Hills", "category": "libraries-and-community", "source": "facdb", "is_coad_member": false }, "geometry": { "type": "Point", "coordinates": [ -73.843047, 40.72215 ] } },
{ "type": "Feature", "properties": { "resource_id": "facdb:4a1a70e18d7fd878b9d19e75d5400bc2", "name": "NYC Parks-Lost Battallion Hall", "category": "children-and-youth", "source": "facdb", "is_coad_member": false }, "geometry": { "type": "Point", "coordinates": [ -73.865515, 40.731813 ] } },
{ "type": "Feature", "properties": { "resource_id": "facdb:4d4ae3c8dfef33a62af8ef56417b0c20", "name": "Artist's Theatre Repertory Ensemble, Inc.", "category": "libraries-and-community", "source": "facdb", "is_coad_member": false }, "geometry": { "type": "Point", "coordinates": [ -73.852147, 40.7245 ] } },
{ "type": "Feature", "properties": { "resource_id": "facdb:4e9089dc2030aa0ea3d60599bbc4673f", "name": "Queens Community House-Forest Hills", "category": "children-and-youth", "source": "facdb", "is_coad_member": false }, "geometry": { "type": "Point", "coordinates": [ -73.850128, 40.736308 ] } },
{ "type": "Feature", "properties": { "resource_id": "facdb:504d9a8d0c7cac5f35309ae0a983cd70", "name": "Queens Community House, Inc.", "category": "children-and-youth", "source": "facdb", "is_coad_member": false }, "geometry": { "type": "Point", "coordinates": [ -73.850128, 40.736308 ] } },
{ "type": "Feature", "properties": { "resource_id": "facdb:50a94b697e3f76cca8a6df6d6294cd0a", "name": "Nicole Paultre Bell When It's Real It's Forever Fund, Inc.", "category": "libraries-and-community", "source": "facdb", "is_coad_member": false }, "geometry": { "type": "Point", "coordinates": [ -73.855153, 40.727077 ] } },
{ "type": "Feature", "properties": { "resource_id": "facdb:523816d0e0e745f2a3fb22aaca67a61f", "name": "Lost Battalion Hall Recreation Center", "category": "parks-and-environment", "source": "facdb", "is_coad_member": false }, "geometry": { "type": "Point", "coordinates": [ -73.865515, 40.731813 ] } },
{ "type": "Feature", "properties": { "resource_id": "facdb:52b560460d28a7c7aa06d67ddcaddb89", "name": "Alliance of Queens Artists, Inc.", "category": "libraries-and-community", "source": "facdb", "is_coad_member": false }, "geometry": { "type": "Point", "coordinates": [ -73.853348, 40.710678 ] } },
{ "type": "Feature", "properties": { "resource_id": "facdb:545673fa3eefccd506166e8fd834b331", "name": "Central Queens Ym&Yha", "category": "children-and-youth", "source": "facdb", "is_coad_member": false }, "geometry": { "type": "Point", "coordinates": [ -73.847089, 40.72872 ] } },
{ "type": "Feature", "properties": { "resource_id": "facdb:556bbbaedab1cf45e8f4644e4fba6974", "name": "Annadale Playground", "category": "parks-and-environment", "source": "facdb", "is_coad_member": false }, "geometry": { "type": "Point", "coordinates": [ -73.852585, 40.730902 ] } },
{ "type": "Feature", "properties": { "resource_id": "facdb:56f3b35c3f93241fcc0e0f1b89e73c51", "name": "Forest Hills High School", "category": "children-and-youth", "source": "facdb", "is_coad_member": false }, "geometry": { "type": "Point", "coordinates": [ -73.844762, 40.72979 ] } },
{ "type": "Feature", "properties": { "resource_id": "facdb:58480bc6fc828629819c6053b3b7dc4f", "name": "PAL Edward Byrne Center", "category": "children-and-youth", "source": "facdb", "is_coad_member": false }, "geometry": { "type": "Point", "coordinates": [ -73.850128, 40.736308 ] } },
{ "type": "Feature", "properties": { "resource_id": "facdb:58a86b11c1b7d5e3f367e15f51aa4c34", "name": "Samuel Field YM & YWHA Inc", "category": "children-and-youth", "source": "facdb", "is_coad_member": false }, "geometry": { "type": "Point", "coordinates": [ -73.844762, 40.72979 ] } },
{ "type": "Feature", "properties": { "resource_id": "facdb:5c587ff45aae5af7c7b9bd2dce57ef6b", "name": "Queens Community House", "category": "children-and-youth", "source": "facdb", "is_coad_member": false }, "geometry": { "type": "Point", "coordinates": [ -73.848961, 40.736625 ] } },
{ "type": "Feature", "properties": { "resource_id": "facdb:5de270a6fa3588a1120fd22e2ef9d2ed", "name": "Qch Cred", "category": "children-and-youth", "source": "facdb", "is_coad_member": false }, "geometry": { "type": "Point", "coordinates": [ -73.84547, 40.720177 ] } },
{ "type": "Feature", "properties": { "resource_id": "facdb:5fd1c4e9a69d541a69095cee68fb6987", "name": "Jewish Institute of Queens : Jewish Institute of Queens", "category": "food-assistance", "source": "facdb", "is_coad_member": false }, "geometry": { "type": "Point", "coordinates": [ -73.870958, 40.731222 ] } },
{ "type": "Feature", "properties": { "resource_id": "facdb:5fdb494919a0240cf9e76b4e3cf0db67", "name": "Bnos Malka Academy", "category": "children-and-youth", "source": "facdb", "is_coad_member": false }, "geometry": { "type": "Point", "coordinates": [ -73.838419, 40.723006 ] } },
{ "type": "Feature", "properties": { "resource_id": "facdb:5fe35968a737e5b7b3673fab7929e879", "name": "Ohr Avner Day Camp", "category": "children-and-youth", "source": "facdb", "is_coad_member": false }, "geometry": { "type": "Point", "coordinates": [ -73.870958, 40.731222 ] } },
{ "type": "Feature", "properties": { "resource_id": "facdb:61488b6f037923ccbb9f30a3f91f633e", "name": "Queens Community House, Inc.", "category": "education-and-jobs", "source": "facdb", "is_coad_member": false }, "geometry": { "type": "Point", "coordinates": [ -73.850128, 40.736308 ] } },
{ "type": "Feature", "properties": { "resource_id": "facdb:616fc0fe9a585b9d9fe8b370c3b6f2c3", "name": "Forest Hills Chinese Language", "category": "children-and-youth", "source": "facdb", "is_coad_member": false }, "geometry": { "type": "Point", "coordinates": [ -73.839184, 40.72338 ] } },
{ "type": "Feature", "properties": { "resource_id": "facdb:61ce8f6d4ee4ad2101cdb1e7f7f1205d", "name": "Queens Community House, Inc.", "category": "education-and-jobs", "source": "facdb", "is_coad_member": false }, "geometry": { "type": "Point", "coordinates": [ -73.848918, 40.737188 ] } },
{ "type": "Feature", "properties": { "resource_id": "facdb:623d2aa5f25bc2f47b1da1d4296a996d", "name": "Queens Jewish Community Council : Queens Jewish Community Council", "category": "food-assistance", "source": "facdb", "is_coad_member": false }, "geometry": { "type": "Point", "coordinates": [ -73.832174, 40.714185 ] } },
{ "type": "Feature", "properties": { "resource_id": "facdb:62a7c97942a5dabe16c5efd5ffee4e8e", "name": "Jewish Institute of Queens", "category": "children-and-youth", "source": "facdb", "is_coad_member": false }, "geometry": { "type": "Point", "coordinates": [ -73.870958, 40.731222 ] } },
{ "type": "Feature", "properties": { "resource_id": "facdb:66acccf67863e245d46146e7c6eed6e0", "name": "Queens Jewish Community Council", "category": "children-and-youth", "source": "facdb", "is_coad_member": false }, "geometry": { "type": "Point", "coordinates": [ -73.832174, 40.714185 ] } },
{ "type": "Feature", "properties": { "resource_id": "facdb:6821b812dc1ced1cc62f9fdc2417fa65", "name": "Samuel Field YM & YWHA Inc", "category": "children-and-youth", "source": "facdb", "is_coad_member": false }, "geometry": { "type": "Point", "coordinates": [ -73.852272, 40.736492 ] } },
{ "type": "Feature", "properties": { "resource_id": "facdb:68726e85a3549d598c0d52a19a9373cb", "name": "American Training Center, Inc.", "category": "education-and-jobs", "source": "facdb", "is_coad_member": false }, "geometry": { "type": "Point", "coordinates": [ -73.843574, 40.72053 ] } },
{ "type": "Feature", "properties": { "resource_id": "facdb:69c9ccfd9cb97e4c45bf3a3575a82cfb", "name": "Queens Law Associates Not for Profit Corporation", "category": "children-and-youth", "source": "facdb", "is_coad_member": false }, "geometry": { "type": "Point", "coordinates": [ -73.83149, 40.715121 ] } },
{ "type": "Feature", "properties": { "resource_id": "facdb:6c97768c6ba45b6394f28ea08202bcc4", "name": "Jewish Community Council of Greater Coney Island Inc", "category": "education-and-jobs", "source": "facdb", "is_coad_member": false }, "geometry": { "type": "Point", "coordinates": [ -73.846332, 40.721283 ] } },
{ "type": "Feature", "properties": { "resource_id": "facdb:6ce3e131649df15456acfa6e0187ea3d", "name": "Queens Jewish Community Council Inc", "category": "children-and-youth", "source": "facdb", "is_coad_member": false }, "geometry": { "type": "Point", "coordinates": [ -73.832174, 40.714185 ] } },
{ "type": "Feature", "properties": { "resource_id": "facdb:6e23dafa06c191415b56e42828722233", "name": "Samuel Field YM & YWHA Inc", "category": "children-and-youth", "source": "facdb", "is_coad_member": false }, "geometry": { "type": "Point", "coordinates": [ -73.861006, 40.734117 ] } },
{ "type": "Feature", "properties": { "resource_id": "facdb:6e5143ef85440b1997a15cc7c1197587", "name": "Omh Suicide Prevention", "category": "mental-health-and-recovery", "source": "facdb", "is_coad_member": false }, "geometry": { "type": "Point", "coordinates": [ -73.830615, 40.715276 ] } },
{ "type": "Feature", "properties": { "resource_id": "facdb:6f23ba7d167e0be3563eb0fe20c7f135", "name": "Jewish Board of Family & Children's Services Smh Cma (Aot)", "category": "mental-health-and-recovery", "source": "facdb", "is_coad_member": false }, "geometry": { "type": "Point", "coordinates": [ -73.858337, 40.729205 ] } },
{ "type": "Feature", "properties": { "resource_id": "facdb:700a92a5d137ab1ddc13f35f21e1f872", "name": "Plaza College", "category": "education-and-jobs", "source": "facdb", "is_coad_member": false }, "geometry": { "type": "Point", "coordinates": [ -73.830615, 40.715276 ] } },
{ "type": "Feature", "properties": { "resource_id": "facdb:707d693d6073911c494d7e95966c8417", "name": "Saint Luke's Episcopal Church", "category": "parks-and-environment", "source": "facdb", "is_coad_member": false }, "geometry": { "type": "Point", "coordinates": [ -73.844631, 40.714013 ] } },
{ "type": "Feature", "properties": { "resource_id": "facdb:714238a49cc0ee8e56277ae8cfc43bd8", "name": "Qpl Rego Park Library", "category": "children-and-youth", "source": "facdb", "is_coad_member": false }, "geometry": { "type": "Point", "coordinates": [ -73.864507, 40.727323 ] } },
{ "type": "Feature", "properties": { "resource_id": "facdb:71a381a68c1cd0c1538edcf249f42346", "name": "Queens Community House Inc.", "category": "older-adults", "source": "facdb", "is_coad_member": false }, "geometry": { "type": "Point", "coordinates": [ -73.850128, 40.736308 ] } },
{ "type": "Feature", "properties": { "resource_id": "facdb:73751f981239b3b0daada4629a44557c", "name": "Nysarc Inc New York City Chapter", "category": "disability-and-access", "source": "facdb", "is_coad_member": false }, "geometry": { "type": "Point", "coordinates": [ -73.84547, 40.720177 ] } },
{ "type": "Feature", "properties": { "resource_id": "facdb:754c6c8a963cc67f9d982d5954d268b8", "name": "Samuel Field YM & YWHA Inc", "category": "children-and-youth", "source": "facdb", "is_coad_member": false }, "geometry": { "type": "Point", "coordinates": [ -73.847089, 40.72872 ] } },
{ "type": "Feature", "properties": { "resource_id": "facdb:76e8c6109f91250304710fc3d36ac892", "name": "Samuel Field YM & YWHA Inc", "category": "children-and-youth", "source": "facdb", "is_coad_member": false }, "geometry": { "type": "Point", "coordinates": [ -73.847089, 40.72872 ] } },
{ "type": "Feature", "properties": { "resource_id": "facdb:771d342130609ef704e31d1c45bf367a", "name": "Selfhelp Community Services Inc", "category": "older-adults", "source": "facdb", "is_coad_member": false }, "geometry": { "type": "Point", "coordinates": [ -73.847507, 40.721651 ] } },
{ "type": "Feature", "properties": { "resource_id": "facdb:79664d5611d609ccff817d7e74ab2184", "name": "Real Good Playground", "category": "parks-and-environment", "source": "facdb", "is_coad_member": false }, "geometry": { "type": "Point", "coordinates": [ -73.857237, 40.735517 ] } },
{ "type": "Feature", "properties": { "resource_id": "facdb:79ad4385278c09e36d1835d3d29ec67e", "name": "Rego Park Jewish Center", "category": "parks-and-environment", "source": "facdb", "is_coad_member": false }, "geometry": { "type": "Point", "coordinates": [ -73.859361, 40.728435 ] } },
{ "type": "Feature", "properties": { "resource_id": "facdb:7b420b0d14d41eb057dac612d746d916", "name": "Offices", "category": "government-offices", "source": "facdb", "is_coad_member": false }, "geometry": { "type": "Point", "coordinates": [ -73.830624, 40.715256 ] } },
{ "type": "Feature", "properties": { "resource_id": "facdb:7dbf1c15eac34b664b7ae7c2d7826616", "name": "Queens Community House, Inc.", "category": "older-adults", "source": "facdb", "is_coad_member": false }, "geometry": { "type": "Point", "coordinates": [ -73.832174, 40.714185 ] } },
{ "type": "Feature", "properties": { "resource_id": "facdb:7dd6e6de320c60c589fa431ea8ff071d", "name": "Forest Hills Care Center", "category": "health-care", "source": "facdb", "is_coad_member": false }, "geometry": { "type": "Point", "coordinates": [ -73.855154, 40.721591 ] } },
{ "type": "Feature", "properties": { "resource_id": "facdb:7e7b267df288340cd25f8217b63d3faa", "name": "Queensway", "category": "parks-and-environment", "source": "facdb", "is_coad_member": false }, "geometry": { "type": "Point", "coordinates": [ -73.856656, 40.708412 ] } },
{ "type": "Feature", "properties": { "resource_id": "facdb:7f3be91c15f725133b9ce78cc9586bcd", "name": "PS 175 the Lynn Gross Discovery School (28Q175)", "category": "children-and-youth", "source": "facdb", "is_coad_member": false }, "geometry": { "type": "Point", "coordinates": [ -73.852585, 40.730902 ] } },
{ "type": "Feature", "properties": { "resource_id": "facdb:81fd34781dd292ad0d752abcdb9e95ea", "name": "New York Preventive Health Center", "category": "health-care", "source": "facdb", "is_coad_member": false }, "geometry": { "type": "Point", "coordinates": [ -73.850611, 40.722067 ] } },
{ "type": "Feature", "properties": { "resource_id": "facdb:82ed659ca7928fe20ea3daafc3a8caa1", "name": "Arista Center for Psychotherapy", "category": "mental-health-and-recovery", "source": "facdb", "is_coad_member": false }, "geometry": { "type": "Point", "coordinates": [ -73.840437, 40.721605 ] } },
{ "type": "Feature", "properties": { "resource_id": "facdb:82f8ab56814904763f3a84ee12828d21", "name": "Newtown Literary Alliance", "category": "libraries-and-community", "source": "facdb", "is_coad_member": false }, "geometry": { "type": "Point", "coordinates": [ -73.861987, 40.734111 ] } },
{ "type": "Feature", "properties": { "resource_id": "facdb:8313b64fbb6e3848cbeae49080f284c7", "name": "Coopdanza, Inc.", "category": "libraries-and-community", "source": "facdb", "is_coad_member": false }, "geometry": { "type": "Point", "coordinates": [ -73.856374, 40.724676 ] } },
{ "type": "Feature", "properties": { "resource_id": "facdb:84fe2def7fb3fd4eda788f9d338afdf3", "name": "The Child Center of NY Inc", "category": "mental-health-and-recovery", "source": "facdb", "is_coad_member": false }, "geometry": { "type": "Point", "coordinates": [ -73.830615, 40.715276 ] } },
{ "type": "Feature", "properties": { "resource_id": "facdb:867997634e4658a15f75a613d2dbd3b3", "name": "Forest Hills Community House : Forest Hills Senior Center", "category": "food-assistance", "source": "facdb", "is_coad_member": false }, "geometry": { "type": "Point", "coordinates": [ -73.850128, 40.736308 ] } },
{ "type": "Feature", "properties": { "resource_id": "facdb:883d8f071c0da00e2a36eede821ce7c0", "name": "Russell Sage Playground", "category": "parks-and-environment", "source": "facdb", "is_coad_member": false }, "geometry": { "type": "Point", "coordinates": [ -73.851475, 40.723775 ] } },
{ "type": "Feature", "properties": { "resource_id": "facdb:8ae7b8bab98f18ca98850989c7b7ba01", "name": "Offices", "category": "government-offices", "source": "facdb", "is_coad_member": false }, "geometry": { "type": "Point", "coordinates": [ -73.830624, 40.715256 ] } },
{ "type": "Feature", "properties": { "resource_id": "facdb:8b9ee0201a9cfef4ae2a88d5fe260e13", "name": "Advanced Center for Psychotherapy Forest Hills", "category": "mental-health-and-recovery", "source": "facdb", "is_coad_member": false }, "geometry": { "type": "Point", "coordinates": [ -73.849138, 40.725216 ] } },
{ "type": "Feature", "properties": { "resource_id": "facdb:8f2eac2f759481ca024bc311fe073bd9", "name": "United States Post Office-Forest Hills Station", "category": "parks-and-environment", "source": "facdb", "is_coad_member": false }, "geometry": { "type": "Point", "coordinates": [ -73.846932, 40.721642 ] } },
{ "type": "Feature", "properties": { "resource_id": "facdb:9035720f2ad0afa5ad1dba3c7e8aa2cf", "name": "Giving Alternative Learners Uplifting Opportunities Inc", "category": "children-and-youth", "source": "facdb", "is_coad_member": false }, "geometry": { "type": "Point", "coordinates": [ -73.853821, 40.708191 ] } },
{ "type": "Feature", "properties": { "resource_id": "facdb:90e6fecd124c3dd9fa23bde2e93d71a7", "name": "St. Paul's Schl Nurs - Queens", "category": "education-and-jobs", "source": "facdb", "is_coad_member": false }, "geometry": { "type": "Point", "coordinates": [ -73.858337, 40.729205 ] } },
{ "type": "Feature", "properties": { "resource_id": "facdb:9242b699f3fc8bf9ee7f05f1dcb37fc0", "name": "The Child Center Hbci Queens", "category": "mental-health-and-recovery", "source": "facdb", "is_coad_member": false }, "geometry": { "type": "Point", "coordinates": [ -73.830615, 40.715276 ] } },
{ "type": "Feature", "properties": { "resource_id": "facdb:935419030fde602a8603bec38e0098ac", "name": "Austin Medical Assistant Training Ll", "category": "education-and-jobs", "source": "facdb", "is_coad_member": false }, "geometry": { "type": "Point", "coordinates": [ -73.84164, 40.719424 ] } },
{ "type": "Feature", "properties": { "resource_id": "facdb:968cc8010e77e11f427314fa5149e779", "name": "Cc/Oper. Fun/Queen of Martyrs", "category": "children-and-youth", "source": "facdb", "is_coad_member": false }, "geometry": { "type": "Point", "coordinates": [ -73.840659, 40.718909 ] } },
{ "type": "Feature", "properties": { "resource_id": "facdb:9903b8e82383c6cb21f36c1a7320aef4", "name": "Qch Youth Employment Services Office", "category": "children-and-youth", "source": "facdb", "is_coad_member": false }, "geometry": { "type": "Point", "coordinates": [ -73.84547, 40.720177 ] } },
{ "type": "Feature", "properties": { "resource_id": "facdb:99408730f96390d95be2858228ad0d1c", "name": "Samuel Field YM & YWHA Inc", "category": "benefits-and-legal", "source": "facdb", "is_coad_member": false }, "geometry": { "type": "Point", "coordinates": [ -73.847089, 40.72872 ] } },
{ "type": "Feature", "properties": { "resource_id": "facdb:999bbcdf8218ed9b74215bdb85f77f0f", "name": "Queens Community House, Inc.", "category": "children-and-youth", "source": "facdb", "is_coad_member": false }, "geometry": { "type": "Point", "coordinates": [ -73.848918, 40.737188 ] } },
{ "type": "Feature", "properties": { "resource_id": "facdb:99fb662f82a35c4df05345d2dedcbda7", "name": "Flux Theatre Ensemble, Inc.", "category": "libraries-and-community", "source": "facdb", "is_coad_member": false }, "geometry": { "type": "Point", "coordinates": [ -73.852134, 40.724513 ] } },
{ "type": "Feature", "properties": { "resource_id": "facdb:9a7f56d3f349dddef0ae5442e20a2afb", "name": "Ridgewood", "category": "children-and-youth", "source": "facdb", "is_coad_member": false }, "geometry": { "type": "Point", "coordinates": [ -73.847089, 40.72872 ] } },
{ "type": "Feature", "properties": { "resource_id": "facdb:9c1da1b09747034268192c26fa8435b4", "name": "Police Athletic League Inc", "category": "children-and-youth", "source": "facdb", "is_coad_member": false }, "geometry": { "type": "Point", "coordinates": [ -73.850128, 40.736308 ] } },
{ "type": "Feature", "properties": { "resource_id": "facdb:9ef3e3442cf0bb96eba50fea623e5270", "name": "Cftss: Community Psychiatric Support and Treatment", "category": "mental-health-and-recovery", "source": "facdb", "is_coad_member": false }, "geometry": { "type": "Point", "coordinates": [ -73.830615, 40.715276 ] } },
{ "type": "Feature", "properties": { "resource_id": "facdb:9f304d650b089d20ad2bdef79a884485", "name": "Jurukan, Inc.", "category": "libraries-and-community", "source": "facdb", "is_coad_member": false }, "geometry": { "type": "Point", "coordinates": [ -73.834789, 40.713091 ] } },
{ "type": "Feature", "properties": { "resource_id": "facdb:Q060001", "name": "Rego Park Mall", "category": "parks-and-environment", "source": "facdb", "is_coad_member": false }, "geometry": { "type": "Point", "coordinates": [ -73.863217, 40.733549 ] } },
{ "type": "Feature", "properties": { "resource_id": "facdb:a0f89cd49b9a6403f4762bac1ca2aaf4", "name": "Playground Sixty Two Lxii", "category": "parks-and-environment", "source": "facdb", "is_coad_member": false }, "geometry": { "type": "Point", "coordinates": [ -73.852969, 40.736162 ] } },
{ "type": "Feature", "properties": { "resource_id": "facdb:a20a8374983df73a1e38c64482d862ea", "name": "Yellowstone Park", "category": "parks-and-environment", "source": "facdb", "is_coad_member": false }, "geometry": { "type": "Point", "coordinates": [ -73.847893, 40.726241 ] } },
{ "type": "Feature", "properties": { "resource_id": "facdb:a23548ab49aad3725fd07d360a1c6361", "name": "Jewish Institute of Queens", "category": "children-and-youth", "source": "facdb", "is_coad_member": false }, "geometry": { "type": "Point", "coordinates": [ -73.870958, 40.731222 ] } },
{ "type": "Feature", "properties": { "resource_id": "facdb:a2e5569bb4600299ffa949e4cb36a7f3", "name": "Tribeca Barber & Beauty School, LLC", "category": "education-and-jobs", "source": "facdb", "is_coad_member": false }, "geometry": { "type": "Point", "coordinates": [ -73.862301, 40.729647 ] } },
{ "type": "Feature", "properties": { "resource_id": "facdb:a38c83801dcddbbe5ff9818ebe3ef2e7", "name": "Masbia of Queens", "category": "children-and-youth", "source": "facdb", "is_coad_member": false }, "geometry": { "type": "Point", "coordinates": [ -73.849784, 40.732352 ] } },
{ "type": "Feature", "properties": { "resource_id": "facdb:a5b9e1e5dc7f92899f66e2568b761df6", "name": "Metropolitan Learning Institute", "category": "education-and-jobs", "source": "facdb", "is_coad_member": false }, "geometry": { "type": "Point", "coordinates": [ -73.859455, 40.729639 ] } },
{ "type": "Feature", "properties": { "resource_id": "facdb:a681f04a8ba3aea93ac162e5331c086a", "name": "Telecom Institute of New York", "category": "education-and-jobs", "source": "facdb", "is_coad_member": false }, "geometry": { "type": "Point", "coordinates": [ -73.832827, 40.715064 ] } },
{ "type": "Feature", "properties": { "resource_id": "facdb:a7b060438a99bd62d437e588951b9847", "name": "Cftss: Youth Peer Support and Training", "category": "mental-health-and-recovery", "source": "facdb", "is_coad_member": false }, "geometry": { "type": "Point", "coordinates": [ -73.830615, 40.715276 ] } },
{ "type": "Feature", "properties": { "resource_id": "facdb:a8bebb24ffa3f299d52ec50b0b625459", "name": "Jewish Institute of Queens", "category": "children-and-youth", "source": "facdb", "is_coad_member": false }, "geometry": { "type": "Point", "coordinates": [ -73.870958, 40.731222 ] } },
{ "type": "Feature", "properties": { "resource_id": "facdb:a90d8f401e1aa48d6fe21ef7e5514247", "name": "Queens Community House, Inc.", "category": "children-and-youth", "source": "facdb", "is_coad_member": false }, "geometry": { "type": "Point", "coordinates": [ -73.850128, 40.736308 ] } },
{ "type": "Feature", "properties": { "resource_id": "facdb:ab0e67ab74307b0b388bcca3b02b7a67", "name": "The Church-In-The-Gardens", "category": "parks-and-environment", "source": "facdb", "is_coad_member": false }, "geometry": { "type": "Point", "coordinates": [ -73.841297, 40.716444 ] } },
{ "type": "Feature", "properties": { "resource_id": "facdb:abc9c293b9cc93c2a73e936ccb18ea10", "name": "Fleetwood Triangle", "category": "parks-and-environment", "source": "facdb", "is_coad_member": false }, "geometry": { "type": "Point", "coordinates": [ -73.867273, 40.722704 ] } },
{ "type": "Feature", "properties": { "resource_id": "facdb:adc9481e3ab317a1dc371fb3b4d5abfb", "name": "New York City Criminal Justice Agency", "category": "benefits-and-legal", "source": "facdb", "is_coad_member": false }, "geometry": { "type": "Point", "coordinates": [ -73.830615, 40.715276 ] } },
{ "type": "Feature", "properties": { "resource_id": "facdb:b1dd3f6ca4a65763d8233e8c6b99a047", "name": "Forestdale Inc.", "category": "children-and-youth", "source": "facdb", "is_coad_member": false }, "geometry": { "type": "Point", "coordinates": [ -73.842297, 40.72952 ] } },
{ "type": "Feature", "properties": { "resource_id": "facdb:b1f9ebb8bc399c16bb13086ad52b8acf", "name": "The Child Center of NY Inc", "category": "children-and-youth", "source": "facdb", "is_coad_member": false }, "geometry": { "type": "Point", "coordinates": [ -73.830615, 40.715276 ] } },
{ "type": "Feature", "properties": { "resource_id": "facdb:b49e9ec6babdcfe126432727569234b0", "name": "Queens Community House Inc.", "category": "older-adults", "source": "facdb", "is_coad_member": false }, "geometry": { "type": "Point", "coordinates": [ -73.865515, 40.731813 ] } },
{ "type": "Feature", "properties": { "resource_id": "facdb:b4fcd418f3344fe27f84a2ba3c0a40a2", "name": "Forest View Center for Rehabilitation & Nursing", "category": "health-care", "source": "facdb", "is_coad_member": false }, "geometry": { "type": "Point", "coordinates": [ -73.841554, 40.721763 ] } },
{ "type": "Feature", "properties": { "resource_id": "facdb:b773f92f04c58369894e582ceab53d83", "name": "YMCA of Greater New York", "category": "children-and-youth", "source": "facdb", "is_coad_member": false }, "geometry": { "type": "Point", "coordinates": [ -73.852585, 40.730902 ] } },
{ "type": "Feature", "properties": { "resource_id": "facdb:b812660a0eb481c1d2eef34b83170102", "name": "Cftss: Psychosocial Rehabilitation", "category": "mental-health-and-recovery", "source": "facdb", "is_coad_member": false }, "geometry": { "type": "Point", "coordinates": [ -73.830615, 40.715276 ] } },
{ "type": "Feature", "properties": { "resource_id": "facdb:b88ec1886a37b7835ff4032d2003b618", "name": "Young Israel Programs Inc", "category": "older-adults", "source": "facdb", "is_coad_member": false }, "geometry": { "type": "Point", "coordinates": [ -73.851788, 40.721624 ] } },
{ "type": "Feature", "properties": { "resource_id": "facdb:bd6357ec6f4c1a4963bee591f12b555d", "name": "Queens Community House, Inc.", "category": "children-and-youth", "source": "facdb", "is_coad_member": false }, "geometry": { "type": "Point", "coordinates": [ -73.850128, 40.736308 ] } },
{ "type": "Feature", "properties": { "resource_id": "facdb:bd7509c5c8121cb637f4d47aa7b58ee8", "name": "Forest Hills Comm House #2", "category": "children-and-youth", "source": "facdb", "is_coad_member": false }, "geometry": { "type": "Point", "coordinates": [ -73.848918, 40.737188 ] } },
{ "type": "Feature", "properties": { "resource_id": "facdb:bddc9dd717c04c4317ce883bff61a2e3", "name": "Rego Park Counseling (Resource) Center Clinic", "category": "mental-health-and-recovery", "source": "facdb", "is_coad_member": false }, "geometry": { "type": "Point", "coordinates": [ -73.858337, 40.729205 ] } },
{ "type": "Feature", "properties": { "resource_id": "facdb:c2930f5e07656f8203bafe28ba236dfd", "name": "PS16 at PS196 Annex-Q", "category": "children-and-youth", "source": "facdb", "is_coad_member": false }, "geometry": { "type": "Point", "coordinates": [ -73.838746, 40.722669 ] } },
{ "type": "Feature", "properties": { "resource_id": "facdb:c6ace6bc01cd04d11d198d57102393e0", "name": "Masbia of Queens : Masbia of Queens", "category": "food-assistance", "source": "facdb", "is_coad_member": false }, "geometry": { "type": "Point", "coordinates": [ -73.849784, 40.732352 ] } },
{ "type": "Feature", "properties": { "resource_id": "facdb:c885a9c29e6c2759e9543b604edd7940", "name": "J.H.S. 157 Stephen A. Halsey", "category": "children-and-youth", "source": "facdb", "is_coad_member": false }, "geometry": { "type": "Point", "coordinates": [ -73.852996, 40.732336 ] } },
{ "type": "Feature", "properties": { "resource_id": "facdb:c8e31cd2422219d38da231a0ba7f4706", "name": "Horace Harding Playground", "category": "parks-and-environment", "source": "facdb", "is_coad_member": false }, "geometry": { "type": "Point", "coordinates": [ -73.86033, 40.733176 ] } },
{ "type": "Feature", "properties": { "resource_id": "facdb:ca11dc06ff86e1e6abc62a8df4e715ed", "name": "First Faith Baptist Church", "category": "children-and-youth", "source": "facdb", "is_coad_member": false }, "geometry": { "type": "Point", "coordinates": [ -73.850128, 40.736308 ] } },
{ "type": "Feature", "properties": { "resource_id": "facdb:cd8f3ff8891f4a573c7fde55cbe4170b", "name": "Offices", "category": "government-offices", "source": "facdb", "is_coad_member": false }, "geometry": { "type": "Point", "coordinates": [ -73.848801, 40.710363 ] } },
{ "type": "Feature", "properties": { "resource_id": "facdb:d3ea8709625f6d7efca6b9432ff6eb7d", "name": "Queens Jewish Community Council, Inc.", "category": "libraries-and-community", "source": "facdb", "is_coad_member": false }, "geometry": { "type": "Point", "coordinates": [ -73.832174, 40.714185 ] } },
{ "type": "Feature", "properties": { "resource_id": "facdb:d4ce1626e28f97e17b2de03f6a42343a", "name": "Samuel Field YM & YWHA Inc", "category": "children-and-youth", "source": "facdb", "is_coad_member": false }, "geometry": { "type": "Point", "coordinates": [ -73.847089, 40.72872 ] } },
{ "type": "Feature", "properties": { "resource_id": "facdb:d6ae826d5bc845bcb948661efff13c31", "name": "Queens Law Associates Not for Profit Corporation", "category": "benefits-and-legal", "source": "facdb", "is_coad_member": false }, "geometry": { "type": "Point", "coordinates": [ -73.83149, 40.715121 ] } },
{ "type": "Feature", "properties": { "resource_id": "facdb:dad86bdd0f9fd725c61037ae6ef71b96", "name": "Queens Community House Inc.", "category": "older-adults", "source": "facdb", "is_coad_member": false }, "geometry": { "type": "Point", "coordinates": [ -73.850128, 40.736308 ] } },
{ "type": "Feature", "properties": { "resource_id": "facdb:dbe925c7cbbdb296f045d5021541186d", "name": "Mercy Drive  Inc.", "category": "disability-and-access", "source": "facdb", "is_coad_member": false }, "geometry": { "type": "Point", "coordinates": [ -73.837774, 40.720742 ] } },
{ "type": "Feature", "properties": { "resource_id": "facdb:e1b5908f61804b1139d357c11db930f3", "name": "NYPD 112th Precinct", "category": "emergency-services", "source": "facdb", "is_coad_member": false }, "geometry": { "type": "Point", "coordinates": [ -73.851379, 40.722323 ] } },
{ "type": "Feature", "properties": { "resource_id": "facdb:e5b2b4563bee08449fd0d880df2fe092", "name": "National Institute of Realtime Repor", "category": "education-and-jobs", "source": "facdb", "is_coad_member": false }, "geometry": { "type": "Point", "coordinates": [ -73.858337, 40.729205 ] } },
{ "type": "Feature", "properties": { "resource_id": "facdb:e62b64663979fbdef3ba80432128c18a", "name": "Jewish Community Council of Greater Coney Island Inc", "category": "education-and-jobs", "source": "facdb", "is_coad_member": false }, "geometry": { "type": "Point", "coordinates": [ -73.844836, 40.719754 ] } },
{ "type": "Feature", "properties": { "resource_id": "facdb:e7e3e8c1e583599a13fb4203b9286b4c", "name": "Bukharian Jewish Theater Studio, Inc.", "category": "libraries-and-community", "source": "facdb", "is_coad_member": false }, "geometry": { "type": "Point", "coordinates": [ -73.85468, 40.7309 ] } },
{ "type": "Feature", "properties": { "resource_id": "facdb:e830f7fa7f65c3ab715e9f1689c41abc", "name": "Fairview Nursing Care Center Inc", "category": "health-care", "source": "facdb", "is_coad_member": false }, "geometry": { "type": "Point", "coordinates": [ -73.838231, 40.724673 ] } },
{ "type": "Feature", "properties": { "resource_id": "facdb:e8a77daa6bc27976a6d4e9ffff6ec5ee", "name": "Northwell Ambulatory Care Center- a Program of Long Island Jewish Medical Center", "category": "health-care", "source": "facdb", "is_coad_member": false }, "geometry": { "type": "Point", "coordinates": [ -73.863586, 40.731227 ] } },
{ "type": "Feature", "properties": { "resource_id": "facdb:ebcfcfdebce51744064d5ae3b727ffd2", "name": "Offices", "category": "government-offices", "source": "facdb", "is_coad_member": false }, "geometry": { "type": "Point", "coordinates": [ -73.830624, 40.715256 ] } },
{ "type": "Feature", "properties": { "resource_id": "facdb:ed69e7cc0627bd92d7a2f0071d7d4f1d", "name": "Long Island Jewish Forest Hills", "category": "health-care", "source": "facdb", "is_coad_member": false }, "geometry": { "type": "Point", "coordinates": [ -73.851685, 40.729009 ] } },
{ "type": "Feature", "properties": { "resource_id": "facdb:f0e62efd3509903e01f6db438b88c5f7", "name": "Samuel Field Ym/Ywha : Esther Grunblat Center of Central Queens", "category": "food-assistance", "source": "facdb", "is_coad_member": false }, "geometry": { "type": "Point", "coordinates": [ -73.846724, 40.728641 ] } },
{ "type": "Feature", "properties": { "resource_id": "facdb:f2c711732c4bac13f50a2f3cd21c9264", "name": "Expedited Engagement Program", "category": "mental-health-and-recovery", "source": "facdb", "is_coad_member": false }, "geometry": { "type": "Point", "coordinates": [ -73.830615, 40.715276 ] } },
{ "type": "Feature", "properties": { "resource_id": "facdb:f397d76e5c582d820dfd568d27cd05af", "name": "Medex Diagnostic and Treatment Center", "category": "health-care", "source": "facdb", "is_coad_member": false }, "geometry": { "type": "Point", "coordinates": [ -73.837913, 40.71922 ] } },
{ "type": "Feature", "properties": { "resource_id": "facdb:f48e9f051b2bc9fe6eb13d2bf0282084", "name": "Jewish Board Queens Youth Act Program", "category": "mental-health-and-recovery", "source": "facdb", "is_coad_member": false }, "geometry": { "type": "Point", "coordinates": [ -73.858337, 40.729205 ] } },
{ "type": "Feature", "properties": { "resource_id": "facdb:f6920dd3f391004da39539fdfa207e34", "name": "Nyu Langone Perlmutter Cancer Center - Rego Park", "category": "health-care", "source": "facdb", "is_coad_member": false }, "geometry": { "type": "Point", "coordinates": [ -73.858337, 40.729205 ] } },
{ "type": "Feature", "properties": { "resource_id": "facdb:f6da5a6f1b8006927fcdb1f4a89f0fe9", "name": "Global Kids Inc", "category": "children-and-youth", "source": "facdb", "is_coad_member": false }, "geometry": { "type": "Point", "coordinates": [ -73.855803, 40.708533 ] } },
{ "type": "Feature", "properties": { "resource_id": "facdb:f742de8c8e47b1fbbee83763250ea651", "name": "Giving Alternative Learners Uplifting Opportunities Inc", "category": "disability-and-access", "source": "facdb", "is_coad_member": false }, "geometry": { "type": "Point", "coordinates": [ -73.853821, 40.708191 ] } },
{ "type": "Feature", "properties": { "resource_id": "facdb:f8226df46c1c23348002c0e7eb89b60a", "name": "JHS 190 Russell Sage (28Q190)", "category": "children-and-youth", "source": "facdb", "is_coad_member": false }, "geometry": { "type": "Point", "coordinates": [ -73.851733, 40.723179 ] } },
{ "type": "Feature", "properties": { "resource_id": "facdb:f83f321eb0b5771f4c60ee40b03c0dbb", "name": "Queens Community House, Inc.", "category": "benefits-and-legal", "source": "facdb", "is_coad_member": false }, "geometry": { "type": "Point", "coordinates": [ -73.850128, 40.736308 ] } },
{ "type": "Feature", "properties": { "resource_id": "facdb:fadb1ae39d43b5cc827d748466a20873", "name": "Rockaway Waterfront Alliance, Inc.", "category": "libraries-and-community", "source": "facdb", "is_coad_member": false }, "geometry": { "type": "Point", "coordinates": [ -73.855153, 40.727077 ] } },
{ "type": "Feature", "properties": { "resource_id": "facdb:fe4eac19ed5646ed3c3b57a6a83733d7", "name": "Offices", "category": "government-offices", "source": "facdb", "is_coad_member": false }, "geometry": { "type": "Point", "coordinates": [ -73.848715, 40.721367 ] } },
{ "type": "Feature", "properties": { "resource_id": "facdb:ff08b455d9a1ab0c2ee7aa29d8a39716", "name": "Music Associates of New York, Ltd.", "category": "libraries-and-community", "source": "facdb", "is_coad_member": false }, "geometry": { "type": "Point", "coordinates": [ -73.855153, 40.727077 ] } },
{ "type": "Feature", "properties": { "resource_id": "qnpd:cqjcc", "name": "Cqjcc", "category": "older-adults", "source": "qnpd", "is_coad_member": false }, "geometry": { "type": "Point", "coordinates": [ -73.843677, 40.727596 ] } },
{ "type": "Feature", "properties": { "resource_id": "qnpd:forest-hills-volunteer-ambulance-corp", "name": "Forest Hills Volunteer Ambulance Corp", "category": "health-care", "source": "qnpd", "is_coad_member": false }, "geometry": { "type": "Point", "coordinates": [ -73.857035, 40.711679 ] } },
{ "type": "Feature", "properties": { "resource_id": "qnpd:forest-hills-volunteer-ambulance-corps", "name": "Forest Hills Volunteer Ambulance Corps", "category": "health-care", "source": "qnpd", "is_coad_member": false }, "geometry": { "type": "Point", "coordinates": [ -73.852453, 40.730911 ] } },
{ "type": "Feature", "properties": { "resource_id": "qnpd:forestdale-inc", "name": "Forestdale Inc.", "category": "benefits-and-legal", "source": "qnpd", "is_coad_member": false }, "geometry": { "type": "Point", "coordinates": [ -73.842283, 40.72952 ] } },
{ "type": "Feature", "properties": { "resource_id": "qnpd:oratorio-society-of-queens", "name": "Oratorio Society of Queens", "category": "libraries-and-community", "source": "qnpd", "is_coad_member": false }, "geometry": { "type": "Point", "coordinates": [ -73.841482, 40.716354 ] } },
{ "type": "Feature", "properties": { "resource_id": "qnpd:queens-community-house--1", "name": "Queens Community House", "category": "immigration-and-language", "source": "qnpd", "is_coad_member": false }, "geometry": { "type": "Point", "coordinates": [ -73.85009, 40.737 ] } },
{ "type": "Feature", "properties": { "resource_id": "qnpd:queens-community-house--2", "name": "Queens Community House", "category": "education-and-jobs", "source": "qnpd", "is_coad_member": false }, "geometry": { "type": "Point", "coordinates": [ -73.85009, 40.737 ] } },
{ "type": "Feature", "properties": { "resource_id": "qnpd:south-asian-marrow-association-of-recruiters-inc-samar-swab-", "name": "South Asian Marrow Association of Recruiters Inc. (SAMAR Swab To Cure)", "category": "housing-and-shelter", "source": "qnpd", "is_coad_member": false }, "geometry": { "type": "Point", "coordinates": [ -73.859463, 40.729655 ] } },
{ "type": "Feature", "properties": { "resource_id": "qnpd:the-city-tutors-inc", "name": "The City Tutors, Inc", "category": "education-and-jobs", "source": "qnpd", "is_coad_member": false }, "geometry": { "type": "Point", "coordinates": [ -73.868182, 40.732216 ] } }
]
}
