{
"type": "FeatureCollection",
"name": "q08",
"features": [
{ "type": "Feature", "properties": { "resource_id": "facdb:00fe55ac4f04e70215a345ac537a54d8", "name": "Queens Community House, Inc.", "category": "children-and-youth", "source": "facdb", "is_coad_member": false }, "geometry": { "type": "Point", "coordinates": [ -73.811822, 40.71042 ] } },
{ "type": "Feature", "properties": { "resource_id": "facdb:02923b42067a8b3790486a4763d785f5", "name": "Fresh Meadows", "category": "libraries-and-community", "source": "facdb", "is_coad_member": false }, "geometry": { "type": "Point", "coordinates": [ -73.782268, 40.741559 ] } },
{ "type": "Feature", "properties": { "resource_id": "facdb:039c0e3f9a3be67339cc7a89a7f38320", "name": "Queens Hospital Center - Partial Hospital", "category": "mental-health-and-recovery", "source": "facdb", "is_coad_member": false }, "geometry": { "type": "Point", "coordinates": [ -73.80452, 40.717881 ] } },
{ "type": "Feature", "properties": { "resource_id": "facdb:044e88adff4aba96a51c01d1e819d12d", "name": "The Queens College School for Math, Science and Technology", "category": "children-and-youth", "source": "facdb", "is_coad_member": false }, "geometry": { "type": "Point", "coordinates": [ -73.820986, 40.738698 ] } },
{ "type": "Feature", "properties": { "resource_id": "facdb:053b52cd764f60aacdbecd8c09d7b41d", "name": "Forest Hills Community House : Pomonok Food Pantry", "category": "food-assistance", "source": "facdb", "is_coad_member": false }, "geometry": { "type": "Point", "coordinates": [ -73.81421, 40.735005 ] } },
{ "type": "Feature", "properties": { "resource_id": "facdb:057d26a803e341d91bdb735afd961e30", "name": "Kew Gardens Hills", "category": "libraries-and-community", "source": "facdb", "is_coad_member": false }, "geometry": { "type": "Point", "coordinates": [ -73.820748, 40.725941 ] } },
{ "type": "Feature", "properties": { "resource_id": "facdb:061e022e87510f075c3f604015a11955", "name": "Time Out for Value Inc.", "category": "children-and-youth", "source": "facdb", "is_coad_member": false }, "geometry": { "type": "Point", "coordinates": [ -73.822634, 40.732173 ] } },
{ "type": "Feature", "properties": { "resource_id": "facdb:06b28ebe9ee65058ee846846632b43ff", "name": "PS 165 Edith K Bergtraum 2", "category": "children-and-youth", "source": "facdb", "is_coad_member": false }, "geometry": { "type": "Point", "coordinates": [ -73.817761, 40.729649 ] } },
{ "type": "Feature", "properties": { "resource_id": "facdb:081f234ed04ef6e05df060a7ad3fe00c", "name": "Queens Comm Civic", "category": "children-and-youth", "source": "facdb", "is_coad_member": false }, "geometry": { "type": "Point", "coordinates": [ -73.827218, 40.726026 ] } },
{ "type": "Feature", "properties": { "resource_id": "facdb:09493be018ec6f08358d1d7e0c2720e3", "name": "Farm Playground", "category": "parks-and-environment", "source": "facdb", "is_coad_member": false }, "geometry": { "type": "Point", "coordinates": [ -73.777891, 40.736547 ] } },
{ "type": "Feature", "properties": { "resource_id": "facdb:0b1f71da88960591e781062e08f39ba2", "name": "Birch Family Services Inc.", "category": "disability-and-access", "source": "facdb", "is_coad_member": false }, "geometry": { "type": "Point", "coordinates": [ -73.801792, 40.728527 ] } },
{ "type": "Feature", "properties": { "resource_id": "facdb:0c4c72818d6a492616e959d90211c30c", "name": "Women for Afghan Women Inc", "category": "children-and-youth", "source": "facdb", "is_coad_member": false }, "geometry": { "type": "Point", "coordinates": [ -73.809873, 40.727084 ] } },
{ "type": "Feature", "properties": { "resource_id": "facdb:0f686041aaae2567114b2b0df42c4235", "name": "Exodus Transitional Community Inc", "category": "benefits-and-legal", "source": "facdb", "is_coad_member": false }, "geometry": { "type": "Point", "coordinates": [ -73.787691, 40.739414 ] } },
{ "type": "Feature", "properties": { "resource_id": "facdb:0ff78f7714897f9b095b7eec02232523", "name": "P.S. 219 Paul Klapper", "category": "children-and-youth", "source": "facdb", "is_coad_member": false }, "geometry": { "type": "Point", "coordinates": [ -73.823736, 40.737401 ] } },
{ "type": "Feature", "properties": { "resource_id": "facdb:11dbbe28bf95b37490ff7277f10f39be", "name": "Bnai Brith Hillel Foundation Inc at Queens College", "category": "children-and-youth", "source": "facdb", "is_coad_member": false }, "geometry": { "type": "Point", "coordinates": [ -73.81613, 40.735956 ] } },
{ "type": "Feature", "properties": { "resource_id": "facdb:14eb3e4b891ac254cfa3c0af760f683f", "name": "Park", "category": "parks-and-environment", "source": "facdb", "is_coad_member": false }, "geometry": { "type": "Point", "coordinates": [ -73.816106, 40.703308 ] } },
{ "type": "Feature", "properties": { "resource_id": "facdb:151e77b5deccef596eb4623ed7c47ee6", "name": "Queens Community Civic Corporation", "category": "libraries-and-community", "source": "facdb", "is_coad_member": false }, "geometry": { "type": "Point", "coordinates": [ -73.831636, 40.729912 ] } },
{ "type": "Feature", "properties": { "resource_id": "facdb:1620fb5060b8ff6c6e2eba99b5a54de4", "name": "New York Junior Tennis League Inc", "category": "children-and-youth", "source": "facdb", "is_coad_member": false }, "geometry": { "type": "Point", "coordinates": [ -73.823736, 40.737401 ] } },
{ "type": "Feature", "properties": { "resource_id": "facdb:16b72a87c063b17ab2bc1472cfa67d77", "name": "Legacy Park", "category": "parks-and-environment", "source": "facdb", "is_coad_member": false }, "geometry": { "type": "Point", "coordinates": [ -73.812157, 40.73057 ] } },
{ "type": "Feature", "properties": { "resource_id": "facdb:17338b77011c94e747e3cafba2122d3c", "name": "Samuel Field YM & YWHA Inc", "category": "children-and-youth", "source": "facdb", "is_coad_member": false }, "geometry": { "type": "Point", "coordinates": [ -73.776966, 40.724455 ] } },
{ "type": "Feature", "properties": { "resource_id": "facdb:173ad4c761b6ee5362cf49fcf2f5a508", "name": "Queens County Savings Bank, Kew Gardens Hills Branch", "category": "parks-and-environment", "source": "facdb", "is_coad_member": false }, "geometry": { "type": "Point", "coordinates": [ -73.820124, 40.722779 ] } },
{ "type": "Feature", "properties": { "resource_id": "facdb:183a59ee69a86bca645fb9c6569282ce", "name": "Triboro Hospital for Tuberculosis", "category": "parks-and-environment", "source": "facdb", "is_coad_member": false }, "geometry": { "type": "Point", "coordinates": [ -73.807544, 40.71757 ] } },
{ "type": "Feature", "properties": { "resource_id": "facdb:18b2eb3c5d68999e60e801c0db3fa7f9", "name": "The Child Center of NY Inc", "category": "children-and-youth", "source": "facdb", "is_coad_member": false }, "geometry": { "type": "Point", "coordinates": [ -73.809042, 40.724217 ] } },
{ "type": "Feature", "properties": { "resource_id": "facdb:18c05e2cc4d12c0a192a1497508d0f94", "name": "Nyc-Hhc Queens Hospital Center Cpep", "category": "mental-health-and-recovery", "source": "facdb", "is_coad_member": false }, "geometry": { "type": "Point", "coordinates": [ -73.804349, 40.717092 ] } },
{ "type": "Feature", "properties": { "resource_id": "facdb:19987b4704051a1f72947b7c3a3b12b2", "name": "Church in NYC Bible Camp", "category": "children-and-youth", "source": "facdb", "is_coad_member": false }, "geometry": { "type": "Point", "coordinates": [ -73.77595, 40.716944 ] } },
{ "type": "Feature", "properties": { "resource_id": "facdb:1be3a3117a72a5fabd687f726e008a5f", "name": "Fresh Meadows Playground", "category": "parks-and-environment", "source": "facdb", "is_coad_member": false }, "geometry": { "type": "Point", "coordinates": [ -73.795281, 40.734126 ] } },
{ "type": "Feature", "properties": { "resource_id": "facdb:1d803e278aa67fc3e025908324512ed4", "name": "Queens Community House, Inc.", "category": "children-and-youth", "source": "facdb", "is_coad_member": false }, "geometry": { "type": "Point", "coordinates": [ -73.812236, 40.703789 ] } },
{ "type": "Feature", "properties": { "resource_id": "facdb:1e1a37eb64cf0d1fc5443dc0ca01ea3e", "name": "Usda-Ceo P224Q at P178Q", "category": "children-and-youth", "source": "facdb", "is_coad_member": false }, "geometry": { "type": "Point", "coordinates": [ -73.776966, 40.724455 ] } },
{ "type": "Feature", "properties": { "resource_id": "facdb:1fde233b3d17df00d7b5a46049cde3df", "name": "The Greater Ridgewood Youth Council Inc", "category": "children-and-youth", "source": "facdb", "is_coad_member": false }, "geometry": { "type": "Point", "coordinates": [ -73.823496, 40.721333 ] } },
{ "type": "Feature", "properties": { "resource_id": "facdb:206e8d072cec06deac6a73a6d6fa8ec6", "name": "Fresh Anointing Int Church Vbs", "category": "children-and-youth", "source": "facdb", "is_coad_member": false }, "geometry": { "type": "Point", "coordinates": [ -73.778935, 40.715368 ] } },
{ "type": "Feature", "properties": { "resource_id": "facdb:20e909a1832652d51d131a68b3d3e879", "name": "John Bowne High School (25Q425)", "category": "benefits-and-legal", "source": "facdb", "is_coad_member": false }, "geometry": { "type": "Point", "coordinates": [ -73.823965, 40.738698 ] } },
{ "type": "Feature", "properties": { "resource_id": "facdb:2213a88decd479430ce001c751072c7c", "name": "Queens Community House, Inc.", "category": "children-and-youth", "source": "facdb", "is_coad_member": false }, "geometry": { "type": "Point", "coordinates": [ -73.820986, 40.738698 ] } },
{ "type": "Feature", "properties": { "resource_id": "facdb:225264ceebbe2b46b1af489369f6dfd5", "name": "Jewish Community Council of Greater Coney Island Inc", "category": "education-and-jobs", "source": "facdb", "is_coad_member": false }, "geometry": { "type": "Point", "coordinates": [ -73.809873, 40.727084 ] } },
{ "type": "Feature", "properties": { "resource_id": "facdb:23a8e1a5809a5783ba24d76b75a50fec", "name": "Parkway Village", "category": "parks-and-environment", "source": "facdb", "is_coad_member": false }, "geometry": { "type": "Point", "coordinates": [ -73.812558, 40.717128 ] } },
{ "type": "Feature", "properties": { "resource_id": "facdb:24f900c9554b592a83874c0b2ec55a3a", "name": "Chapin Home for the Aging", "category": "health-care", "source": "facdb", "is_coad_member": false }, "geometry": { "type": "Point", "coordinates": [ -73.80133, 40.714756 ] } },
{ "type": "Feature", "properties": { "resource_id": "facdb:25e45e21092f0f165362a5d9e1c8a6d2", "name": "St John's University Library", "category": "libraries-and-community", "source": "facdb", "is_coad_member": false }, "geometry": { "type": "Point", "coordinates": [ -73.794974, 40.721905 ] } },
{ "type": "Feature", "properties": { "resource_id": "facdb:26312e0d2830734f67f7d983787b6c3a", "name": "Zucker Hillside Pros", "category": "mental-health-and-recovery", "source": "facdb", "is_coad_member": false }, "geometry": { "type": "Point", "coordinates": [ -73.761032, 40.721005 ] } },
{ "type": "Feature", "properties": { "resource_id": "facdb:27403327ec290cb6b189d4f7208bf89a", "name": "Yeshiva Ohel Simcha", "category": "children-and-youth", "source": "facdb", "is_coad_member": false }, "geometry": { "type": "Point", "coordinates": [ -73.820065, 40.722002 ] } },
{ "type": "Feature", "properties": { "resource_id": "facdb:279def6a561ae94eb3b5c896ec2c92b1", "name": "United Cerebral Palsy of Queens  Inc.", "category": "disability-and-access", "source": "facdb", "is_coad_member": false }, "geometry": { "type": "Point", "coordinates": [ -73.803658, 40.720067 ] } },
{ "type": "Feature", "properties": { "resource_id": "facdb:280918bfba5aa650d78ea114ae6a1033", "name": "Samuel Field YM & YWHA Inc", "category": "children-and-youth", "source": "facdb", "is_coad_member": false }, "geometry": { "type": "Point", "coordinates": [ -73.805533, 40.731177 ] } },
{ "type": "Feature", "properties": { "resource_id": "facdb:29073af14f607d1f089d6642209df0f1", "name": "The Greater Ridgewood Youth Council Inc", "category": "children-and-youth", "source": "facdb", "is_coad_member": false }, "geometry": { "type": "Point", "coordinates": [ -73.79449, 40.737428 ] } },
{ "type": "Feature", "properties": { "resource_id": "facdb:29360c79108ecbdd8494f8fb2e2f6fec", "name": "Kissena Hall 1", "category": "children-and-youth", "source": "facdb", "is_coad_member": false }, "geometry": { "type": "Point", "coordinates": [ -73.814285, 40.737391 ] } },
{ "type": "Feature", "properties": { "resource_id": "facdb:29f0f4dfd1ce9bc94176a9b50c84d6a7", "name": "Pomonok", "category": "older-adults", "source": "facdb", "is_coad_member": false }, "geometry": { "type": "Point", "coordinates": [ -73.81421, 40.735005 ] } },
{ "type": "Feature", "properties": { "resource_id": "facdb:2aba0ed4490a1143dd5f9dd4d3fc9024", "name": "Young Israel Programs Inc", "category": "older-adults", "source": "facdb", "is_coad_member": false }, "geometry": { "type": "Point", "coordinates": [ -73.819451, 40.721474 ] } },
{ "type": "Feature", "properties": { "resource_id": "facdb:2b85628d0b570ba75c65cce639c525d7", "name": "Queens Collegiate: a College Board School (28Q310)", "category": "benefits-and-legal", "source": "facdb", "is_coad_member": false }, "geometry": { "type": "Point", "coordinates": [ -73.798077, 40.714269 ] } },
{ "type": "Feature", "properties": { "resource_id": "facdb:2c9d2b9f6e7de88952bc7670a3764377", "name": "Tepper Triangle", "category": "parks-and-environment", "source": "facdb", "is_coad_member": false }, "geometry": { "type": "Point", "coordinates": [ -73.791622, 40.718724 ] } },
{ "type": "Feature", "properties": { "resource_id": "facdb:2cd0b3e49a1c9ea99775e64ce5f53e83", "name": "Hss Queens Outpatient Center", "category": "health-care", "source": "facdb", "is_coad_member": false }, "geometry": { "type": "Point", "coordinates": [ -73.790717, 40.725788 ] } },
{ "type": "Feature", "properties": { "resource_id": "facdb:2e5a03bdbc23062d127475a9ef11d004", "name": "Freedom Square Playground", "category": "parks-and-environment", "source": "facdb", "is_coad_member": false }, "geometry": { "type": "Point", "coordinates": [ -73.820282, 40.723229 ] } },
{ "type": "Feature", "properties": { "resource_id": "facdb:2edceb1211f7b24a1ea0dc71b8a7ccee", "name": "Kupferberg Center Performances", "category": "libraries-and-community", "source": "facdb", "is_coad_member": false }, "geometry": { "type": "Point", "coordinates": [ -73.81613, 40.735956 ] } },
{ "type": "Feature", "properties": { "resource_id": "facdb:2f6dfe7f14d4ed1c13c1c8563c3eb931", "name": "Desi Senior Center", "category": "children-and-youth", "source": "facdb", "is_coad_member": false }, "geometry": { "type": "Point", "coordinates": [ -73.795769, 40.712653 ] } },
{ "type": "Feature", "properties": { "resource_id": "facdb:3056d96e772a95bc60b6e6ddc19ed763", "name": "Freedom Center of Queens", "category": "health-care", "source": "facdb", "is_coad_member": false }, "geometry": { "type": "Point", "coordinates": [ -73.792513, 40.72584 ] } },
{ "type": "Feature", "properties": { "resource_id": "facdb:31a5d611376a2cde15f3eb4a90606cc0", "name": "Selfhelp Community Services, Inc.", "category": "older-adults", "source": "facdb", "is_coad_member": false }, "geometry": { "type": "Point", "coordinates": [ -73.783519, 40.737501 ] } },
{ "type": "Feature", "properties": { "resource_id": "facdb:3410d94a523eff43d2b80bc79747ef4f", "name": "After School Rocks, Inc.", "category": "libraries-and-community", "source": "facdb", "is_coad_member": false }, "geometry": { "type": "Point", "coordinates": [ -73.781807, 40.728728 ] } },
{ "type": "Feature", "properties": { "resource_id": "facdb:346c7e88dd804306b300838fedf91382", "name": "Godwin Ternbach Museum", "category": "libraries-and-community", "source": "facdb", "is_coad_member": false }, "geometry": { "type": "Point", "coordinates": [ -73.817735, 40.736314 ] } },
{ "type": "Feature", "properties": { "resource_id": "facdb:3544a3bf2a7894aded190043451c19c1", "name": "P.S. 82 Hammond", "category": "children-and-youth", "source": "facdb", "is_coad_member": false }, "geometry": { "type": "Point", "coordinates": [ -73.812236, 40.703789 ] } },
{ "type": "Feature", "properties": { "resource_id": "facdb:355797067d06a3f730e99c431c64e30d", "name": "Jewish Child Care Association of New York", "category": "health-care", "source": "facdb", "is_coad_member": false }, "geometry": { "type": "Point", "coordinates": [ -73.823102, 40.728844 ] } },
{ "type": "Feature", "properties": { "resource_id": "facdb:357f0bd1569a6cfa5c333c2f2a7e8a03", "name": "Young Peoples Chorus of New York City Inc", "category": "children-and-youth", "source": "facdb", "is_coad_member": false }, "geometry": { "type": "Point", "coordinates": [ -73.776966, 40.724455 ] } },
{ "type": "Feature", "properties": { "resource_id": "facdb:35f450c6e234182a6d2e4553f25a4247", "name": "Little Friends House (2)", "category": "children-and-youth", "source": "facdb", "is_coad_member": false }, "geometry": { "type": "Point", "coordinates": [ -73.804636, 40.726002 ] } },
{ "type": "Feature", "properties": { "resource_id": "facdb:36711d241c0174d391801e5cc145091d", "name": "Pride Center of Staten Island, Inc.", "category": "children-and-youth", "source": "facdb", "is_coad_member": false }, "geometry": { "type": "Point", "coordinates": [ -73.823496, 40.721333 ] } },
{ "type": "Feature", "properties": { "resource_id": "facdb:36773f2dd18080f88240fb68288151df", "name": "Anthropology Museum of the People of", "category": "libraries-and-community", "source": "facdb", "is_coad_member": false }, "geometry": { "type": "Point", "coordinates": [ -73.814285, 40.737391 ] } },
{ "type": "Feature", "properties": { "resource_id": "facdb:38a96349272feeb60f317e1fbc6bf84d", "name": "Nyc-Hhc Queens Hospital Center - Hh Cm", "category": "mental-health-and-recovery", "source": "facdb", "is_coad_member": false }, "geometry": { "type": "Point", "coordinates": [ -73.80452, 40.717881 ] } },
{ "type": "Feature", "properties": { "resource_id": "facdb:39302169ef5d6ed118bd46ba82a09dbc", "name": "Police Service Area #9", "category": "emergency-services", "source": "facdb", "is_coad_member": false }, "geometry": { "type": "Point", "coordinates": [ -73.812973, 40.732875 ] } },
{ "type": "Feature", "properties": { "resource_id": "facdb:3c839691ae2d1d5fc283be9f7fafbd16", "name": "Omh Community Respite NYC", "category": "mental-health-and-recovery", "source": "facdb", "is_coad_member": false }, "geometry": { "type": "Point", "coordinates": [ -73.811329, 40.708823 ] } },
{ "type": "Feature", "properties": { "resource_id": "facdb:3d3a4d505924590a09d5439c6714f505", "name": "Playground Seventy Five", "category": "parks-and-environment", "source": "facdb", "is_coad_member": false }, "geometry": { "type": "Point", "coordinates": [ -73.80746, 40.726572 ] } },
{ "type": "Feature", "properties": { "resource_id": "facdb:3da742fbf0bed1607f5fd7a6398dcd38", "name": "Engine 299/LADDER 152", "category": "emergency-services", "source": "facdb", "is_coad_member": false }, "geometry": { "type": "Point", "coordinates": [ -73.793351, 40.738171 ] } },
{ "type": "Feature", "properties": { "resource_id": "facdb:3de4b0aed0168b3d268b8b31046d921b", "name": "Sun Han Ent Children Mission Ctr", "category": "children-and-youth", "source": "facdb", "is_coad_member": false }, "geometry": { "type": "Point", "coordinates": [ -73.806501, 40.72327 ] } },
{ "type": "Feature", "properties": { "resource_id": "facdb:3e0995d50a9a4012f0fcd41feb6ebb93", "name": "CUNY School of Law", "category": "education-and-jobs", "source": "facdb", "is_coad_member": false }, "geometry": { "type": "Point", "coordinates": [ -73.824543, 40.737118 ] } },
{ "type": "Feature", "properties": { "resource_id": "facdb:405e984fcc10bbf66227c867cdf73c18", "name": "J.H.S. 217 Robert A. Van Wyck", "category": "children-and-youth", "source": "facdb", "is_coad_member": false }, "geometry": { "type": "Point", "coordinates": [ -73.811822, 40.71042 ] } },
{ "type": "Feature", "properties": { "resource_id": "facdb:413411c305a4d6f065a2034c68ccd7e0", "name": "Electric Playground", "category": "parks-and-environment", "source": "facdb", "is_coad_member": false }, "geometry": { "type": "Point", "coordinates": [ -73.80542, 40.735772 ] } },
{ "type": "Feature", "properties": { "resource_id": "facdb:4200aa7b865aaae5549fa9b30cd22a92", "name": "Kissena Corridor Park", "category": "parks-and-environment", "source": "facdb", "is_coad_member": false }, "geometry": { "type": "Point", "coordinates": [ -73.78152, 40.741599 ] } },
{ "type": "Feature", "properties": { "resource_id": "facdb:42653f55b6c62640796e6e875f710b8a", "name": "The Learning Tree", "category": "children-and-youth", "source": "facdb", "is_coad_member": false }, "geometry": { "type": "Point", "coordinates": [ -73.765394, 40.724709 ] } },
{ "type": "Feature", "properties": { "resource_id": "facdb:444363fde69fa7be75ac177c04153453", "name": "Offices", "category": "government-offices", "source": "facdb", "is_coad_member": false }, "geometry": { "type": "Point", "coordinates": [ -73.765161, 40.718822 ] } },
{ "type": "Feature", "properties": { "resource_id": "facdb:44aa177432004aa1107f3260fda48b14", "name": "NYC H+H Cti Team 5", "category": "mental-health-and-recovery", "source": "facdb", "is_coad_member": false }, "geometry": { "type": "Point", "coordinates": [ -73.80396, 40.71719 ] } },
{ "type": "Feature", "properties": { "resource_id": "facdb:45dbfbe182e910190798a8a8d7e338ca", "name": "Cunningham Park Day Camp", "category": "children-and-youth", "source": "facdb", "is_coad_member": false }, "geometry": { "type": "Point", "coordinates": [ -73.773713, 40.731071 ] } },
{ "type": "Feature", "properties": { "resource_id": "facdb:47beba0f5fda047a35472e65d7b3fe12", "name": "YMCA of Greater New York", "category": "children-and-youth", "source": "facdb", "is_coad_member": false }, "geometry": { "type": "Point", "coordinates": [ -73.777891, 40.736547 ] } },
{ "type": "Feature", "properties": { "resource_id": "facdb:49e34778d627a67b274920da770dc6d2", "name": "Hillcrest High School (28Q505)", "category": "children-and-youth", "source": "facdb", "is_coad_member": false }, "geometry": { "type": "Point", "coordinates": [ -73.802667, 40.709665 ] } },
{ "type": "Feature", "properties": { "resource_id": "facdb:4c776c9952374f7371af64ab0751fe9a", "name": "Chazaq Organization USA Inc", "category": "children-and-youth", "source": "facdb", "is_coad_member": false }, "geometry": { "type": "Point", "coordinates": [ -73.823893, 40.729647 ] } },
{ "type": "Feature", "properties": { "resource_id": "facdb:4d4eda9451f65014c7b180b575132de2", "name": "Queens Hospital Center Child & Adolescent Opd", "category": "mental-health-and-recovery", "source": "facdb", "is_coad_member": false }, "geometry": { "type": "Point", "coordinates": [ -73.80452, 40.717881 ] } },
{ "type": "Feature", "properties": { "resource_id": "facdb:4e4e06ea2362e64ba1fc363db146f998", "name": "Samuel Field YM & YWHA Inc", "category": "children-and-youth", "source": "facdb", "is_coad_member": false }, "geometry": { "type": "Point", "coordinates": [ -73.823965, 40.738698 ] } },
{ "type": "Feature", "properties": { "resource_id": "facdb:4ee5223a8804512b514fbb4a80cd0b08", "name": "Vleigh Playground", "category": "parks-and-environment", "source": "facdb", "is_coad_member": false }, "geometry": { "type": "Point", "coordinates": [ -73.817761, 40.729649 ] } },
{ "type": "Feature", "properties": { "resource_id": "facdb:4ef5466e926421e6e7752b54e1b3d3d5", "name": "Sephardic Congregation of Kew Garden", "category": "children-and-youth", "source": "facdb", "is_coad_member": false }, "geometry": { "type": "Point", "coordinates": [ -73.82257, 40.726725 ] } },
{ "type": "Feature", "properties": { "resource_id": "facdb:501509a10b70e58b993374aba8e73b54", "name": "Queens Gateway to Health Sciences Secondary School", "category": "children-and-youth", "source": "facdb", "is_coad_member": false }, "geometry": { "type": "Point", "coordinates": [ -73.805962, 40.718489 ] } },
{ "type": "Feature", "properties": { "resource_id": "facdb:5030f639df92fd934a36ce64f90a810a", "name": "Queens Symphony Orchestra", "category": "libraries-and-community", "source": "facdb", "is_coad_member": false }, "geometry": { "type": "Point", "coordinates": [ -73.817735, 40.736314 ] } },
{ "type": "Feature", "properties": { "resource_id": "facdb:516ce95bfa22ad41b86bf64161b88827", "name": "Queens Community House, Inc.", "category": "children-and-youth", "source": "facdb", "is_coad_member": false }, "geometry": { "type": "Point", "coordinates": [ -73.798077, 40.714269 ] } },
{ "type": "Feature", "properties": { "resource_id": "facdb:51baac0fa2fdbdc90abd8ec46a475b27", "name": "Utopia Playground", "category": "parks-and-environment", "source": "facdb", "is_coad_member": false }, "geometry": { "type": "Point", "coordinates": [ -73.792776, 40.730726 ] } },
{ "type": "Feature", "properties": { "resource_id": "facdb:51badeba34ed264135fc8afa93f3378c", "name": "Nyc-Hhc Queens Hospital Center's Act Program", "category": "mental-health-and-recovery", "source": "facdb", "is_coad_member": false }, "geometry": { "type": "Point", "coordinates": [ -73.80452, 40.717881 ] } },
{ "type": "Feature", "properties": { "resource_id": "facdb:5317247187c885577fdb7d9c3247d1ea", "name": "Samuel Field YM & YWHA Inc", "category": "children-and-youth", "source": "facdb", "is_coad_member": false }, "geometry": { "type": "Point", "coordinates": [ -73.79449, 40.737428 ] } },
{ "type": "Feature", "properties": { "resource_id": "facdb:5612b506a2abe55c4ec941ba03884c54", "name": "St. John's University", "category": "children-and-youth", "source": "facdb", "is_coad_member": false }, "geometry": { "type": "Point", "coordinates": [ -73.794974, 40.721905 ] } },
{ "type": "Feature", "properties": { "resource_id": "facdb:565223aeaf850952c4b2eb805c809ec0", "name": "St. John's University", "category": "education-and-jobs", "source": "facdb", "is_coad_member": false }, "geometry": { "type": "Point", "coordinates": [ -73.794974, 40.721905 ] } },
{ "type": "Feature", "properties": { "resource_id": "facdb:566d6de5a8efcaedae2cb0cd8caa30cd", "name": "St. John's University", "category": "education-and-jobs", "source": "facdb", "is_coad_member": false }, "geometry": { "type": "Point", "coordinates": [ -73.794974, 40.721905 ] } },
{ "type": "Feature", "properties": { "resource_id": "facdb:56839431aab11e8c8a4ca8d3d9b67548", "name": "Vip Housing Inc. : All My Children", "category": "food-assistance", "source": "facdb", "is_coad_member": false }, "geometry": { "type": "Point", "coordinates": [ -73.789368, 40.716775 ] } },
{ "type": "Feature", "properties": { "resource_id": "facdb:56a27272cadd217695bf4029c24604cd", "name": "Kuei Luck Education Center", "category": "children-and-youth", "source": "facdb", "is_coad_member": false }, "geometry": { "type": "Point", "coordinates": [ -73.796457, 40.733682 ] } },
{ "type": "Feature", "properties": { "resource_id": "facdb:56b4b0eaabf57054a7b0d55e2e76cd96", "name": "Young Israel of Jamaica Estates", "category": "children-and-youth", "source": "facdb", "is_coad_member": false }, "geometry": { "type": "Point", "coordinates": [ -73.779121, 40.724417 ] } },
{ "type": "Feature", "properties": { "resource_id": "facdb:5734257392e5a4a8136d139c2b11da9a", "name": "Turning Point for Women and Families", "category": "children-and-youth", "source": "facdb", "is_coad_member": false }, "geometry": { "type": "Point", "coordinates": [ -73.819268, 40.713326 ] } },
{ "type": "Feature", "properties": { "resource_id": "facdb:597b19f510b20c5e84609f77aa555d7b", "name": "Bukharian Jewish Theater Vozrozhdeniye", "category": "libraries-and-community", "source": "facdb", "is_coad_member": false }, "geometry": { "type": "Point", "coordinates": [ -73.814708, 40.708686 ] } },
{ "type": "Feature", "properties": { "resource_id": "facdb:5987b9ae9f5223219446d1288c205827", "name": "Fresh Meadows Library", "category": "children-and-youth", "source": "facdb", "is_coad_member": false }, "geometry": { "type": "Point", "coordinates": [ -73.782268, 40.741559 ] } },
{ "type": "Feature", "properties": { "resource_id": "facdb:5a5ec2dd023b06756324be57c66f9ce9", "name": "Briarwood", "category": "libraries-and-community", "source": "facdb", "is_coad_member": false }, "geometry": { "type": "Point", "coordinates": [ -73.819459, 40.710042 ] } },
{ "type": "Feature", "properties": { "resource_id": "facdb:5ab20cf470eebf5e6a3008a41c6b2719", "name": "Holy Cow Playground", "category": "parks-and-environment", "source": "facdb", "is_coad_member": false }, "geometry": { "type": "Point", "coordinates": [ -73.777, 40.741508 ] } },
{ "type": "Feature", "properties": { "resource_id": "facdb:5b0a853208f08f80ded20bfa55ee432b", "name": "Queens Community House, Inc.", "category": "children-and-youth", "source": "facdb", "is_coad_member": false }, "geometry": { "type": "Point", "coordinates": [ -73.81421, 40.735005 ] } },
{ "type": "Feature", "properties": { "resource_id": "facdb:5db26ca93ccd7f5b7ad7aca3c1eefecd", "name": "Consultation/Liaison", "category": "mental-health-and-recovery", "source": "facdb", "is_coad_member": false }, "geometry": { "type": "Point", "coordinates": [ -73.80452, 40.717881 ] } },
{ "type": "Feature", "properties": { "resource_id": "facdb:5eb80144ab13c66e79b84acf00ddefb3", "name": "Dancewave Moving Together Family Activations", "category": "children-and-youth", "source": "facdb", "is_coad_member": false }, "geometry": { "type": "Point", "coordinates": [ -73.812941, 40.73651 ] } },
{ "type": "Feature", "properties": { "resource_id": "facdb:61cf58fcb9862fe47dfa156ca89e9314", "name": "107 Police Precinct", "category": "emergency-services", "source": "facdb", "is_coad_member": false }, "geometry": { "type": "Point", "coordinates": [ -73.810428, 40.729931 ] } },
{ "type": "Feature", "properties": { "resource_id": "facdb:627346b8e83a34c040fce199df9a9393", "name": "The Child Center of NY Inc", "category": "children-and-youth", "source": "facdb", "is_coad_member": false }, "geometry": { "type": "Point", "coordinates": [ -73.823965, 40.738698 ] } },
{ "type": "Feature", "properties": { "resource_id": "facdb:67b52fe31b79ead8091c0954e74e9266", "name": "Queens Library-Pomonok", "category": "children-and-youth", "source": "facdb", "is_coad_member": false }, "geometry": { "type": "Point", "coordinates": [ -73.80988, 40.733041 ] } },
{ "type": "Feature", "properties": { "resource_id": "facdb:686838407fa4ae42785a4741d3360684", "name": "St. John's University", "category": "children-and-youth", "source": "facdb", "is_coad_member": false }, "geometry": { "type": "Point", "coordinates": [ -73.794974, 40.721905 ] } },
{ "type": "Feature", "properties": { "resource_id": "facdb:6eb31f516c420aedd08fa053e8f552e3", "name": "Pomonok", "category": "libraries-and-community", "source": "facdb", "is_coad_member": false }, "geometry": { "type": "Point", "coordinates": [ -73.80988, 40.733041 ] } },
{ "type": "Feature", "properties": { "resource_id": "facdb:717d3ec86a4a5363d9ac4082ffdc7759", "name": "Brinckerhoff Cemetery", "category": "parks-and-environment", "source": "facdb", "is_coad_member": false }, "geometry": { "type": "Point", "coordinates": [ -73.788247, 40.732026 ] } },
{ "type": "Feature", "properties": { "resource_id": "facdb:71b29e21c0ac55261e634bfad1461dfa", "name": "Queens Community House Inc.", "category": "older-adults", "source": "facdb", "is_coad_member": false }, "geometry": { "type": "Point", "coordinates": [ -73.81421, 40.735005 ] } },
{ "type": "Feature", "properties": { "resource_id": "facdb:72caf1c6620c136f0a781c1eab6705d5", "name": "Jamaica Gateway to the Sciences (28Q350)", "category": "children-and-youth", "source": "facdb", "is_coad_member": false }, "geometry": { "type": "Point", "coordinates": [ -73.798077, 40.714269 ] } },
{ "type": "Feature", "properties": { "resource_id": "facdb:7534efc77a87076658304d91409025b6", "name": "Kehilat Sephardim of Ahavat Achim", "category": "children-and-youth", "source": "facdb", "is_coad_member": false }, "geometry": { "type": "Point", "coordinates": [ -73.81155, 40.721047 ] } },
{ "type": "Feature", "properties": { "resource_id": "facdb:771e9c3ae9044be561ada96bde5328db", "name": "New York Edge Inc", "category": "children-and-youth", "source": "facdb", "is_coad_member": false }, "geometry": { "type": "Point", "coordinates": [ -73.805962, 40.718489 ] } },
{ "type": "Feature", "properties": { "resource_id": "facdb:77f0e5c3245f94aa7b1bacb288a31460", "name": "IS 250 the Robert F. Kennedy Community Middle School (25Q250)", "category": "children-and-youth", "source": "facdb", "is_coad_member": false }, "geometry": { "type": "Point", "coordinates": [ -73.809042, 40.724217 ] } },
{ "type": "Feature", "properties": { "resource_id": "facdb:783b46d691c86b371bf87c3b57f967a9", "name": "Kehilat Sephardim of Ahavat Achim : Kehilat Sephardim of Ahavat Achim", "category": "food-assistance", "source": "facdb", "is_coad_member": false }, "geometry": { "type": "Point", "coordinates": [ -73.81155, 40.721047 ] } },
{ "type": "Feature", "properties": { "resource_id": "facdb:78acc1f85ca6fcc6b8338986b1a54ea3", "name": "Bright Beginnings", "category": "children-and-youth", "source": "facdb", "is_coad_member": false }, "geometry": { "type": "Point", "coordinates": [ -73.801036, 40.710073 ] } },
{ "type": "Feature", "properties": { "resource_id": "facdb:791eb661b52c93e5094dda1b03595d84", "name": "Samuel Field YM & YWHA Inc", "category": "children-and-youth", "source": "facdb", "is_coad_member": false }, "geometry": { "type": "Point", "coordinates": [ -73.817761, 40.729649 ] } },
{ "type": "Feature", "properties": { "resource_id": "facdb:7b038d07ab7530cda83d38a9b026f3e0", "name": "The Greater Ridgewood Youth Council Inc", "category": "children-and-youth", "source": "facdb", "is_coad_member": false }, "geometry": { "type": "Point", "coordinates": [ -73.79449, 40.737428 ] } },
{ "type": "Feature", "properties": { "resource_id": "facdb:7b4e52d96769f805eef2175a3d56ccff", "name": "Queens Community House, Inc.", "category": "children-and-youth", "source": "facdb", "is_coad_member": false }, "geometry": { "type": "Point", "coordinates": [ -73.813033, 40.710314 ] } },
{ "type": "Feature", "properties": { "resource_id": "facdb:7e21868e0cdc36afcd82bd3dab296529", "name": "Fresh Meadows Park", "category": "parks-and-environment", "source": "facdb", "is_coad_member": false }, "geometry": { "type": "Point", "coordinates": [ -73.78538, 40.740714 ] } },
{ "type": "Feature", "properties": { "resource_id": "facdb:7ea235cd2bdaa517ce1ba91e03069ce3", "name": "Margaret Tietz Nursing and Rehabilitation Center", "category": "health-care", "source": "facdb", "is_coad_member": false }, "geometry": { "type": "Point", "coordinates": [ -73.801956, 40.714428 ] } },
{ "type": "Feature", "properties": { "resource_id": "facdb:7f00bd37ca5d440a9aaa843fe0976d43", "name": "Queens Valley Playground", "category": "parks-and-environment", "source": "facdb", "is_coad_member": false }, "geometry": { "type": "Point", "coordinates": [ -73.823496, 40.721333 ] } },
{ "type": "Feature", "properties": { "resource_id": "facdb:814c34f3af2d357cba0911451dee4c44", "name": "Midland Malls", "category": "parks-and-environment", "source": "facdb", "is_coad_member": false }, "geometry": { "type": "Point", "coordinates": [ -73.784115, 40.717146 ] } },
{ "type": "Feature", "properties": { "resource_id": "facdb:82d2bac177cfef0e9cc75923c252fbda", "name": "Nyc-Hhc Queens Hospital Center - Hh Nonmed Cm", "category": "mental-health-and-recovery", "source": "facdb", "is_coad_member": false }, "geometry": { "type": "Point", "coordinates": [ -73.80452, 40.717881 ] } },
{ "type": "Feature", "properties": { "resource_id": "facdb:840bd9e341c28910be68619889a95356", "name": "Samuel Field YM & YWHA Inc", "category": "children-and-youth", "source": "facdb", "is_coad_member": false }, "geometry": { "type": "Point", "coordinates": [ -73.823965, 40.738698 ] } },
{ "type": "Feature", "properties": { "resource_id": "facdb:8825ca34738d10a052c8f93d4351d29e", "name": "Children's Orchestra Society", "category": "libraries-and-community", "source": "facdb", "is_coad_member": false }, "geometry": { "type": "Point", "coordinates": [ -73.792322, 40.73642 ] } },
{ "type": "Feature", "properties": { "resource_id": "facdb:89a2a5552c9cd9d64ea03244d38b098f", "name": "P.S. 164 Queens Valley", "category": "children-and-youth", "source": "facdb", "is_coad_member": false }, "geometry": { "type": "Point", "coordinates": [ -73.823496, 40.721333 ] } },
{ "type": "Feature", "properties": { "resource_id": "facdb:89bb408780182dce657a03c9b718121b", "name": "Hollis", "category": "libraries-and-community", "source": "facdb", "is_coad_member": false }, "geometry": { "type": "Point", "coordinates": [ -73.762305, 40.720179 ] } },
{ "type": "Feature", "properties": { "resource_id": "facdb:8a7832bc95951e6ab9cba3d81669555b", "name": "Queens Library-Hollis", "category": "children-and-youth", "source": "facdb", "is_coad_member": false }, "geometry": { "type": "Point", "coordinates": [ -73.762305, 40.720179 ] } },
{ "type": "Feature", "properties": { "resource_id": "facdb:8ac205085656b4bf228049fdd7d46840", "name": "Emerald Playground", "category": "parks-and-environment", "source": "facdb", "is_coad_member": false }, "geometry": { "type": "Point", "coordinates": [ -73.805533, 40.731177 ] } },
{ "type": "Feature", "properties": { "resource_id": "facdb:8bbc4d2cfda6c8982b707f8f5c538aaf", "name": "NYC Bd of Ed PS-255Q", "category": "disability-and-access", "source": "facdb", "is_coad_member": false }, "geometry": { "type": "Point", "coordinates": [ -73.809042, 40.724217 ] } },
{ "type": "Feature", "properties": { "resource_id": "facdb:8c41bd17637e32d2972e7e89767ad98f", "name": "Samuel Field YM & YWHA Inc", "category": "children-and-youth", "source": "facdb", "is_coad_member": false }, "geometry": { "type": "Point", "coordinates": [ -73.776966, 40.724455 ] } },
{ "type": "Feature", "properties": { "resource_id": "facdb:8fb62f78e59f184b068e198dc7a84558", "name": "Clearview's Tail", "category": "parks-and-environment", "source": "facdb", "is_coad_member": false }, "geometry": { "type": "Point", "coordinates": [ -73.755467, 40.724589 ] } },
{ "type": "Feature", "properties": { "resource_id": "facdb:9207902907e635961efe2ff161d5c834", "name": "Hillside Manor Rehab & Extended Care Center", "category": "health-care", "source": "facdb", "is_coad_member": false }, "geometry": { "type": "Point", "coordinates": [ -73.779882, 40.714019 ] } },
{ "type": "Feature", "properties": { "resource_id": "facdb:92f6664a43084f6aabd70e35128fdf61", "name": "Nyp/Queens Wound Healing Center", "category": "health-care", "source": "facdb", "is_coad_member": false }, "geometry": { "type": "Point", "coordinates": [ -73.811252, 40.707533 ] } },
{ "type": "Feature", "properties": { "resource_id": "facdb:94611e72f0c1794628eeca3c0337dcc2", "name": "India Home Inc", "category": "older-adults", "source": "facdb", "is_coad_member": false }, "geometry": { "type": "Point", "coordinates": [ -73.784289, 40.71331 ] } },
{ "type": "Feature", "properties": { "resource_id": "facdb:947abccfd8618c4718defcb954a0da8f", "name": "P.S./I.S. 178 Holliswood", "category": "children-and-youth", "source": "facdb", "is_coad_member": false }, "geometry": { "type": "Point", "coordinates": [ -73.776966, 40.724455 ] } },
{ "type": "Feature", "properties": { "resource_id": "facdb:9510a147f4aedcdde418055b4ae8664a", "name": "Ottilie Home for Children (Rtf)", "category": "mental-health-and-recovery", "source": "facdb", "is_coad_member": false }, "geometry": { "type": "Point", "coordinates": [ -73.811329, 40.708823 ] } },
{ "type": "Feature", "properties": { "resource_id": "facdb:97bcb328673bc16a0d6a4d4ccdbade4c", "name": "P.S. 86", "category": "children-and-youth", "source": "facdb", "is_coad_member": false }, "geometry": { "type": "Point", "coordinates": [ -73.803658, 40.709415 ] } },
{ "type": "Feature", "properties": { "resource_id": "facdb:97ce8e9e3d980f60322dd9f26e9c9809", "name": "Queens Hospital Center Psychiatric Inpatient Unit", "category": "mental-health-and-recovery", "source": "facdb", "is_coad_member": false }, "geometry": { "type": "Point", "coordinates": [ -73.80452, 40.717881 ] } },
{ "type": "Feature", "properties": { "resource_id": "facdb:98ba4eea8fadfab429ab675b29c1152b", "name": "Hoover - Manton Playgrounds", "category": "parks-and-environment", "source": "facdb", "is_coad_member": false }, "geometry": { "type": "Point", "coordinates": [ -73.82123, 40.711472 ] } },
{ "type": "Feature", "properties": { "resource_id": "facdb:9ad8958059ba688439ba379b44c9e879", "name": "Silvercrest", "category": "health-care", "source": "facdb", "is_coad_member": false }, "geometry": { "type": "Point", "coordinates": [ -73.811252, 40.707533 ] } },
{ "type": "Feature", "properties": { "resource_id": "facdb:9bd95ef12d4546cedaa7b39002d0cf26", "name": "Hillcrest", "category": "libraries-and-community", "source": "facdb", "is_coad_member": false }, "geometry": { "type": "Point", "coordinates": [ -73.781907, 40.729261 ] } },
{ "type": "Feature", "properties": { "resource_id": "facdb:9c443d0761185ac258a20e9bdd24386b", "name": "P.S./M.S. 200 the Magnet School of Global Studies and Leadership", "category": "children-and-youth", "source": "facdb", "is_coad_member": false }, "geometry": { "type": "Point", "coordinates": [ -73.805533, 40.731177 ] } },
{ "type": "Feature", "properties": { "resource_id": "facdb:a028896e31e6d8772e0b3a7f26628dde", "name": "The Child Center of NY Inc", "category": "children-and-youth", "source": "facdb", "is_coad_member": false }, "geometry": { "type": "Point", "coordinates": [ -73.809042, 40.724217 ] } },
{ "type": "Feature", "properties": { "resource_id": "facdb:a081af29c46d7ab95b5fe32179ff31e2", "name": "Chabad of Flushing", "category": "children-and-youth", "source": "facdb", "is_coad_member": false }, "geometry": { "type": "Point", "coordinates": [ -73.818711, 40.721248 ] } },
{ "type": "Feature", "properties": { "resource_id": "facdb:a1aa179cf2bb6677fc034a2a6483761e", "name": "Boulevard Alp", "category": "health-care", "source": "facdb", "is_coad_member": false }, "geometry": { "type": "Point", "coordinates": [ -73.809956, 40.728582 ] } },
{ "type": "Feature", "properties": { "resource_id": "facdb:a1d3cf86d14bc83cc23324e8920fda6c", "name": "New York Harbor Foundation Inc", "category": "children-and-youth", "source": "facdb", "is_coad_member": false }, "geometry": { "type": "Point", "coordinates": [ -73.809042, 40.724217 ] } },
{ "type": "Feature", "properties": { "resource_id": "facdb:a40f509cbab4ab09ec2aa3a83ba50a69", "name": "Queens Hospital Ctr/Gateway HS", "category": "emergency-services", "source": "facdb", "is_coad_member": false }, "geometry": { "type": "Point", "coordinates": [ -73.805293, 40.717777 ] } },
{ "type": "Feature", "properties": { "resource_id": "facdb:a4533ea2e8a64ceae15fd5bfc508d821", "name": "Judge Moses Weinstein Playground", "category": "parks-and-environment", "source": "facdb", "is_coad_member": false }, "geometry": { "type": "Point", "coordinates": [ -73.820585, 40.718018 ] } },
{ "type": "Feature", "properties": { "resource_id": "facdb:a6ecb7fb709cc8ed2645d3a0d9b4b682", "name": "Queens School of Inquiry, the", "category": "children-and-youth", "source": "facdb", "is_coad_member": false }, "geometry": { "type": "Point", "coordinates": [ -73.809042, 40.724217 ] } },
{ "type": "Feature", "properties": { "resource_id": "facdb:a9838976b9d583e79403c8455dda4c16", "name": "NYCHA Pomonok Houses", "category": "children-and-youth", "source": "facdb", "is_coad_member": false }, "geometry": { "type": "Point", "coordinates": [ -73.811811, 40.731809 ] } },
{ "type": "Feature", "properties": { "resource_id": "facdb:aa2683055bbb0bdd8ff3826a3c3ab046", "name": "Captain Tilly Park", "category": "parks-and-environment", "source": "facdb", "is_coad_member": false }, "geometry": { "type": "Point", "coordinates": [ -73.798241, 40.711437 ] } },
{ "type": "Feature", "properties": { "resource_id": "facdb:abe0ac89fe4460f454d6b8b09e9ac248", "name": "Touro University - Kew Gardens", "category": "education-and-jobs", "source": "facdb", "is_coad_member": false }, "geometry": { "type": "Point", "coordinates": [ -73.8152, 40.724461 ] } },
{ "type": "Feature", "properties": { "resource_id": "facdb:abf9635e2411be0144f7dc5d7d2d4754", "name": "Ps/Ms 200 - the Pomonok School & Star Academy", "category": "children-and-youth", "source": "facdb", "is_coad_member": false }, "geometry": { "type": "Point", "coordinates": [ -73.805533, 40.731177 ] } },
{ "type": "Feature", "properties": { "resource_id": "facdb:ac9b07032d41081867e1647c1e2575c3", "name": "Samuel Field Parsons Blvd", "category": "children-and-youth", "source": "facdb", "is_coad_member": false }, "geometry": { "type": "Point", "coordinates": [ -73.807463, 40.717802 ] } },
{ "type": "Feature", "properties": { "resource_id": "facdb:ad415259eef128a693019ebf6e955d7a", "name": "Queens Hospital Center", "category": "health-care", "source": "facdb", "is_coad_member": false }, "geometry": { "type": "Point", "coordinates": [ -73.80452, 40.717881 ] } },
{ "type": "Feature", "properties": { "resource_id": "facdb:b0b3cc55d99a17c335dbc4aabb128e08", "name": "Fresh Meadows Day Care", "category": "children-and-youth", "source": "facdb", "is_coad_member": false }, "geometry": { "type": "Point", "coordinates": [ -73.778367, 40.735122 ] } },
{ "type": "Feature", "properties": { "resource_id": "facdb:b149d89b96bf46a1d322d73bf8dd2593", "name": "U.S. Renal Care South Flushing Dialysis", "category": "health-care", "source": "facdb", "is_coad_member": false }, "geometry": { "type": "Point", "coordinates": [ -73.810348, 40.72928 ] } },
{ "type": "Feature", "properties": { "resource_id": "facdb:b37b125a2a3f0efd481b17dbee959873", "name": "The Child Center of NY Inc", "category": "children-and-youth", "source": "facdb", "is_coad_member": false }, "geometry": { "type": "Point", "coordinates": [ -73.809042, 40.724217 ] } },
{ "type": "Feature", "properties": { "resource_id": "facdb:b5314b847006320066c26446f72eeb06", "name": "Queens Community House, Inc.", "category": "children-and-youth", "source": "facdb", "is_coad_member": false }, "geometry": { "type": "Point", "coordinates": [ -73.81421, 40.735005 ] } },
{ "type": "Feature", "properties": { "resource_id": "facdb:b6a082a78ceada333534a6ef6dcc84b0", "name": "Chabad of Queens College Inc", "category": "children-and-youth", "source": "facdb", "is_coad_member": false }, "geometry": { "type": "Point", "coordinates": [ -73.81613, 40.735956 ] } },
{ "type": "Feature", "properties": { "resource_id": "facdb:b7b518e301acbc6240cc664707115d43", "name": "PS 201Q", "category": "children-and-youth", "source": "facdb", "is_coad_member": false }, "geometry": { "type": "Point", "coordinates": [ -73.812941, 40.73651 ] } },
{ "type": "Feature", "properties": { "resource_id": "facdb:b7c378fe77fee408eee96fcbb35c4d23", "name": "Chabad of Queens College Inc", "category": "children-and-youth", "source": "facdb", "is_coad_member": false }, "geometry": { "type": "Point", "coordinates": [ -73.823951, 40.731576 ] } },
{ "type": "Feature", "properties": { "resource_id": "facdb:bc6a0d81be896440be4330e469d1ee94", "name": "Samuel Field YM & YWHA Inc", "category": "children-and-youth", "source": "facdb", "is_coad_member": false }, "geometry": { "type": "Point", "coordinates": [ -73.805533, 40.731177 ] } },
{ "type": "Feature", "properties": { "resource_id": "facdb:bcde5ed003b70f32e16c84ac72500703", "name": "Anthropology Museum of the People of New York", "category": "libraries-and-community", "source": "facdb", "is_coad_member": false }, "geometry": { "type": "Point", "coordinates": [ -73.814285, 40.737391 ] } },
{ "type": "Feature", "properties": { "resource_id": "facdb:bdad3374df473628b7749eced8758153", "name": "Queens College Upward Bound", "category": "children-and-youth", "source": "facdb", "is_coad_member": false }, "geometry": { "type": "Point", "coordinates": [ -73.81613, 40.735956 ] } },
{ "type": "Feature", "properties": { "resource_id": "facdb:be68e68f88327079b238983043058174", "name": "P.S. 117 J. Keld/Briarwood", "category": "children-and-youth", "source": "facdb", "is_coad_member": false }, "geometry": { "type": "Point", "coordinates": [ -73.813033, 40.710314 ] } },
{ "type": "Feature", "properties": { "resource_id": "facdb:beddedcce671d3cd432cf14d21398b6e", "name": "P.S./I.S. 178 Holliswood", "category": "children-and-youth", "source": "facdb", "is_coad_member": false }, "geometry": { "type": "Point", "coordinates": [ -73.776966, 40.724455 ] } },
{ "type": "Feature", "properties": { "resource_id": "facdb:c0d2307dbf1a59549b0e038b7738af31", "name": "Camp Gan Israel of Flushing", "category": "children-and-youth", "source": "facdb", "is_coad_member": false }, "geometry": { "type": "Point", "coordinates": [ -73.792607, 40.736822 ] } },
{ "type": "Feature", "properties": { "resource_id": "facdb:c1aa1922139d5876ffe0416d9a72c6ee", "name": "India Home Senior Center Program", "category": "children-and-youth", "source": "facdb", "is_coad_member": false }, "geometry": { "type": "Point", "coordinates": [ -73.784289, 40.71331 ] } },
{ "type": "Feature", "properties": { "resource_id": "facdb:c2881c13509b2422aceb7f1e1ad3925d", "name": "Pomonok", "category": "children-and-youth", "source": "facdb", "is_coad_member": false }, "geometry": { "type": "Point", "coordinates": [ -73.81421, 40.735005 ] } },
{ "type": "Feature", "properties": { "resource_id": "facdb:c62181f7c21b46493829872d2dace449", "name": "Young Israel of Hillcrest", "category": "children-and-youth", "source": "facdb", "is_coad_member": false }, "geometry": { "type": "Point", "coordinates": [ -73.79992, 40.731731 ] } },
{ "type": "Feature", "properties": { "resource_id": "facdb:c754b3478c0d51c5c51342996f7f739d", "name": "Muslim Community Network", "category": "children-and-youth", "source": "facdb", "is_coad_member": false }, "geometry": { "type": "Point", "coordinates": [ -73.809203, 40.721452 ] } },
{ "type": "Feature", "properties": { "resource_id": "facdb:c8501f3eff122bc2efef5af6ec837631", "name": "Queens Hospital Center", "category": "health-care", "source": "facdb", "is_coad_member": false }, "geometry": { "type": "Point", "coordinates": [ -73.805293, 40.717777 ] } },
{ "type": "Feature", "properties": { "resource_id": "facdb:c94a049a893b0ea236167ff2d7cba05c", "name": "After School All-Stars at St. J", "category": "children-and-youth", "source": "facdb", "is_coad_member": false }, "geometry": { "type": "Point", "coordinates": [ -73.794974, 40.721905 ] } },
{ "type": "Feature", "properties": { "resource_id": "facdb:ca0cb027bdefb17b41c711f064c683ef", "name": "Queens Hospital Ctr/Gateway HS", "category": "emergency-services", "source": "facdb", "is_coad_member": false }, "geometry": { "type": "Point", "coordinates": [ -73.805293, 40.717777 ] } },
{ "type": "Feature", "properties": { "resource_id": "facdb:ca3e405fc26883b99a719ad5162459b2", "name": "Pomonok Home Services Inc", "category": "health-care", "source": "facdb", "is_coad_member": false }, "geometry": { "type": "Point", "coordinates": [ -73.78661, 40.739823 ] } },
{ "type": "Feature", "properties": { "resource_id": "facdb:ca4a246c00c7391aeb838b86f2650b26", "name": "JHS 216 George J. Ryan (26Q216)", "category": "children-and-youth", "source": "facdb", "is_coad_member": false }, "geometry": { "type": "Point", "coordinates": [ -73.79449, 40.737428 ] } },
{ "type": "Feature", "properties": { "resource_id": "facdb:cb5aff5be4006f5adc1fd74ceaf4b92e", "name": "Pomonok Playground", "category": "parks-and-environment", "source": "facdb", "is_coad_member": false }, "geometry": { "type": "Point", "coordinates": [ -73.813931, 40.736099 ] } },
{ "type": "Feature", "properties": { "resource_id": "facdb:cd07f80363cf1492ca49bad1c879aa66", "name": "Meadow Park Rehabilitation and Health Care Center LLC", "category": "health-care", "source": "facdb", "is_coad_member": false }, "geometry": { "type": "Point", "coordinates": [ -73.804988, 40.722582 ] } },
{ "type": "Feature", "properties": { "resource_id": "facdb:cd4a7e0121a83d18941564e3a3d08a5b", "name": "Acs/Family Assessment Program", "category": "children-and-youth", "source": "facdb", "is_coad_member": false }, "geometry": { "type": "Point", "coordinates": [ -73.79283, 40.71562 ] } },
{ "type": "Feature", "properties": { "resource_id": "facdb:cee71ac59dda3ff77fcfc98fb5182c25", "name": "Queens Collegiate: a College Board School", "category": "children-and-youth", "source": "facdb", "is_coad_member": false }, "geometry": { "type": "Point", "coordinates": [ -73.798077, 40.714269 ] } },
{ "type": "Feature", "properties": { "resource_id": "facdb:cf7bba8f584cfa2c94f15ea4f9f0a177", "name": "Belarusian Kreceuski Foundation", "category": "libraries-and-community", "source": "facdb", "is_coad_member": false }, "geometry": { "type": "Point", "coordinates": [ -73.797385, 40.712942 ] } },
{ "type": "Feature", "properties": { "resource_id": "facdb:d0f881dbd56d780843bbd17b16ce2241", "name": "Queens Library-Kew Gardens", "category": "children-and-youth", "source": "facdb", "is_coad_member": false }, "geometry": { "type": "Point", "coordinates": [ -73.820748, 40.725941 ] } },
{ "type": "Feature", "properties": { "resource_id": "facdb:d2763aa11a204da193cfe6679c385e9e", "name": "The Jewish Association for Services for the Aged", "category": "older-adults", "source": "facdb", "is_coad_member": false }, "geometry": { "type": "Point", "coordinates": [ -73.764804, 40.72507 ] } },
{ "type": "Feature", "properties": { "resource_id": "facdb:d306712e827479494c686c635627b436", "name": "Congregation Ohel Yitzchok", "category": "children-and-youth", "source": "facdb", "is_coad_member": false }, "geometry": { "type": "Point", "coordinates": [ -73.826105, 40.728352 ] } },
{ "type": "Feature", "properties": { "resource_id": "facdb:d6c2fc9652d0deb37f8b92a77c4596da", "name": "Selfhelp Community Services Inc", "category": "older-adults", "source": "facdb", "is_coad_member": false }, "geometry": { "type": "Point", "coordinates": [ -73.783519, 40.737501 ] } },
{ "type": "Feature", "properties": { "resource_id": "facdb:dae343ad467ff47ff93b8b1103f369f2", "name": "John Bowne High School (25Q425)", "category": "children-and-youth", "source": "facdb", "is_coad_member": false }, "geometry": { "type": "Point", "coordinates": [ -73.823965, 40.738698 ] } },
{ "type": "Feature", "properties": { "resource_id": "facdb:dce8e7f29cf5435458edf184d435e1de", "name": "Briarwood Summer Program", "category": "children-and-youth", "source": "facdb", "is_coad_member": false }, "geometry": { "type": "Point", "coordinates": [ -73.824552, 40.715216 ] } },
{ "type": "Feature", "properties": { "resource_id": "facdb:de75c4bae3ee4982df32c3c852430be1", "name": "Queens Hospital Center Adult Mental Health Clinic", "category": "mental-health-and-recovery", "source": "facdb", "is_coad_member": false }, "geometry": { "type": "Point", "coordinates": [ -73.80452, 40.717881 ] } },
{ "type": "Feature", "properties": { "resource_id": "facdb:de86122707f0014ba24549c387c412af", "name": "Briarwood Jewish Center", "category": "children-and-youth", "source": "facdb", "is_coad_member": false }, "geometry": { "type": "Point", "coordinates": [ -73.816383, 40.707799 ] } },
{ "type": "Feature", "properties": { "resource_id": "facdb:de92206652b48f0a91e13b2996027e03", "name": "P.S. 165 Edith K. Bergtraum", "category": "children-and-youth", "source": "facdb", "is_coad_member": false }, "geometry": { "type": "Point", "coordinates": [ -73.817761, 40.729649 ] } },
{ "type": "Feature", "properties": { "resource_id": "facdb:dee581d1e5be1b9787cfadf366c6d346", "name": "Queens Hospital Center", "category": "health-care", "source": "facdb", "is_coad_member": false }, "geometry": { "type": "Point", "coordinates": [ -73.805293, 40.717777 ] } },
{ "type": "Feature", "properties": { "resource_id": "facdb:df8ab1b87c9fef2c2044ac30e57eade0", "name": "Dental Auxiliary Training Center", "category": "education-and-jobs", "source": "facdb", "is_coad_member": false }, "geometry": { "type": "Point", "coordinates": [ -73.775327, 40.718003 ] } },
{ "type": "Feature", "properties": { "resource_id": "facdb:e16400427a137fa17bad69a0b8fb9e27", "name": "IS 250 the Robert F. Kennedy Community Middle School (25Q250)", "category": "children-and-youth", "source": "facdb", "is_coad_member": false }, "geometry": { "type": "Point", "coordinates": [ -73.809042, 40.724217 ] } },
{ "type": "Feature", "properties": { "resource_id": "facdb:e1ea6f0db987516e5dd37acca4354f04", "name": "Pomonok Community Center", "category": "children-and-youth", "source": "facdb", "is_coad_member": false }, "geometry": { "type": "Point", "coordinates": [ -73.81421, 40.735005 ] } },
{ "type": "Feature", "properties": { "resource_id": "facdb:e23991d3baa5751f0a5ad36f2fb06984", "name": "Chazaq : Chazaq Food Pantry", "category": "food-assistance", "source": "facdb", "is_coad_member": false }, "geometry": { "type": "Point", "coordinates": [ -73.822335, 40.726944 ] } },
{ "type": "Feature", "properties": { "resource_id": "facdb:e40f41ed8ac20f67df470835bd10e653", "name": "Northside Parsons", "category": "children-and-youth", "source": "facdb", "is_coad_member": false }, "geometry": { "type": "Point", "coordinates": [ -73.806859, 40.712615 ] } },
{ "type": "Feature", "properties": { "resource_id": "facdb:e41b6eb6f0aeba681c67569306ea01bd", "name": "McLaughlin Playground", "category": "parks-and-environment", "source": "facdb", "is_coad_member": false }, "geometry": { "type": "Point", "coordinates": [ -73.766282, 40.725556 ] } },
{ "type": "Feature", "properties": { "resource_id": "facdb:e4547de89c3781b62bacd755e9136546", "name": "St. Nicholas of Tolentine Church : St. Nicholas of Tolentine Church- Fp", "category": "food-assistance", "source": "facdb", "is_coad_member": false }, "geometry": { "type": "Point", "coordinates": [ -73.809768, 40.718605 ] } },
{ "type": "Feature", "properties": { "resource_id": "facdb:e46854c3bdcf3b9221192821315ada4f", "name": "Muslim Community Network", "category": "benefits-and-legal", "source": "facdb", "is_coad_member": false }, "geometry": { "type": "Point", "coordinates": [ -73.809203, 40.721452 ] } },
{ "type": "Feature", "properties": { "resource_id": "facdb:e6144cc04f07222daf53c4900deffa18", "name": "Queens Library-Briarwood", "category": "children-and-youth", "source": "facdb", "is_coad_member": false }, "geometry": { "type": "Point", "coordinates": [ -73.819459, 40.710042 ] } },
{ "type": "Feature", "properties": { "resource_id": "facdb:e8a7e559a5336077192ce2dbfa729375", "name": "Briarwood Playground", "category": "parks-and-environment", "source": "facdb", "is_coad_member": false }, "geometry": { "type": "Point", "coordinates": [ -73.811822, 40.71042 ] } },
{ "type": "Feature", "properties": { "resource_id": "facdb:eac429c26694e0d655bfbe0ee730a2c8", "name": "Anti-Gun Violence Education Program for Schools: Nyagv Ed's Fund's", "category": "children-and-youth", "source": "facdb", "is_coad_member": false }, "geometry": { "type": "Point", "coordinates": [ -73.823965, 40.738698 ] } },
{ "type": "Feature", "properties": { "resource_id": "facdb:ebb3ecc214741caedecb56070f7ed823", "name": "Queens Community House, Inc.", "category": "children-and-youth", "source": "facdb", "is_coad_member": false }, "geometry": { "type": "Point", "coordinates": [ -73.803658, 40.709415 ] } },
{ "type": "Feature", "properties": { "resource_id": "facdb:ec90d6627b7edaac3beea384ed2e8314", "name": "CUNY Queens College", "category": "education-and-jobs", "source": "facdb", "is_coad_member": false }, "geometry": { "type": "Point", "coordinates": [ -73.81613, 40.735956 ] } },
{ "type": "Feature", "properties": { "resource_id": "facdb:ecb212e4757aee46ce52ee17976b4996", "name": "Joseph Austin Playground", "category": "parks-and-environment", "source": "facdb", "is_coad_member": false }, "geometry": { "type": "Point", "coordinates": [ -73.798794, 40.716393 ] } },
{ "type": "Feature", "properties": { "resource_id": "facdb:ecda4bb717cfd0b05837732ad35cd27b", "name": "Cedar Grove Playground", "category": "parks-and-environment", "source": "facdb", "is_coad_member": false }, "geometry": { "type": "Point", "coordinates": [ -73.82447, 40.736161 ] } },
{ "type": "Feature", "properties": { "resource_id": "facdb:edfc89c1bd9f8398f5ae95979271b541", "name": "India Home Inc", "category": "older-adults", "source": "facdb", "is_coad_member": false }, "geometry": { "type": "Point", "coordinates": [ -73.795769, 40.712653 ] } },
{ "type": "Feature", "properties": { "resource_id": "facdb:eed1fd1ced46eb6fb9fb190c0bbeeb1a", "name": "Nyc-Hhc Queens Hospital Center Act II", "category": "mental-health-and-recovery", "source": "facdb", "is_coad_member": false }, "geometry": { "type": "Point", "coordinates": [ -73.80452, 40.717881 ] } },
{ "type": "Feature", "properties": { "resource_id": "facdb:f0035019c7e82134e0c5d0fefe337a87", "name": "Arts & Education Continuum, Inc.", "category": "libraries-and-community", "source": "facdb", "is_coad_member": false }, "geometry": { "type": "Point", "coordinates": [ -73.817854, 40.70663 ] } },
{ "type": "Feature", "properties": { "resource_id": "facdb:f06cee5ac377e2171d248998f5a52d6e", "name": "John Bowne High School (25Q425)", "category": "children-and-youth", "source": "facdb", "is_coad_member": false }, "geometry": { "type": "Point", "coordinates": [ -73.823965, 40.738698 ] } },
{ "type": "Feature", "properties": { "resource_id": "facdb:f3b674003ed6f41ebacd28369e2ef621", "name": "Cunningham Park", "category": "parks-and-environment", "source": "facdb", "is_coad_member": false }, "geometry": { "type": "Point", "coordinates": [ -73.771006, 40.730892 ] } },
{ "type": "Feature", "properties": { "resource_id": "facdb:f42220b9970ed9e3dd8065ff65d28548", "name": "Deeper Life Vbs", "category": "children-and-youth", "source": "facdb", "is_coad_member": false }, "geometry": { "type": "Point", "coordinates": [ -73.79283, 40.71562 ] } },
{ "type": "Feature", "properties": { "resource_id": "facdb:f5c9e5346f48d61c7eb76220647e40fd", "name": "Engine 315/LADDER 125", "category": "emergency-services", "source": "facdb", "is_coad_member": false }, "geometry": { "type": "Point", "coordinates": [ -73.807734, 40.720063 ] } },
{ "type": "Feature", "properties": { "resource_id": "facdb:f66b5bedecdaf3ea58b38519ef942372", "name": "The Leslie-Lohman Museum of Gay and Lesbian Art", "category": "children-and-youth", "source": "facdb", "is_coad_member": false }, "geometry": { "type": "Point", "coordinates": [ -73.809042, 40.724217 ] } },
{ "type": "Feature", "properties": { "resource_id": "facdb:f6e61ed1fabaa04afff74b26bb1557a3", "name": "Swim Strong Foundation, Inc.", "category": "children-and-youth", "source": "facdb", "is_coad_member": false }, "geometry": { "type": "Point", "coordinates": [ -73.798077, 40.714269 ] } },
{ "type": "Feature", "properties": { "resource_id": "facdb:f88b0281a4f0700a5f846b4d890080e4", "name": "Young Israel of Kew Gardens Hills", "category": "children-and-youth", "source": "facdb", "is_coad_member": false }, "geometry": { "type": "Point", "coordinates": [ -73.818235, 40.730218 ] } },
{ "type": "Feature", "properties": { "resource_id": "facdb:fa1208662f7de339488aeb1a21eba559", "name": "Youth", "category": "children-and-youth", "source": "facdb", "is_coad_member": false }, "geometry": { "type": "Point", "coordinates": [ -73.809873, 40.727084 ] } },
{ "type": "Feature", "properties": { "resource_id": "facdb:fc1d35b1d16993cb334fdeff7468b593", "name": "Ottilie Rtf", "category": "children-and-youth", "source": "facdb", "is_coad_member": false }, "geometry": { "type": "Point", "coordinates": [ -73.811329, 40.708823 ] } },
{ "type": "Feature", "properties": { "resource_id": "facdb:fd3ec2833bdc2c5aca620ff58d96a852", "name": "Jamaica Hillside Dialysis", "category": "health-care", "source": "facdb", "is_coad_member": false }, "geometry": { "type": "Point", "coordinates": [ -73.790924, 40.711836 ] } },
{ "type": "Feature", "properties": { "resource_id": "facdb:fd776e0d77bcf28c858c028ac4255230", "name": "Haitian Americans United for Progress Inc", "category": "children-and-youth", "source": "facdb", "is_coad_member": false }, "geometry": { "type": "Point", "coordinates": [ -73.765118, 40.718845 ] } },
{ "type": "Feature", "properties": { "resource_id": "facdb:fdd6fbd000250735b1f18728fec82a3a", "name": "Samaritan Daytop Village Inc", "category": "health-care", "source": "facdb", "is_coad_member": false }, "geometry": { "type": "Point", "coordinates": [ -73.818738, 40.708368 ] } },
{ "type": "Feature", "properties": { "resource_id": "qnpd:a-beautiful-heart-ministries-inc", "name": "A Beautiful Heart Ministries, Inc", "category": "government-offices", "source": "qnpd", "is_coad_member": false }, "geometry": { "type": "Point", "coordinates": [ -73.784973, 40.713938 ] } },
{ "type": "Feature", "properties": { "resource_id": "qnpd:arts-4-all-foundation", "name": "Arts 4 All Foundation", "category": "education-and-jobs", "source": "qnpd", "is_coad_member": false }, "geometry": { "type": "Point", "coordinates": [ -73.810663, 40.718463 ] } },
{ "type": "Feature", "properties": { "resource_id": "qnpd:bengali-interfaith-youth-empowerment-biye", "name": "Bengali Interfaith Youth Empowerment (BIYE)", "category": "children-and-youth", "source": "qnpd", "is_coad_member": false }, "geometry": { "type": "Point", "coordinates": [ -73.765166, 40.719093 ] } },
{ "type": "Feature", "properties": { "resource_id": "qnpd:divya-jyoti-jagrati-kendra", "name": "Divya Jyoti Jagrati Kendra", "category": "libraries-and-community", "source": "qnpd", "is_coad_member": false }, "geometry": { "type": "Point", "coordinates": [ -73.791725, 40.717782 ] } },
{ "type": "Feature", "properties": { "resource_id": "qnpd:indian-diaspora-council", "name": "Indian Diaspora Council", "category": "government-offices", "source": "qnpd", "is_coad_member": false }, "geometry": { "type": "Point", "coordinates": [ -73.78547, 40.74065 ] } },
{ "type": "Feature", "properties": { "resource_id": "qnpd:maya-smiles-project", "name": "Maya Smiles Project", "category": "education-and-jobs", "source": "qnpd", "is_coad_member": false }, "geometry": { "type": "Point", "coordinates": [ -73.793015, 40.715653 ] } },
{ "type": "Feature", "properties": { "resource_id": "qnpd:practical-knowledge-inc", "name": "Practical Knowledge, Inc.", "category": "children-and-youth", "source": "qnpd", "is_coad_member": false }, "geometry": { "type": "Point", "coordinates": [ -73.819607, 40.723125 ] } },
{ "type": "Feature", "properties": { "resource_id": "qnpd:queens-centers-for-progress", "name": "Queens Centers for Progress", "category": "benefits-and-legal", "source": "qnpd", "is_coad_member": false }, "geometry": { "type": "Point", "coordinates": [ -73.80363, 40.720049 ] } },
{ "type": "Feature", "properties": { "resource_id": "qnpd:rabbinical-seminary-of-america", "name": "Rabbinical Seminary of America", "category": "education-and-jobs", "source": "qnpd", "is_coad_member": false }, "geometry": { "type": "Point", "coordinates": [ -73.817134, 40.723072 ] } },
{ "type": "Feature", "properties": { "resource_id": "qnpd:samaritan-daytop-village--1", "name": "Samaritan Daytop Village", "category": "benefits-and-legal", "source": "qnpd", "is_coad_member": false }, "geometry": { "type": "Point", "coordinates": [ -73.818726, 40.70835 ] } },
{ "type": "Feature", "properties": { "resource_id": "qnpd:samaritan-daytop-village--2", "name": "Samaritan Daytop Village", "category": "education-and-jobs", "source": "qnpd", "is_coad_member": false }, "geometry": { "type": "Point", "coordinates": [ -73.818726, 40.70835 ] } },
{ "type": "Feature", "properties": { "resource_id": "qnpd:samaritan-daytop-village--3", "name": "Samaritan Daytop Village", "category": "health-care", "source": "qnpd", "is_coad_member": false }, "geometry": { "type": "Point", "coordinates": [ -73.818726, 40.70835 ] } },
{ "type": "Feature", "properties": { "resource_id": "qnpd:samaritan-daytop-village--4", "name": "Samaritan Daytop Village", "category": "benefits-and-legal", "source": "qnpd", "is_coad_member": false }, "geometry": { "type": "Point", "coordinates": [ -73.818726, 40.70835 ] } }
]
}
