{
"type": "FeatureCollection",
"name": "q09",
"features": [
{ "type": "Feature", "properties": { "resource_id": "facdb:00e81f69d9981c3ee36f28fa0e171ab4", "name": "Maple Grove Cemetery", "category": "parks-and-environment", "source": "facdb", "is_coad_member": false }, "geometry": { "type": "Point", "coordinates": [ -73.823317, 40.7086 ] } },
{ "type": "Feature", "properties": { "resource_id": "facdb:027ca6e9ac001ce17f15d86425fea949", "name": "The Child Center of NY Inc", "category": "children-and-youth", "source": "facdb", "is_coad_member": false }, "geometry": { "type": "Point", "coordinates": [ -73.835594, 40.699081 ] } },
{ "type": "Feature", "properties": { "resource_id": "facdb:0341710038d4c5dcdae7b591c0a5de32", "name": "Fed of Org - Hh Nonmed Cm - NYC", "category": "mental-health-and-recovery", "source": "facdb", "is_coad_member": false }, "geometry": { "type": "Point", "coordinates": [ -73.833571, 40.699978 ] } },
{ "type": "Feature", "properties": { "resource_id": "facdb:038731679999b0d340bb3b41a03608ef", "name": "St. Matthew's Episcopal Church", "category": "parks-and-environment", "source": "facdb", "is_coad_member": false }, "geometry": { "type": "Point", "coordinates": [ -73.849224, 40.696158 ] } },
{ "type": "Feature", "properties": { "resource_id": "facdb:03c483b59f42e3db8edf18b6af5e0500", "name": "Jamaica Hospital Inpatient Program", "category": "mental-health-and-recovery", "source": "facdb", "is_coad_member": false }, "geometry": { "type": "Point", "coordinates": [ -73.816279, 40.7004 ] } },
{ "type": "Feature", "properties": { "resource_id": "facdb:03d2fc7777d1106f2b4d95e8ec7cadb1", "name": "Queens Community House Inc.", "category": "older-adults", "source": "facdb", "is_coad_member": false }, "geometry": { "type": "Point", "coordinates": [ -73.831335, 40.713573 ] } },
{ "type": "Feature", "properties": { "resource_id": "facdb:04f1075c95879ea60b31a572f7525063", "name": "Cftss Other LIC. Pract NYC", "category": "mental-health-and-recovery", "source": "facdb", "is_coad_member": false }, "geometry": { "type": "Point", "coordinates": [ -73.83353, 40.70021 ] } },
{ "type": "Feature", "properties": { "resource_id": "facdb:0664af0fb0ed4ab2174a629e7fb1eedc", "name": "Richmond Hill Historical Society", "category": "libraries-and-community", "source": "facdb", "is_coad_member": false }, "geometry": { "type": "Point", "coordinates": [ -73.834534, 40.699109 ] } },
{ "type": "Feature", "properties": { "resource_id": "facdb:0726c124311d3dd4902f5489a2fafe75", "name": "The River Fund New York : the River Fund New York", "category": "food-assistance", "source": "facdb", "is_coad_member": false }, "geometry": { "type": "Point", "coordinates": [ -73.829132, 40.696999 ] } },
{ "type": "Feature", "properties": { "resource_id": "facdb:08b516e6434e9e2d437428f3e288a140", "name": "Tsq Inc", "category": "children-and-youth", "source": "facdb", "is_coad_member": false }, "geometry": { "type": "Point", "coordinates": [ -73.823324, 40.703995 ] } },
{ "type": "Feature", "properties": { "resource_id": "facdb:09c4b76e72c84c7fb752c3019d4093d6", "name": "Legion Triangle", "category": "parks-and-environment", "source": "facdb", "is_coad_member": false }, "geometry": { "type": "Point", "coordinates": [ -73.866698, 40.686417 ] } },
{ "type": "Feature", "properties": { "resource_id": "facdb:09dd5edd345ca219191366a58b2cf4d0", "name": "Richmond Hill Library", "category": "children-and-youth", "source": "facdb", "is_coad_member": false }, "geometry": { "type": "Point", "coordinates": [ -73.831626, 40.700775 ] } },
{ "type": "Feature", "properties": { "resource_id": "facdb:09f8871c913513c3062cbb8c83dc1680", "name": "Queens Criminal Court/Parking Lot", "category": "government-offices", "source": "facdb", "is_coad_member": false }, "geometry": { "type": "Point", "coordinates": [ -73.82578, 40.713498 ] } },
{ "type": "Feature", "properties": { "resource_id": "facdb:0be59342ec7de8bb80fe9e4d2ce6679e", "name": "Kew Gardens Dialysis Center", "category": "health-care", "source": "facdb", "is_coad_member": false }, "geometry": { "type": "Point", "coordinates": [ -73.8288, 40.713043 ] } },
{ "type": "Feature", "properties": { "resource_id": "facdb:0c647e08ba4ce8d8a8d43a39339655e0", "name": "Common Ground Management Corp", "category": "housing-and-shelter", "source": "facdb", "is_coad_member": false }, "geometry": { "type": "Point", "coordinates": [ -73.842987, 40.689413 ] } },
{ "type": "Feature", "properties": { "resource_id": "facdb:0d8b447f8913a000436c6b62ca7e7dc6", "name": "Latin American Intercultural Alliance", "category": "libraries-and-community", "source": "facdb", "is_coad_member": false }, "geometry": { "type": "Point", "coordinates": [ -73.838813, 40.697599 ] } },
{ "type": "Feature", "properties": { "resource_id": "facdb:0dcf2a1334f1d3161743c6a80e2b2143", "name": "Myrtle Avenue Family Health Center", "category": "health-care", "source": "facdb", "is_coad_member": false }, "geometry": { "type": "Point", "coordinates": [ -73.831994, 40.700261 ] } },
{ "type": "Feature", "properties": { "resource_id": "facdb:0de6fa59e9d95d46257e9247d9c9fd17", "name": "P.S. 56 Harry Eichler", "category": "children-and-youth", "source": "facdb", "is_coad_member": false }, "geometry": { "type": "Point", "coordinates": [ -73.835594, 40.699081 ] } },
{ "type": "Feature", "properties": { "resource_id": "facdb:0e31dc124c79def10c9c8130886ad6a6", "name": "New York City Academy for Discovery", "category": "children-and-youth", "source": "facdb", "is_coad_member": false }, "geometry": { "type": "Point", "coordinates": [ -73.848629, 40.691626 ] } },
{ "type": "Feature", "properties": { "resource_id": "facdb:0e6ea463f68de3c55d9582a22fdd4874", "name": "Boys & Girls Club of Metro Queens, Inc", "category": "children-and-youth", "source": "facdb", "is_coad_member": false }, "geometry": { "type": "Point", "coordinates": [ -73.835291, 40.691689 ] } },
{ "type": "Feature", "properties": { "resource_id": "facdb:1045f90c39fa017c5a23b45da4aa5fd7", "name": "Evangelical Free Church of America : Community Bible", "category": "food-assistance", "source": "facdb", "is_coad_member": false }, "geometry": { "type": "Point", "coordinates": [ -73.843459, 40.693131 ] } },
{ "type": "Feature", "properties": { "resource_id": "facdb:10e4eb2f56e873837fd8720727ee6476", "name": "Lt. Clinton L .Whiting Square", "category": "parks-and-environment", "source": "facdb", "is_coad_member": false }, "geometry": { "type": "Point", "coordinates": [ -73.85823, 40.687245 ] } },
{ "type": "Feature", "properties": { "resource_id": "facdb:1657fef36d6ca09a4dc2fcd39e16693d", "name": "Church of the Resurrection", "category": "parks-and-environment", "source": "facdb", "is_coad_member": false }, "geometry": { "type": "Point", "coordinates": [ -73.832487, 40.702356 ] } },
{ "type": "Feature", "properties": { "resource_id": "facdb:195530439bbd92f98659d6a0eb1e4dfa", "name": "Equity Playground", "category": "parks-and-environment", "source": "facdb", "is_coad_member": false }, "geometry": { "type": "Point", "coordinates": [ -73.853387, 40.691303 ] } },
{ "type": "Feature", "properties": { "resource_id": "facdb:195812e5a0a0e4b9a0404544664cd246", "name": "Upk Atholy Child Jesus", "category": "children-and-youth", "source": "facdb", "is_coad_member": false }, "geometry": { "type": "Point", "coordinates": [ -73.837627, 40.698566 ] } },
{ "type": "Feature", "properties": { "resource_id": "facdb:19b45c94f1eeea3b3f47c5d63efc4886", "name": "Queens Criminal Court/Parking Lot", "category": "government-offices", "source": "facdb", "is_coad_member": false }, "geometry": { "type": "Point", "coordinates": [ -73.82578, 40.713498 ] } },
{ "type": "Feature", "properties": { "resource_id": "facdb:1a0a6090b90ddccd4866dfa472acae27", "name": "New Homestead Home for Adults, Inc.", "category": "health-care", "source": "facdb", "is_coad_member": false }, "geometry": { "type": "Point", "coordinates": [ -73.830981, 40.709195 ] } },
{ "type": "Feature", "properties": { "resource_id": "facdb:1e4e5a9a5d7b7f28d5c3da4574db4b37", "name": "Queens Borough Hall", "category": "government-offices", "source": "facdb", "is_coad_member": false }, "geometry": { "type": "Point", "coordinates": [ -73.827997, 40.714006 ] } },
{ "type": "Feature", "properties": { "resource_id": "facdb:1ec3b0852fe2db3e4c3662a9144bb825", "name": "The Child Center of NY Inc", "category": "children-and-youth", "source": "facdb", "is_coad_member": false }, "geometry": { "type": "Point", "coordinates": [ -73.833727, 40.694942 ] } },
{ "type": "Feature", "properties": { "resource_id": "facdb:222d50e5fd7d2a5d65ca03aa36089590", "name": "Queens Borough Hall", "category": "government-offices", "source": "facdb", "is_coad_member": false }, "geometry": { "type": "Point", "coordinates": [ -73.827997, 40.714006 ] } },
{ "type": "Feature", "properties": { "resource_id": "facdb:223533053d53f2760e7d3f33c9337c72", "name": "Queens Community House, Inc.", "category": "children-and-youth", "source": "facdb", "is_coad_member": false }, "geometry": { "type": "Point", "coordinates": [ -73.847621, 40.684667 ] } },
{ "type": "Feature", "properties": { "resource_id": "facdb:227cc82d85d8d496815fde2d834c65ef", "name": "Jamaica Hospital Cti Team 1", "category": "mental-health-and-recovery", "source": "facdb", "is_coad_member": false }, "geometry": { "type": "Point", "coordinates": [ -73.816279, 40.7004 ] } },
{ "type": "Feature", "properties": { "resource_id": "facdb:24b6dc7e56f43bbe7c9c70d6e9bc54c1", "name": "General Human Outreach in the Community", "category": "disability-and-access", "source": "facdb", "is_coad_member": false }, "geometry": { "type": "Point", "coordinates": [ -73.826522, 40.711997 ] } },
{ "type": "Feature", "properties": { "resource_id": "facdb:2517cfa8ae6b17a1cbcba94b5678d596", "name": "Access Institute", "category": "education-and-jobs", "source": "facdb", "is_coad_member": false }, "geometry": { "type": "Point", "coordinates": [ -73.831335, 40.713573 ] } },
{ "type": "Feature", "properties": { "resource_id": "facdb:29558a6fa7c82cae191d441d5ba032f9", "name": "Smh Care Management - Bronx", "category": "mental-health-and-recovery", "source": "facdb", "is_coad_member": false }, "geometry": { "type": "Point", "coordinates": [ -73.83353, 40.70021 ] } },
{ "type": "Feature", "properties": { "resource_id": "facdb:2dbd667b3343eb5672af30fd356d47c6", "name": "All Nations Baptist Church of Woodhaven : All Nations Baptist Church of Woodhaven", "category": "food-assistance", "source": "facdb", "is_coad_member": false }, "geometry": { "type": "Point", "coordinates": [ -73.862221, 40.691741 ] } },
{ "type": "Feature", "properties": { "resource_id": "facdb:2e7617c76d33e724f45952afeca53029", "name": "Crossover Baptist Church Comm. Outreach Help Cntr. : Crossover Baptist Church Comm. Outreach Help Cntr.", "category": "food-assistance", "source": "facdb", "is_coad_member": false }, "geometry": { "type": "Point", "coordinates": [ -73.853925, 40.681797 ] } },
{ "type": "Feature", "properties": { "resource_id": "facdb:2fb8f1aea48b660572e634d3bafdc5d4", "name": "Jamaica Hospital", "category": "benefits-and-legal", "source": "facdb", "is_coad_member": false }, "geometry": { "type": "Point", "coordinates": [ -73.816279, 40.7004 ] } },
{ "type": "Feature", "properties": { "resource_id": "facdb:2fcda6138656180b0ccc699946c026c5", "name": "Queens Borough Hall", "category": "government-offices", "source": "facdb", "is_coad_member": false }, "geometry": { "type": "Point", "coordinates": [ -73.827997, 40.714006 ] } },
{ "type": "Feature", "properties": { "resource_id": "facdb:3218bbb89c355f8af82872cd9c70ba3b", "name": "Outreach Ccbhc", "category": "mental-health-and-recovery", "source": "facdb", "is_coad_member": false }, "geometry": { "type": "Point", "coordinates": [ -73.831994, 40.700261 ] } },
{ "type": "Feature", "properties": { "resource_id": "facdb:324399a93fe89cb933b078e824b84284", "name": "Greater Woodhaven Develop Corporation", "category": "children-and-youth", "source": "facdb", "is_coad_member": false }, "geometry": { "type": "Point", "coordinates": [ -73.860704, 40.692569 ] } },
{ "type": "Feature", "properties": { "resource_id": "facdb:326fc0fa143764fddb7f953644acac8f", "name": "Jacob Riis Triangle", "category": "parks-and-environment", "source": "facdb", "is_coad_member": false }, "geometry": { "type": "Point", "coordinates": [ -73.834942, 40.701968 ] } },
{ "type": "Feature", "properties": { "resource_id": "facdb:32d853ea12298be9eb280d530efe46e2", "name": "One Stop Richmond Hill Community Center, Inc", "category": "children-and-youth", "source": "facdb", "is_coad_member": false }, "geometry": { "type": "Point", "coordinates": [ -73.837579, 40.696256 ] } },
{ "type": "Feature", "properties": { "resource_id": "facdb:335608b600c3148fe4e3707f231b0763", "name": "Project Lead : Project Lead", "category": "food-assistance", "source": "facdb", "is_coad_member": false }, "geometry": { "type": "Point", "coordinates": [ -73.825622, 40.703984 ] } },
{ "type": "Feature", "properties": { "resource_id": "facdb:39aafcc8c05b36f2686264d22001318c", "name": "Queens Da Office", "category": "government-offices", "source": "facdb", "is_coad_member": false }, "geometry": { "type": "Point", "coordinates": [ -73.831263, 40.7136 ] } },
{ "type": "Feature", "properties": { "resource_id": "facdb:39c79f4de87e63d523f99f17ded879f8", "name": "Safe Horizon Inc", "category": "benefits-and-legal", "source": "facdb", "is_coad_member": false }, "geometry": { "type": "Point", "coordinates": [ -73.825881, 40.713248 ] } },
{ "type": "Feature", "properties": { "resource_id": "facdb:3a8b729c781a9576bfafa6545ff82da0", "name": "Spear & Company Factory", "category": "parks-and-environment", "source": "facdb", "is_coad_member": false }, "geometry": { "type": "Point", "coordinates": [ -73.843044, 40.688723 ] } },
{ "type": "Feature", "properties": { "resource_id": "facdb:3bb05e6f1cb68875ab0475b70e54f09b", "name": "Catholic Charities Neighborhood Services Inc", "category": "older-adults", "source": "facdb", "is_coad_member": false }, "geometry": { "type": "Point", "coordinates": [ -73.853278, 40.690433 ] } },
{ "type": "Feature", "properties": { "resource_id": "facdb:3d5ca921b72ae30704b2b303640c1671", "name": "Queens Community House, Inc.", "category": "children-and-youth", "source": "facdb", "is_coad_member": false }, "geometry": { "type": "Point", "coordinates": [ -73.847621, 40.684667 ] } },
{ "type": "Feature", "properties": { "resource_id": "facdb:4275934ccabcce560192ce42c86e44ec", "name": "Jamaica Hospital Medical Center", "category": "health-care", "source": "facdb", "is_coad_member": false }, "geometry": { "type": "Point", "coordinates": [ -73.816299, 40.701412 ] } },
{ "type": "Feature", "properties": { "resource_id": "facdb:44e5c828e3075eb9d55c355af6ddcf59", "name": "Police Officer Nicholas Demutiis Park", "category": "parks-and-environment", "source": "facdb", "is_coad_member": false }, "geometry": { "type": "Point", "coordinates": [ -73.839283, 40.681773 ] } },
{ "type": "Feature", "properties": { "resource_id": "facdb:452e75c1b3ca025ba257c1672ef6bdbe", "name": "Bangladeshi American Community Development & Youth Services", "category": "children-and-youth", "source": "facdb", "is_coad_member": false }, "geometry": { "type": "Point", "coordinates": [ -73.857208, 40.683581 ] } },
{ "type": "Feature", "properties": { "resource_id": "facdb:46233205228137571e0411cec38e6ed0", "name": "Queens Borough Hall", "category": "government-offices", "source": "facdb", "is_coad_member": false }, "geometry": { "type": "Point", "coordinates": [ -73.827997, 40.714006 ] } },
{ "type": "Feature", "properties": { "resource_id": "facdb:4672de9de4af544d55832d5c61abb709", "name": "Forest Park", "category": "parks-and-environment", "source": "facdb", "is_coad_member": false }, "geometry": { "type": "Point", "coordinates": [ -73.835497, 40.710778 ] } },
{ "type": "Feature", "properties": { "resource_id": "facdb:470c2cb504472ae60c3230a68a60cc53", "name": "AIDS Center of Queens County : AIDS Center of Queens County", "category": "food-assistance", "source": "facdb", "is_coad_member": false }, "geometry": { "type": "Point", "coordinates": [ -73.8153, 40.698702 ] } },
{ "type": "Feature", "properties": { "resource_id": "facdb:48fe3c5f5f8f41a78d135c4df23c59f7", "name": "Queens Legal Services Corporation", "category": "benefits-and-legal", "source": "facdb", "is_coad_member": false }, "geometry": { "type": "Point", "coordinates": [ -73.825881, 40.713248 ] } },
{ "type": "Feature", "properties": { "resource_id": "facdb:4a316213093e67d11e0289df32542541", "name": "Federation of Organizations for the New York State Mentally", "category": "mental-health-and-recovery", "source": "facdb", "is_coad_member": false }, "geometry": { "type": "Point", "coordinates": [ -73.838003, 40.686812 ] } },
{ "type": "Feature", "properties": { "resource_id": "facdb:4aa679eaeaff324f424d549d42a86d74", "name": "Woodhaven", "category": "libraries-and-community", "source": "facdb", "is_coad_member": false }, "geometry": { "type": "Point", "coordinates": [ -73.861442, 40.694554 ] } },
{ "type": "Feature", "properties": { "resource_id": "facdb:4b3256e38c13a7a357ad57f1098a81df", "name": "Atria Kew Gardens", "category": "health-care", "source": "facdb", "is_coad_member": false }, "geometry": { "type": "Point", "coordinates": [ -73.834591, 40.704295 ] } },
{ "type": "Feature", "properties": { "resource_id": "facdb:4c12a9a518b047d19543241fd2ad6f92", "name": "AIDS Healthcare Foundation", "category": "health-care", "source": "facdb", "is_coad_member": false }, "geometry": { "type": "Point", "coordinates": [ -73.8153, 40.698702 ] } },
{ "type": "Feature", "properties": { "resource_id": "facdb:4cbae067c06d54364b3efba79da247bc", "name": "Fordham Institute, Inc.", "category": "education-and-jobs", "source": "facdb", "is_coad_member": false }, "geometry": { "type": "Point", "coordinates": [ -73.846854, 40.695363 ] } },
{ "type": "Feature", "properties": { "resource_id": "facdb:4dbfd73cb31853f96c26ad3a241a70d3", "name": "Boys & Girls Club of Metro Queens, Inc", "category": "children-and-youth", "source": "facdb", "is_coad_member": false }, "geometry": { "type": "Point", "coordinates": [ -73.835291, 40.691689 ] } },
{ "type": "Feature", "properties": { "resource_id": "facdb:4dc84db3ae15f02d82810a96af2b3567", "name": "Cftss Fpss NYC", "category": "mental-health-and-recovery", "source": "facdb", "is_coad_member": false }, "geometry": { "type": "Point", "coordinates": [ -73.83353, 40.70021 ] } },
{ "type": "Feature", "properties": { "resource_id": "facdb:513b93254f3fb3d2bf789817a0a7de39", "name": "Anshe Sholom Jewish Center", "category": "children-and-youth", "source": "facdb", "is_coad_member": false }, "geometry": { "type": "Point", "coordinates": [ -73.834309, 40.708148 ] } },
{ "type": "Feature", "properties": { "resource_id": "facdb:518102e1f9d89ef0ae46ef3d9b54f696", "name": "Queens Library - Woodhaven", "category": "children-and-youth", "source": "facdb", "is_coad_member": false }, "geometry": { "type": "Point", "coordinates": [ -73.861442, 40.694554 ] } },
{ "type": "Feature", "properties": { "resource_id": "facdb:51e4f2d4dfeca605565396e317deb053", "name": "Boys & Girls Club of Metro Queens", "category": "children-and-youth", "source": "facdb", "is_coad_member": false }, "geometry": { "type": "Point", "coordinates": [ -73.835291, 40.691689 ] } },
{ "type": "Feature", "properties": { "resource_id": "facdb:5333e385286044018f513b958523cd99", "name": "Queens Borough Hall", "category": "government-offices", "source": "facdb", "is_coad_member": false }, "geometry": { "type": "Point", "coordinates": [ -73.827997, 40.714006 ] } },
{ "type": "Feature", "properties": { "resource_id": "facdb:53db145f32a7a8468e060106b17530b8", "name": "Samuel Field YM & YWHA Inc", "category": "children-and-youth", "source": "facdb", "is_coad_member": false }, "geometry": { "type": "Point", "coordinates": [ -73.816263, 40.693641 ] } },
{ "type": "Feature", "properties": { "resource_id": "facdb:53f3f68ef4a8aa598fbb2bbc0f07570e", "name": "The Greater Ridgewood Youth Council Inc", "category": "children-and-youth", "source": "facdb", "is_coad_member": false }, "geometry": { "type": "Point", "coordinates": [ -73.852845, 40.691463 ] } },
{ "type": "Feature", "properties": { "resource_id": "facdb:548e860d281022e9153e656a23da0a1a", "name": "St. Benedict Joseph Labre Parish", "category": "parks-and-environment", "source": "facdb", "is_coad_member": false }, "geometry": { "type": "Point", "coordinates": [ -73.828878, 40.692774 ] } },
{ "type": "Feature", "properties": { "resource_id": "facdb:54d65d84fe5837607e799f723dda6c7e", "name": "Queens Borough Hall", "category": "government-offices", "source": "facdb", "is_coad_member": false }, "geometry": { "type": "Point", "coordinates": [ -73.827997, 40.714006 ] } },
{ "type": "Feature", "properties": { "resource_id": "facdb:5532abf57c326a43ca2d947b6b25eff1", "name": "PS 254 - the Rosa Parks School (27Q254)", "category": "children-and-youth", "source": "facdb", "is_coad_member": false }, "geometry": { "type": "Point", "coordinates": [ -73.847945, 40.697291 ] } },
{ "type": "Feature", "properties": { "resource_id": "facdb:555d2e042e0ec01d1e8a7ce4e91f9e09", "name": "Nurse Care Institute, Ltd", "category": "education-and-jobs", "source": "facdb", "is_coad_member": false }, "geometry": { "type": "Point", "coordinates": [ -73.81735, 40.699265 ] } },
{ "type": "Feature", "properties": { "resource_id": "facdb:5569cfa8b57119e2eac274aa630291c8", "name": "Calvary's Mission : Calvary's Mission", "category": "food-assistance", "source": "facdb", "is_coad_member": false }, "geometry": { "type": "Point", "coordinates": [ -73.825982, 40.690552 ] } },
{ "type": "Feature", "properties": { "resource_id": "facdb:575a701253b61f7b5ab8ef4b1ddb8cdb", "name": "Federation of Organizations for the New York State Mentally", "category": "mental-health-and-recovery", "source": "facdb", "is_coad_member": false }, "geometry": { "type": "Point", "coordinates": [ -73.833571, 40.699978 ] } },
{ "type": "Feature", "properties": { "resource_id": "facdb:584247bde520dbe41ab1b2a06f69df87", "name": "Yeshiva Tifereth Moshe, Inc.", "category": "children-and-youth", "source": "facdb", "is_coad_member": false }, "geometry": { "type": "Point", "coordinates": [ -73.834157, 40.707642 ] } },
{ "type": "Feature", "properties": { "resource_id": "facdb:587b93c5e50815c2cecf00c654962776", "name": "Queens Borough Hall", "category": "government-offices", "source": "facdb", "is_coad_member": false }, "geometry": { "type": "Point", "coordinates": [ -73.827997, 40.714006 ] } },
{ "type": "Feature", "properties": { "resource_id": "facdb:5c378f7338d71d3a66dcef3fc92380d5", "name": "Medisys Family Care Center", "category": "health-care", "source": "facdb", "is_coad_member": false }, "geometry": { "type": "Point", "coordinates": [ -73.819562, 40.702554 ] } },
{ "type": "Feature", "properties": { "resource_id": "facdb:610322286b4fd4009a2a971ab24fd2b1", "name": "The Child Center of NY Inc", "category": "children-and-youth", "source": "facdb", "is_coad_member": false }, "geometry": { "type": "Point", "coordinates": [ -73.844347, 40.693623 ] } },
{ "type": "Feature", "properties": { "resource_id": "facdb:62354c535ace93b8ad7b04ba882114d0", "name": "Apex Eye Surgery Center", "category": "health-care", "source": "facdb", "is_coad_member": false }, "geometry": { "type": "Point", "coordinates": [ -73.837474, 40.686436 ] } },
{ "type": "Feature", "properties": { "resource_id": "facdb:6bad282623bf3e1039d2f2ab4114ff9f", "name": "The Greater Ridgewood Youth Council Inc", "category": "children-and-youth", "source": "facdb", "is_coad_member": false }, "geometry": { "type": "Point", "coordinates": [ -73.848629, 40.691626 ] } },
{ "type": "Feature", "properties": { "resource_id": "facdb:6c1b588a902b0506d3a39fb180e33242", "name": "Little Light of Mine", "category": "children-and-youth", "source": "facdb", "is_coad_member": false }, "geometry": { "type": "Point", "coordinates": [ -73.83014, 40.709484 ] } },
{ "type": "Feature", "properties": { "resource_id": "facdb:721c81ac9074c214c2a384d22dc3f84c", "name": "The Greater Ridgewood Youth Council Inc", "category": "children-and-youth", "source": "facdb", "is_coad_member": false }, "geometry": { "type": "Point", "coordinates": [ -73.847995, 40.681901 ] } },
{ "type": "Feature", "properties": { "resource_id": "facdb:760e3c1a6bc5646878dec7fa543a90c5", "name": "Van Wyck Dialysis", "category": "health-care", "source": "facdb", "is_coad_member": false }, "geometry": { "type": "Point", "coordinates": [ -73.8153, 40.698702 ] } },
{ "type": "Feature", "properties": { "resource_id": "facdb:7866097d168e0790d3c63c306a3ff6ee", "name": "Queens Forensic Act Team", "category": "mental-health-and-recovery", "source": "facdb", "is_coad_member": false }, "geometry": { "type": "Point", "coordinates": [ -73.833571, 40.699978 ] } },
{ "type": "Feature", "properties": { "resource_id": "facdb:7950bf7ef7dc61e0ae8601e26e6430e5", "name": "Office Building", "category": "government-offices", "source": "facdb", "is_coad_member": false }, "geometry": { "type": "Point", "coordinates": [ -73.825912, 40.711528 ] } },
{ "type": "Feature", "properties": { "resource_id": "facdb:796c9f0feef7b5a50317de0ed2e136b3", "name": "Kew Gardens Council for Recreation and the Arts Inc", "category": "children-and-youth", "source": "facdb", "is_coad_member": false }, "geometry": { "type": "Point", "coordinates": [ -73.829472, 40.71113 ] } },
{ "type": "Feature", "properties": { "resource_id": "facdb:7af7cdcb679030ebb2776163361f9521", "name": "Elo -  Kidz Summer Ministry", "category": "children-and-youth", "source": "facdb", "is_coad_member": false }, "geometry": { "type": "Point", "coordinates": [ -73.837194, 40.696711 ] } },
{ "type": "Feature", "properties": { "resource_id": "facdb:7b2073752a6cfded1461876a8bc444a0", "name": "The Greater Ridgewood Youth Council Inc", "category": "children-and-youth", "source": "facdb", "is_coad_member": false }, "geometry": { "type": "Point", "coordinates": [ -73.856386, 40.691266 ] } },
{ "type": "Feature", "properties": { "resource_id": "facdb:7df8feb367057113679c348d85a784c0", "name": "Core Family Support", "category": "mental-health-and-recovery", "source": "facdb", "is_coad_member": false }, "geometry": { "type": "Point", "coordinates": [ -73.83353, 40.70021 ] } },
{ "type": "Feature", "properties": { "resource_id": "facdb:8098a798553ce78046cd6873d95df572", "name": "Catholic Med Ctr Brook/Queens Sch Nr", "category": "education-and-jobs", "source": "facdb", "is_coad_member": false }, "geometry": { "type": "Point", "coordinates": [ -73.850566, 40.691193 ] } },
{ "type": "Feature", "properties": { "resource_id": "facdb:82c2c0659956a8d7ce9621ba1987773e", "name": "Lt. Frank McConnell Park", "category": "parks-and-environment", "source": "facdb", "is_coad_member": false }, "geometry": { "type": "Point", "coordinates": [ -73.827396, 40.693975 ] } },
{ "type": "Feature", "properties": { "resource_id": "facdb:869c1bffe479236f0096893225c0156b", "name": "Osborne Treatment Services Inc", "category": "benefits-and-legal", "source": "facdb", "is_coad_member": false }, "geometry": { "type": "Point", "coordinates": [ -73.825481, 40.712723 ] } },
{ "type": "Feature", "properties": { "resource_id": "facdb:8745f7a88a3d39db8929d9ff02c6126c", "name": "Catholic Charities Neighborhood Services Inc", "category": "older-adults", "source": "facdb", "is_coad_member": false }, "geometry": { "type": "Point", "coordinates": [ -73.839485, 40.685696 ] } },
{ "type": "Feature", "properties": { "resource_id": "facdb:875dee205d0c2858d49de102e2040d87", "name": "NYPD 106th Precinct Station House", "category": "emergency-services", "source": "facdb", "is_coad_member": false }, "geometry": { "type": "Point", "coordinates": [ -73.839689, 40.682178 ] } },
{ "type": "Feature", "properties": { "resource_id": "facdb:88daf63c977bb3c7b808bc238d3c9600", "name": "New York City Gay and Lesbian Anti-Violence Project Inc", "category": "benefits-and-legal", "source": "facdb", "is_coad_member": false }, "geometry": { "type": "Point", "coordinates": [ -73.825881, 40.713248 ] } },
{ "type": "Feature", "properties": { "resource_id": "facdb:8a0877e25996678921853e7444653927", "name": "Safe Horizon Inc", "category": "benefits-and-legal", "source": "facdb", "is_coad_member": false }, "geometry": { "type": "Point", "coordinates": [ -73.825481, 40.712723 ] } },
{ "type": "Feature", "properties": { "resource_id": "facdb:8c1c8c8a3c90e4998477606c5e4cbc62", "name": "Division 13/SQUAD 270", "category": "emergency-services", "source": "facdb", "is_coad_member": false }, "geometry": { "type": "Point", "coordinates": [ -73.825893, 40.695303 ] } },
{ "type": "Feature", "properties": { "resource_id": "facdb:8fa8a16c1303f2379eb3bb935b0bfe56", "name": "Jamaica Hospital Medical Center Cpep", "category": "mental-health-and-recovery", "source": "facdb", "is_coad_member": false }, "geometry": { "type": "Point", "coordinates": [ -73.816279, 40.7004 ] } },
{ "type": "Feature", "properties": { "resource_id": "facdb:919db3a9a54f18c0333e3f84a878ffc3", "name": "Sun River Health Care", "category": "health-care", "source": "facdb", "is_coad_member": false }, "geometry": { "type": "Point", "coordinates": [ -73.837326, 40.696427 ] } },
{ "type": "Feature", "properties": { "resource_id": "facdb:9282b0924770fcfaaecf212536e2e821", "name": "Ampere Playground", "category": "parks-and-environment", "source": "facdb", "is_coad_member": false }, "geometry": { "type": "Point", "coordinates": [ -73.856963, 40.682044 ] } },
{ "type": "Feature", "properties": { "resource_id": "facdb:92e610433c92b9da0660089722b9e2f6", "name": "Richmond Hill High School (27Q475)", "category": "children-and-youth", "source": "facdb", "is_coad_member": false }, "geometry": { "type": "Point", "coordinates": [ -73.833727, 40.694942 ] } },
{ "type": "Feature", "properties": { "resource_id": "facdb:93485e8580f3e08b302a057e0e52a160", "name": "Richmond Hill", "category": "libraries-and-community", "source": "facdb", "is_coad_member": false }, "geometry": { "type": "Point", "coordinates": [ -73.831626, 40.700775 ] } },
{ "type": "Feature", "properties": { "resource_id": "facdb:93856eb3a786c0e33a14a922e0ed33aa", "name": "The Greater Ridgewood Youth Council Inc", "category": "children-and-youth", "source": "facdb", "is_coad_member": false }, "geometry": { "type": "Point", "coordinates": [ -73.852845, 40.691463 ] } },
{ "type": "Feature", "properties": { "resource_id": "facdb:953f0743efd3bfea481ca397a1ef885b", "name": "NYPD 102nd Precinct", "category": "emergency-services", "source": "facdb", "is_coad_member": false }, "geometry": { "type": "Point", "coordinates": [ -73.831567, 40.698729 ] } },
{ "type": "Feature", "properties": { "resource_id": "facdb:960aedeafdcf2d27bf27d54eea777968", "name": "P.S. 273", "category": "children-and-youth", "source": "facdb", "is_coad_member": false }, "geometry": { "type": "Point", "coordinates": [ -73.844347, 40.693623 ] } },
{ "type": "Feature", "properties": { "resource_id": "facdb:9a64586aacce0cf07f277de347f611bf", "name": "Queens Act Team II", "category": "mental-health-and-recovery", "source": "facdb", "is_coad_member": false }, "geometry": { "type": "Point", "coordinates": [ -73.833571, 40.699978 ] } },
{ "type": "Feature", "properties": { "resource_id": "facdb:9a928973e183a2e1901337dc2cc543aa", "name": "Queens Borough Hall", "category": "government-offices", "source": "facdb", "is_coad_member": false }, "geometry": { "type": "Point", "coordinates": [ -73.827997, 40.714006 ] } },
{ "type": "Feature", "properties": { "resource_id": "facdb:9c05005975bf6fc16a849352ebd6fd2e", "name": "Queens Borough Hall", "category": "government-offices", "source": "facdb", "is_coad_member": false }, "geometry": { "type": "Point", "coordinates": [ -73.827997, 40.714006 ] } },
{ "type": "Feature", "properties": { "resource_id": "facdb:9f3e6fd1b3a608fb5e3e4c1a9a365f5a", "name": "Smh Care Management - Manhattan", "category": "mental-health-and-recovery", "source": "facdb", "is_coad_member": false }, "geometry": { "type": "Point", "coordinates": [ -73.83353, 40.70021 ] } },
{ "type": "Feature", "properties": { "resource_id": "facdb:a1928c64203a8b1ca17dbb1c71bb4861", "name": "Metro Triangle", "category": "parks-and-environment", "source": "facdb", "is_coad_member": false }, "geometry": { "type": "Point", "coordinates": [ -73.826243, 40.704406 ] } },
{ "type": "Feature", "properties": { "resource_id": "facdb:a1fb09c881612318af3116d0256bcc59", "name": "New York Medical and Diagnostic Center", "category": "health-care", "source": "facdb", "is_coad_member": false }, "geometry": { "type": "Point", "coordinates": [ -73.830177, 40.713112 ] } },
{ "type": "Feature", "properties": { "resource_id": "facdb:a2c29d5050c65402b1c45a7abf861f3d", "name": "NYC Parks-London Planetree", "category": "children-and-youth", "source": "facdb", "is_coad_member": false }, "geometry": { "type": "Point", "coordinates": [ -73.854034, 40.686763 ] } },
{ "type": "Feature", "properties": { "resource_id": "facdb:a4280817488fbc13715bde151dd41f32", "name": "Queens Borough Hall", "category": "government-offices", "source": "facdb", "is_coad_member": false }, "geometry": { "type": "Point", "coordinates": [ -73.827997, 40.714006 ] } },
{ "type": "Feature", "properties": { "resource_id": "facdb:a5832f740d53d8c18248ef5d0ad9cb82", "name": "Fed of Org - Hh Cm NYC", "category": "mental-health-and-recovery", "source": "facdb", "is_coad_member": false }, "geometry": { "type": "Point", "coordinates": [ -73.838003, 40.686812 ] } },
{ "type": "Feature", "properties": { "resource_id": "facdb:a5edf70ddae2f65710e567d0ef8508fb", "name": "Medwise Center", "category": "health-care", "source": "facdb", "is_coad_member": false }, "geometry": { "type": "Point", "coordinates": [ -73.850719, 40.68739 ] } },
{ "type": "Feature", "properties": { "resource_id": "facdb:a65048906d91f184ab879d7ba8b873b7", "name": "Samuel Field YM & YWHA Inc", "category": "children-and-youth", "source": "facdb", "is_coad_member": false }, "geometry": { "type": "Point", "coordinates": [ -73.833727, 40.694942 ] } },
{ "type": "Feature", "properties": { "resource_id": "facdb:a7262adf1d91f6c127b3378a5b98068c", "name": "Eight Oaks Triangle", "category": "parks-and-environment", "source": "facdb", "is_coad_member": false }, "geometry": { "type": "Point", "coordinates": [ -73.827129, 40.707234 ] } },
{ "type": "Feature", "properties": { "resource_id": "facdb:a7425243016b2392724cb5efcbe4af72", "name": "Queens Borough Hall", "category": "government-offices", "source": "facdb", "is_coad_member": false }, "geometry": { "type": "Point", "coordinates": [ -73.827997, 40.714006 ] } },
{ "type": "Feature", "properties": { "resource_id": "facdb:a7fdec500d768f915af4389ddfa5216d", "name": "Richmond Hill Mental Health Clinic", "category": "mental-health-and-recovery", "source": "facdb", "is_coad_member": false }, "geometry": { "type": "Point", "coordinates": [ -73.831994, 40.700261 ] } },
{ "type": "Feature", "properties": { "resource_id": "facdb:a89004cddd244b84cd0ec9911962d0b0", "name": "Ruoff Triangle", "category": "parks-and-environment", "source": "facdb", "is_coad_member": false }, "geometry": { "type": "Point", "coordinates": [ -73.852724, 40.682527 ] } },
{ "type": "Feature", "properties": { "resource_id": "facdb:ac1b82032d0b48dac5ea83ac8b996161", "name": "Latin American Cultural Center of Queens, Inc.", "category": "libraries-and-community", "source": "facdb", "is_coad_member": false }, "geometry": { "type": "Point", "coordinates": [ -73.828136, 40.71385 ] } },
{ "type": "Feature", "properties": { "resource_id": "facdb:b0eb7348c38837c205472d028d1d6c45", "name": "Smh Care Management - Queens", "category": "mental-health-and-recovery", "source": "facdb", "is_coad_member": false }, "geometry": { "type": "Point", "coordinates": [ -73.833571, 40.699978 ] } },
{ "type": "Feature", "properties": { "resource_id": "facdb:b3d1126d403e2f2fdbb64cc2a3584ce0", "name": "New York City Criminal Justice Agency", "category": "benefits-and-legal", "source": "facdb", "is_coad_member": false }, "geometry": { "type": "Point", "coordinates": [ -73.825481, 40.712723 ] } },
{ "type": "Feature", "properties": { "resource_id": "facdb:b49a931cd61d069be9365275b50fa37c", "name": "River Fund New York", "category": "children-and-youth", "source": "facdb", "is_coad_member": false }, "geometry": { "type": "Point", "coordinates": [ -73.829132, 40.696999 ] } },
{ "type": "Feature", "properties": { "resource_id": "facdb:b4f0430b1f2aff29c0deb2391ba80e4f", "name": "Queens Borough Hall", "category": "government-offices", "source": "facdb", "is_coad_member": false }, "geometry": { "type": "Point", "coordinates": [ -73.827997, 40.714006 ] } },
{ "type": "Feature", "properties": { "resource_id": "facdb:b609670b46a6cc709a2cf77e9ccee034", "name": "P.S. 55 Maure", "category": "children-and-youth", "source": "facdb", "is_coad_member": false }, "geometry": { "type": "Point", "coordinates": [ -73.816263, 40.693641 ] } },
{ "type": "Feature", "properties": { "resource_id": "facdb:b677ad0f94baa7145a7bb510f591ff74", "name": "Maurice a Fitzgerald Playground", "category": "parks-and-environment", "source": "facdb", "is_coad_member": false }, "geometry": { "type": "Point", "coordinates": [ -73.839753, 40.690319 ] } },
{ "type": "Feature", "properties": { "resource_id": "facdb:b67ee9281d44d5a1eef017dab07429c1", "name": "Acheinu", "category": "children-and-youth", "source": "facdb", "is_coad_member": false }, "geometry": { "type": "Point", "coordinates": [ -73.834157, 40.707642 ] } },
{ "type": "Feature", "properties": { "resource_id": "facdb:b76b781dafedf1cd0d3b240d619ad71e", "name": "Jamaica Hospital Sleep Center", "category": "health-care", "source": "facdb", "is_coad_member": false }, "geometry": { "type": "Point", "coordinates": [ -73.815895, 40.700286 ] } },
{ "type": "Feature", "properties": { "resource_id": "facdb:b798eb21ed68b694981712aa6bf41893", "name": "South Queens Boys & Girls Club, Inc.", "category": "children-and-youth", "source": "facdb", "is_coad_member": false }, "geometry": { "type": "Point", "coordinates": [ -73.835291, 40.691689 ] } },
{ "type": "Feature", "properties": { "resource_id": "facdb:b818e0565be5fb5aed39a70b711f2a05", "name": "JHS 210 Elizabeth Blackwell (27Q210)", "category": "children-and-youth", "source": "facdb", "is_coad_member": false }, "geometry": { "type": "Point", "coordinates": [ -73.847621, 40.684667 ] } },
{ "type": "Feature", "properties": { "resource_id": "facdb:bb50e341930ccb5904216b8c386d4a4f", "name": "Rajkumari Cultural Center", "category": "libraries-and-community", "source": "facdb", "is_coad_member": false }, "geometry": { "type": "Point", "coordinates": [ -73.836055, 40.704145 ] } },
{ "type": "Feature", "properties": { "resource_id": "facdb:bbcd12d2515861a41be46ee1c5d039be", "name": "Federation of Organizations Safeopt St", "category": "mental-health-and-recovery", "source": "facdb", "is_coad_member": false }, "geometry": { "type": "Point", "coordinates": [ -73.833571, 40.699978 ] } },
{ "type": "Feature", "properties": { "resource_id": "facdb:bbfa06ea983e11b07feb1375d398353b", "name": "Queens Criminal Court/Parking Lot", "category": "government-offices", "source": "facdb", "is_coad_member": false }, "geometry": { "type": "Point", "coordinates": [ -73.82578, 40.713498 ] } },
{ "type": "Feature", "properties": { "resource_id": "facdb:bf45fe295a05154ff207464d3b4b10f7", "name": "Richmond Hill Historic District", "category": "parks-and-environment", "source": "facdb", "is_coad_member": false }, "geometry": { "type": "Point", "coordinates": [ -73.836621, 40.702306 ] } },
{ "type": "Feature", "properties": { "resource_id": "facdb:c1557926bf91b384cc9de879bcb3003d", "name": "Queens Borough Hall", "category": "government-offices", "source": "facdb", "is_coad_member": false }, "geometry": { "type": "Point", "coordinates": [ -73.827997, 40.714006 ] } },
{ "type": "Feature", "properties": { "resource_id": "facdb:c187b21a7e181222a611c2e2c2c96436", "name": "Engine 293", "category": "emergency-services", "source": "facdb", "is_coad_member": false }, "geometry": { "type": "Point", "coordinates": [ -73.856034, 40.688577 ] } },
{ "type": "Feature", "properties": { "resource_id": "facdb:c5094b5866bb2dd2224b903a7e235784", "name": "Cftss Cpst NYC", "category": "mental-health-and-recovery", "source": "facdb", "is_coad_member": false }, "geometry": { "type": "Point", "coordinates": [ -73.83353, 40.70021 ] } },
{ "type": "Feature", "properties": { "resource_id": "facdb:c5530290837de6d7fa8d2fada29bfefe", "name": "Maple Grove Park", "category": "parks-and-environment", "source": "facdb", "is_coad_member": false }, "geometry": { "type": "Point", "coordinates": [ -73.824166, 40.711949 ] } },
{ "type": "Feature", "properties": { "resource_id": "facdb:c572f30eb285b8bc108363ad8576e4f3", "name": "Boys and Girls Club of Metro Queens", "category": "children-and-youth", "source": "facdb", "is_coad_member": false }, "geometry": { "type": "Point", "coordinates": [ -73.835291, 40.691689 ] } },
{ "type": "Feature", "properties": { "resource_id": "facdb:c5c8f482194a3c0b27a4c93183ea26ab", "name": "Engine 294/LADDER 143", "category": "emergency-services", "source": "facdb", "is_coad_member": false }, "geometry": { "type": "Point", "coordinates": [ -73.84624, 40.694837 ] } },
{ "type": "Feature", "properties": { "resource_id": "facdb:c6fb4142048879cd9d469aa7577fcec3", "name": "Heartshare Human Services of New York", "category": "health-care", "source": "facdb", "is_coad_member": false }, "geometry": { "type": "Point", "coordinates": [ -73.828902, 40.689372 ] } },
{ "type": "Feature", "properties": { "resource_id": "facdb:c753efc0a6c2a7c3299130fff357e3cb", "name": "Center for the Women of New York", "category": "children-and-youth", "source": "facdb", "is_coad_member": false }, "geometry": { "type": "Point", "coordinates": [ -73.825481, 40.712723 ] } },
{ "type": "Feature", "properties": { "resource_id": "facdb:c96760e5f635db0e03b8a9f353dc541a", "name": "Kent Manor", "category": "parks-and-environment", "source": "facdb", "is_coad_member": false }, "geometry": { "type": "Point", "coordinates": [ -73.837313, 40.708924 ] } },
{ "type": "Feature", "properties": { "resource_id": "facdb:c98396d2b2ff3d61c2e43ceba4a91e6b", "name": "Bunche, Ralph, House", "category": "parks-and-environment", "source": "facdb", "is_coad_member": false }, "geometry": { "type": "Point", "coordinates": [ -73.836992, 40.706439 ] } },
{ "type": "Feature", "properties": { "resource_id": "facdb:cadc5b45bd0a34ccc7a9e4f689b8491e", "name": "Woodhaven District Management Association Inc", "category": "children-and-youth", "source": "facdb", "is_coad_member": false }, "geometry": { "type": "Point", "coordinates": [ -73.855343, 40.692966 ] } },
{ "type": "Feature", "properties": { "resource_id": "facdb:caecd155487598e667dc9edaafc35432", "name": "Qi Shu Fang Peking Opera Association", "category": "libraries-and-community", "source": "facdb", "is_coad_member": false }, "geometry": { "type": "Point", "coordinates": [ -73.860308, 40.6897 ] } },
{ "type": "Feature", "properties": { "resource_id": "facdb:cc65aaae2d0d6caa611117f5b31f6d98", "name": "Richmond Hill Clinic", "category": "health-care", "source": "facdb", "is_coad_member": false }, "geometry": { "type": "Point", "coordinates": [ -73.820229, 40.699554 ] } },
{ "type": "Feature", "properties": { "resource_id": "facdb:cc6be438d0a092c3966b99b27fae7ba9", "name": "Queens Borough Hall", "category": "emergency-services", "source": "facdb", "is_coad_member": false }, "geometry": { "type": "Point", "coordinates": [ -73.827997, 40.714006 ] } },
{ "type": "Feature", "properties": { "resource_id": "facdb:ccbd844fbbc2cb051878e0d7be80d6c0", "name": "Queens Library-Richmond Hill", "category": "children-and-youth", "source": "facdb", "is_coad_member": false }, "geometry": { "type": "Point", "coordinates": [ -73.831626, 40.700775 ] } },
{ "type": "Feature", "properties": { "resource_id": "facdb:d161d3cf7c82860fbfc437b43d124c14", "name": "Queens Borough Hall", "category": "government-offices", "source": "facdb", "is_coad_member": false }, "geometry": { "type": "Point", "coordinates": [ -73.827997, 40.714006 ] } },
{ "type": "Feature", "properties": { "resource_id": "facdb:d24f233286f3c0fd06c502f0cccdd473", "name": "Public School 66", "category": "parks-and-environment", "source": "facdb", "is_coad_member": false }, "geometry": { "type": "Point", "coordinates": [ -73.846138, 40.697949 ] } },
{ "type": "Feature", "properties": { "resource_id": "facdb:d74688cfd0dd064055a59cbec3791e6c", "name": "Richmond Hill SDA Community : Richmond Hill SDA Community", "category": "food-assistance", "source": "facdb", "is_coad_member": false }, "geometry": { "type": "Point", "coordinates": [ -73.834383, 40.698242 ] } },
{ "type": "Feature", "properties": { "resource_id": "facdb:d95f776c4e0ff3948f188ae1da9165de", "name": "Epic High School - North (27Q334)", "category": "children-and-youth", "source": "facdb", "is_coad_member": false }, "geometry": { "type": "Point", "coordinates": [ -73.829094, 40.692883 ] } },
{ "type": "Feature", "properties": { "resource_id": "facdb:dd4168b3f56cf55a2ae1ecd6c317b7fa", "name": "Rko Keith's Theatre", "category": "parks-and-environment", "source": "facdb", "is_coad_member": false }, "geometry": { "type": "Point", "coordinates": [ -73.833189, 40.700629 ] } },
{ "type": "Feature", "properties": { "resource_id": "facdb:ded59ee44a5ad6a8d3a7ec8281f3adad", "name": "NYC Parks-Cunningham Park Day Camp", "category": "children-and-youth", "source": "facdb", "is_coad_member": false }, "geometry": { "type": "Point", "coordinates": [ -73.835497, 40.710778 ] } },
{ "type": "Feature", "properties": { "resource_id": "facdb:df04094cfff6457dd2b5b8aa043e2214", "name": "Jamaica Hospital Nursing Home Co Inc", "category": "health-care", "source": "facdb", "is_coad_member": false }, "geometry": { "type": "Point", "coordinates": [ -73.816954, 40.699997 ] } },
{ "type": "Feature", "properties": { "resource_id": "facdb:e119ae5304cda3676adb1644b0ef337b", "name": "Project Lead Inc.", "category": "older-adults", "source": "facdb", "is_coad_member": false }, "geometry": { "type": "Point", "coordinates": [ -73.825622, 40.703984 ] } },
{ "type": "Feature", "properties": { "resource_id": "facdb:e3789b47d34400a370b6923d031e9cb0", "name": "Queens Economic Development Corporation", "category": "children-and-youth", "source": "facdb", "is_coad_member": false }, "geometry": { "type": "Point", "coordinates": [ -73.828136, 40.71385 ] } },
{ "type": "Feature", "properties": { "resource_id": "facdb:e55ab7adebe076ac11e85a9debc4aaed", "name": "Sacred Music Chorale of Richmond Hill", "category": "libraries-and-community", "source": "facdb", "is_coad_member": false }, "geometry": { "type": "Point", "coordinates": [ -73.83546, 40.698733 ] } },
{ "type": "Feature", "properties": { "resource_id": "facdb:e59ed68ec5b72bdc6e81ebf3ab30f864", "name": "Cityline Ozone Park Civilian Patrol : the Ozone Park Pantry", "category": "food-assistance", "source": "facdb", "is_coad_member": false }, "geometry": { "type": "Point", "coordinates": [ -73.857208, 40.683581 ] } },
{ "type": "Feature", "properties": { "resource_id": "facdb:e6d0cea85526baf2bf20eab25e96519f", "name": "The River Fund New York : the River Fund New York  Mobile Outreach", "category": "food-assistance", "source": "facdb", "is_coad_member": false }, "geometry": { "type": "Point", "coordinates": [ -73.829132, 40.696999 ] } },
{ "type": "Feature", "properties": { "resource_id": "facdb:e748b214f2e914d3931532be482677d0", "name": "Catholic Charities Neighborhood Services Inc", "category": "older-adults", "source": "facdb", "is_coad_member": false }, "geometry": { "type": "Point", "coordinates": [ -73.839485, 40.685696 ] } },
{ "type": "Feature", "properties": { "resource_id": "facdb:e7fee4c5c98084dde67818f5db63956d", "name": "St. Thomas the Apostle Catholic Academy", "category": "children-and-youth", "source": "facdb", "is_coad_member": false }, "geometry": { "type": "Point", "coordinates": [ -73.856386, 40.691266 ] } },
{ "type": "Feature", "properties": { "resource_id": "facdb:e826164f9e136b4eca3a027f0aed272c", "name": "Cftss Psychosoc. Rehab Psr NYC", "category": "mental-health-and-recovery", "source": "facdb", "is_coad_member": false }, "geometry": { "type": "Point", "coordinates": [ -73.83353, 40.70021 ] } },
{ "type": "Feature", "properties": { "resource_id": "facdb:e9d5f9807b09c6b6d6df9d4c73f57ad4", "name": "Sacred Music Chorale of Richmond Hill Inc", "category": "children-and-youth", "source": "facdb", "is_coad_member": false }, "geometry": { "type": "Point", "coordinates": [ -73.83546, 40.698733 ] } },
{ "type": "Feature", "properties": { "resource_id": "facdb:eb26a040daf9b882557c71e875e9e002", "name": "SCHOOL.DISTRICT.27.OFFICES", "category": "government-offices", "source": "facdb", "is_coad_member": false }, "geometry": { "type": "Point", "coordinates": [ -73.85818, 40.684508 ] } },
{ "type": "Feature", "properties": { "resource_id": "facdb:eda20024a218c2a4943f1242ef4ccec2", "name": "Eac Smh Cma Queens", "category": "mental-health-and-recovery", "source": "facdb", "is_coad_member": false }, "geometry": { "type": "Point", "coordinates": [ -73.829219, 40.713216 ] } },
{ "type": "Feature", "properties": { "resource_id": "facdb:edfefbdcba251c4be44f8182e33d4eba", "name": "Woodhaven Family Wellbeing Center", "category": "mental-health-and-recovery", "source": "facdb", "is_coad_member": false }, "geometry": { "type": "Point", "coordinates": [ -73.863731, 40.692129 ] } },
{ "type": "Feature", "properties": { "resource_id": "facdb:ee251ed38b1f90f02c067a062a9c020a", "name": "Wyckoff-Snediker Family Cemetery", "category": "parks-and-environment", "source": "facdb", "is_coad_member": false }, "geometry": { "type": "Point", "coordinates": [ -73.848904, 40.696228 ] } },
{ "type": "Feature", "properties": { "resource_id": "facdb:ee58ed9095938d3eaedd8ef1936f0f31", "name": "Queens Court Academy (Restart)", "category": "children-and-youth", "source": "facdb", "is_coad_member": false }, "geometry": { "type": "Point", "coordinates": [ -73.841505, 40.69625 ] } },
{ "type": "Feature", "properties": { "resource_id": "facdb:eee3f281717a8ff9d9c318c5f7bc3d0a", "name": "Northside School 91st St", "category": "children-and-youth", "source": "facdb", "is_coad_member": false }, "geometry": { "type": "Point", "coordinates": [ -73.854178, 40.6958 ] } },
{ "type": "Feature", "properties": { "resource_id": "facdb:efec090b83ca1e339bb431dc4d8e0283", "name": "Boys & Girls Club of Metro Queens, Inc", "category": "children-and-youth", "source": "facdb", "is_coad_member": false }, "geometry": { "type": "Point", "coordinates": [ -73.835291, 40.691689 ] } },
{ "type": "Feature", "properties": { "resource_id": "facdb:f303ccbe94a94e8028a2e8507e19f67c", "name": "Queens Economic Development Corporation", "category": "children-and-youth", "source": "facdb", "is_coad_member": false }, "geometry": { "type": "Point", "coordinates": [ -73.828136, 40.71385 ] } },
{ "type": "Feature", "properties": { "resource_id": "facdb:f3120a5e0e27512ba95c3a4c5b7f12bb", "name": "Jackson Pond Playground", "category": "children-and-youth", "source": "facdb", "is_coad_member": false }, "geometry": { "type": "Point", "coordinates": [ -73.85938, 40.69397 ] } },
{ "type": "Feature", "properties": { "resource_id": "facdb:f43e3d94018a05d26b6c87c24aa47b9a", "name": "London Planetree Playground", "category": "parks-and-environment", "source": "facdb", "is_coad_member": false }, "geometry": { "type": "Point", "coordinates": [ -73.853136, 40.685916 ] } },
{ "type": "Feature", "properties": { "resource_id": "facdb:f6eea74bdf074a5fe0370f4504768223", "name": "Queens Explorers Elementary School", "category": "children-and-youth", "source": "facdb", "is_coad_member": false }, "geometry": { "type": "Point", "coordinates": [ -73.849979, 40.683371 ] } },
{ "type": "Feature", "properties": { "resource_id": "facdb:fb0198334605cfd0ab2bbe5ce31cf6f0", "name": "Act Program", "category": "mental-health-and-recovery", "source": "facdb", "is_coad_member": false }, "geometry": { "type": "Point", "coordinates": [ -73.833571, 40.699978 ] } },
{ "type": "Feature", "properties": { "resource_id": "facdb:fc3483acc8a81000c237d677d546e1c5", "name": "Sanctuary for Families Inc", "category": "benefits-and-legal", "source": "facdb", "is_coad_member": false }, "geometry": { "type": "Point", "coordinates": [ -73.825881, 40.713248 ] } },
{ "type": "Feature", "properties": { "resource_id": "facdb:fd4648429007a0a9d890a2475e72214b", "name": "Geriatric Demo Gatekeeper", "category": "mental-health-and-recovery", "source": "facdb", "is_coad_member": false }, "geometry": { "type": "Point", "coordinates": [ -73.816279, 40.7004 ] } },
{ "type": "Feature", "properties": { "resource_id": "facdb:fd66f7411f577e44e43571bdd93e8294", "name": "The Crenulated Company Ltd", "category": "children-and-youth", "source": "facdb", "is_coad_member": false }, "geometry": { "type": "Point", "coordinates": [ -73.847621, 40.684667 ] } },
{ "type": "Feature", "properties": { "resource_id": "facdb:ff32acb321f7c9c041df12df1e243e45", "name": "Phil \"Scooter\" Rizzuto Park", "category": "parks-and-environment", "source": "facdb", "is_coad_member": false }, "geometry": { "type": "Point", "coordinates": [ -73.821523, 40.694672 ] } },
{ "type": "Feature", "properties": { "resource_id": "qnpd:alphapointe", "name": "Alphapointe", "category": "education-and-jobs", "source": "qnpd", "is_coad_member": false }, "geometry": { "type": "Point", "coordinates": [ -73.826964, 40.699112 ] } },
{ "type": "Feature", "properties": { "resource_id": "qnpd:center-for-the-women-of-new-york--1", "name": "Center for the Women of New York", "category": "benefits-and-legal", "source": "qnpd", "is_coad_member": false }, "geometry": { "type": "Point", "coordinates": [ -73.828104, 40.713783 ] } },
{ "type": "Feature", "properties": { "resource_id": "qnpd:center-for-the-women-of-new-york--2", "name": "Center for the Women of New York", "category": "education-and-jobs", "source": "qnpd", "is_coad_member": false }, "geometry": { "type": "Point", "coordinates": [ -73.828104, 40.713783 ] } },
{ "type": "Feature", "properties": { "resource_id": "qnpd:center-for-the-women-of-new-york--3", "name": "Center for the Women of New York", "category": "benefits-and-legal", "source": "qnpd", "is_coad_member": false }, "geometry": { "type": "Point", "coordinates": [ -73.828104, 40.713783 ] } },
{ "type": "Feature", "properties": { "resource_id": "qnpd:cidny-ny-connects", "name": "CIDNY NY Connects", "category": "benefits-and-legal", "source": "qnpd", "is_coad_member": false }, "geometry": { "type": "Point", "coordinates": [ -73.831369, 40.713569 ] } },
{ "type": "Feature", "properties": { "resource_id": "qnpd:friends-of-maple-grove-cemetery-inc", "name": "Friends of Maple Grove Cemetery inc .", "category": "libraries-and-community", "source": "qnpd", "is_coad_member": false }, "geometry": { "type": "Point", "coordinates": [ -73.824149, 40.707222 ] } },
{ "type": "Feature", "properties": { "resource_id": "qnpd:latin-american-intercultural-alliance", "name": "Latin American Intercultural Alliance", "category": "libraries-and-community", "source": "qnpd", "is_coad_member": false }, "geometry": { "type": "Point", "coordinates": [ -73.838819, 40.697601 ] } },
{ "type": "Feature", "properties": { "resource_id": "qnpd:outreach-development-corporation-outreach", "name": "Outreach Development Corporation (Outreach)", "category": "mental-health-and-recovery", "source": "qnpd", "is_coad_member": false }, "geometry": { "type": "Point", "coordinates": [ -73.831966, 40.70028 ] } },
{ "type": "Feature", "properties": { "resource_id": "qnpd:richmond-hill-historical-society", "name": "Richmond Hill Historical Society", "category": "education-and-jobs", "source": "qnpd", "is_coad_member": false }, "geometry": { "type": "Point", "coordinates": [ -73.838638, 40.702575 ] } },
{ "type": "Feature", "properties": { "resource_id": "qnpd:school-sisters-of-notre-dame-educational-center--1", "name": "School Sisters of Notre Dame Educational Center", "category": "education-and-jobs", "source": "qnpd", "is_coad_member": false }, "geometry": { "type": "Point", "coordinates": [ -73.856384, 40.690952 ] } },
{ "type": "Feature", "properties": { "resource_id": "qnpd:school-sisters-of-notre-dame-educational-center--2", "name": "School Sisters of Notre Dame Educational Center", "category": "immigration-and-language", "source": "qnpd", "is_coad_member": false }, "geometry": { "type": "Point", "coordinates": [ -73.856384, 40.690952 ] } },
{ "type": "Feature", "properties": { "resource_id": "qnpd:we-fight-cancer-together-inc", "name": "We Fight Cancer Together Inc", "category": "benefits-and-legal", "source": "qnpd", "is_coad_member": false }, "geometry": { "type": "Point", "coordinates": [ -73.828427, 40.710407 ] } }
]
}
