{
"type": "FeatureCollection",
"name": "q10",
"features": [
{ "type": "Feature", "properties": { "resource_id": "facdb:01fe9e96f0d4f30f6646e38852f215c8", "name": "Safe Space Preventive", "category": "children-and-youth", "source": "facdb", "is_coad_member": false }, "geometry": { "type": "Point", "coordinates": [ -73.827316, 40.686014 ] } },
{ "type": "Feature", "properties": { "resource_id": "facdb:0272db2a815f38d52de5a70bb9181fca", "name": "Howard Beach", "category": "libraries-and-community", "source": "facdb", "is_coad_member": false }, "geometry": { "type": "Point", "coordinates": [ -73.841801, 40.663813 ] } },
{ "type": "Feature", "properties": { "resource_id": "facdb:0525ef6f0f90e55c55b8524d12a673fc", "name": "JHS 226 Virgil I. Grissom (27Q226)", "category": "children-and-youth", "source": "facdb", "is_coad_member": false }, "geometry": { "type": "Point", "coordinates": [ -73.816743, 40.67518 ] } },
{ "type": "Feature", "properties": { "resource_id": "facdb:0956191763d4dbe99fa2d347f5edc7b1", "name": "Humbleway Church", "category": "children-and-youth", "source": "facdb", "is_coad_member": false }, "geometry": { "type": "Point", "coordinates": [ -73.804893, 40.675512 ] } },
{ "type": "Feature", "properties": { "resource_id": "facdb:09d0c1c2dbb6797e72cddd5e2296eea3", "name": "St Anthony of Padua", "category": "children-and-youth", "source": "facdb", "is_coad_member": false }, "geometry": { "type": "Point", "coordinates": [ -73.814247, 40.668902 ] } },
{ "type": "Feature", "properties": { "resource_id": "facdb:0ae6be372cc3bd98d393c0b27468ce8b", "name": "New Horizon Ccbhc", "category": "mental-health-and-recovery", "source": "facdb", "is_coad_member": false }, "geometry": { "type": "Point", "coordinates": [ -73.830313, 40.678175 ] } },
{ "type": "Feature", "properties": { "resource_id": "facdb:0e52baa9fe8ceffa1ead62ac9db6510c", "name": "Locust Grove Civic Triangle", "category": "parks-and-environment", "source": "facdb", "is_coad_member": false }, "geometry": { "type": "Point", "coordinates": [ -73.823187, 40.666301 ] } },
{ "type": "Feature", "properties": { "resource_id": "facdb:1376145d8a2c04450e3df35114255815", "name": "South Asian Youth Action Saya Inc", "category": "children-and-youth", "source": "facdb", "is_coad_member": false }, "geometry": { "type": "Point", "coordinates": [ -73.811358, 40.66544 ] } },
{ "type": "Feature", "properties": { "resource_id": "facdb:16960c9c4e866a1f5b4d45acdd766261", "name": "Leviticus Church : Leviticus Church", "category": "food-assistance", "source": "facdb", "is_coad_member": false }, "geometry": { "type": "Point", "coordinates": [ -73.806277, 40.682335 ] } },
{ "type": "Feature", "properties": { "resource_id": "facdb:16ff673207c4150777ce56995c3529a3", "name": "Offices", "category": "government-offices", "source": "facdb", "is_coad_member": false }, "geometry": { "type": "Point", "coordinates": [ -73.819253, 40.676908 ] } },
{ "type": "Feature", "properties": { "resource_id": "facdb:1745a2a3aa1dcb92bfa48efcf11a5eb7", "name": "NY Softball Inc", "category": "children-and-youth", "source": "facdb", "is_coad_member": false }, "geometry": { "type": "Point", "coordinates": [ -73.854334, 40.663697 ] } },
{ "type": "Feature", "properties": { "resource_id": "facdb:176dcbc480642cd857568ed86e417d00", "name": "Medisys Howard Beach Women&Children Care", "category": "health-care", "source": "facdb", "is_coad_member": false }, "geometry": { "type": "Point", "coordinates": [ -73.841353, 40.6635 ] } },
{ "type": "Feature", "properties": { "resource_id": "facdb:17ecc6caef5fed5aadd9600cf1e0836c", "name": "The Noel Pointer Foundation Inc.", "category": "children-and-youth", "source": "facdb", "is_coad_member": false }, "geometry": { "type": "Point", "coordinates": [ -73.811358, 40.66544 ] } },
{ "type": "Feature", "properties": { "resource_id": "facdb:1854d8bce213a3b100b6a0895040c967", "name": "Sergeant Colyer Square", "category": "parks-and-environment", "source": "facdb", "is_coad_member": false }, "geometry": { "type": "Point", "coordinates": [ -73.805657, 40.6749 ] } },
{ "type": "Feature", "properties": { "resource_id": "facdb:19fa54a4728ead675ca8c4a3fbd8dc1c", "name": "Brooklyn Institute of Vocational Tra", "category": "education-and-jobs", "source": "facdb", "is_coad_member": false }, "geometry": { "type": "Point", "coordinates": [ -73.831746, 40.684719 ] } },
{ "type": "Feature", "properties": { "resource_id": "facdb:1b8a9d93a500cd8df126ea09d592c04a", "name": "St Johns/Richmond Hill", "category": "children-and-youth", "source": "facdb", "is_coad_member": false }, "geometry": { "type": "Point", "coordinates": [ -73.813368, 40.68694 ] } },
{ "type": "Feature", "properties": { "resource_id": "facdb:1f06650e16439e5496f37de31a989fa5", "name": "JHS 226 Virgil I. Grissom (27Q226)", "category": "benefits-and-legal", "source": "facdb", "is_coad_member": false }, "geometry": { "type": "Point", "coordinates": [ -73.816743, 40.67518 ] } },
{ "type": "Feature", "properties": { "resource_id": "facdb:211ba85262f9a5af5be93c6dd2f910d9", "name": "Sunnyside District Management Association", "category": "libraries-and-community", "source": "facdb", "is_coad_member": false }, "geometry": { "type": "Point", "coordinates": [ -73.807107, 40.683928 ] } },
{ "type": "Feature", "properties": { "resource_id": "facdb:21c70e7c1e83d15b6ee0aad729c95014", "name": "PS 124 Osmond a Church", "category": "children-and-youth", "source": "facdb", "is_coad_member": false }, "geometry": { "type": "Point", "coordinates": [ -73.811358, 40.66544 ] } },
{ "type": "Feature", "properties": { "resource_id": "facdb:222fe004e41baf9ce17ef4164633f423", "name": "St Luke's United Presbyterian Church", "category": "children-and-youth", "source": "facdb", "is_coad_member": false }, "geometry": { "type": "Point", "coordinates": [ -73.818823, 40.680852 ] } },
{ "type": "Feature", "properties": { "resource_id": "facdb:23c07c4fe74cdea24f644f297ba0ce54", "name": "South Asian Youth Action Saya Inc", "category": "children-and-youth", "source": "facdb", "is_coad_member": false }, "geometry": { "type": "Point", "coordinates": [ -73.845719, 40.671014 ] } },
{ "type": "Feature", "properties": { "resource_id": "facdb:28eb55554bda35f8303e079037d26822", "name": "Holy Ghost Revival", "category": "children-and-youth", "source": "facdb", "is_coad_member": false }, "geometry": { "type": "Point", "coordinates": [ -73.815994, 40.689686 ] } },
{ "type": "Feature", "properties": { "resource_id": "facdb:2d49bfae4a0bc59eb6d329d932f7b2e2", "name": "Engine 285/LADDER 142", "category": "emergency-services", "source": "facdb", "is_coad_member": false }, "geometry": { "type": "Point", "coordinates": [ -73.841909, 40.682682 ] } },
{ "type": "Feature", "properties": { "resource_id": "facdb:2e07f7f36d1521acf97430a74d21c184", "name": "Ozone Park Library", "category": "children-and-youth", "source": "facdb", "is_coad_member": false }, "geometry": { "type": "Point", "coordinates": [ -73.846488, 40.680867 ] } },
{ "type": "Feature", "properties": { "resource_id": "facdb:2f2138aa7f197796a11b0ba8b81f6bd8", "name": "Queens Library-Howard Beach", "category": "children-and-youth", "source": "facdb", "is_coad_member": false }, "geometry": { "type": "Point", "coordinates": [ -73.841801, 40.663813 ] } },
{ "type": "Feature", "properties": { "resource_id": "facdb:30d10ef799cb8a2172285f164b07bd0c", "name": "Bergen Basin Community Development Corporation", "category": "children-and-youth", "source": "facdb", "is_coad_member": false }, "geometry": { "type": "Point", "coordinates": [ -73.839615, 40.678325 ] } },
{ "type": "Feature", "properties": { "resource_id": "facdb:318a83f96437f27e1408c81f6b376c4a", "name": "Play Study Win Inc.", "category": "children-and-youth", "source": "facdb", "is_coad_member": false }, "geometry": { "type": "Point", "coordinates": [ -73.808149, 40.674719 ] } },
{ "type": "Feature", "properties": { "resource_id": "facdb:333757d91ec33a49efd604fe304c93a9", "name": "Po Edward Byrne Park", "category": "children-and-youth", "source": "facdb", "is_coad_member": false }, "geometry": { "type": "Point", "coordinates": [ -73.807143, 40.667361 ] } },
{ "type": "Feature", "properties": { "resource_id": "facdb:3401bddfe5a2b3b05ee42dcf10fe505a", "name": "Battalion 51/ENGINE 308", "category": "emergency-services", "source": "facdb", "is_coad_member": false }, "geometry": { "type": "Point", "coordinates": [ -73.823351, 40.683911 ] } },
{ "type": "Feature", "properties": { "resource_id": "facdb:352beecac6d0935bfd090c66f38f74e3", "name": "PS 232 Lindenwood (27Q232)", "category": "children-and-youth", "source": "facdb", "is_coad_member": false }, "geometry": { "type": "Point", "coordinates": [ -73.85076, 40.665697 ] } },
{ "type": "Feature", "properties": { "resource_id": "facdb:367865f8cc090285cc91ab77c681efdb", "name": "Christina Home Care Food Pantry : Christina Home Care Food Pantry", "category": "food-assistance", "source": "facdb", "is_coad_member": false }, "geometry": { "type": "Point", "coordinates": [ -73.822569, 40.68712 ] } },
{ "type": "Feature", "properties": { "resource_id": "facdb:37f79655a66551260868ad6083e793da", "name": "Al Stabile Playground", "category": "parks-and-environment", "source": "facdb", "is_coad_member": false }, "geometry": { "type": "Point", "coordinates": [ -73.835539, 40.677277 ] } },
{ "type": "Feature", "properties": { "resource_id": "facdb:3b371518b4028c5afca278622c9da540", "name": "Harold Schneiderman Playground", "category": "parks-and-environment", "source": "facdb", "is_coad_member": false }, "geometry": { "type": "Point", "coordinates": [ -73.850427, 40.665003 ] } },
{ "type": "Feature", "properties": { "resource_id": "facdb:3e4eec1e91f8cfe8d400076582b2c2a0", "name": "Bag Ozone Howard Little League", "category": "children-and-youth", "source": "facdb", "is_coad_member": false }, "geometry": { "type": "Point", "coordinates": [ -73.837077, 40.672334 ] } },
{ "type": "Feature", "properties": { "resource_id": "facdb:3e55ef2073a8134e2575089944ce9422", "name": "Judge Angelo Graci Triangle", "category": "parks-and-environment", "source": "facdb", "is_coad_member": false }, "geometry": { "type": "Point", "coordinates": [ -73.858656, 40.674461 ] } },
{ "type": "Feature", "properties": { "resource_id": "facdb:40687c1ca8506364c4a4687347b1e333", "name": "David J O'Connell Square", "category": "parks-and-environment", "source": "facdb", "is_coad_member": false }, "geometry": { "type": "Point", "coordinates": [ -73.820604, 40.676567 ] } },
{ "type": "Feature", "properties": { "resource_id": "facdb:42699b26ea9e369a8a2edbffba9fd960", "name": "MS 137 America's School of Heroes (27Q137)", "category": "benefits-and-legal", "source": "facdb", "is_coad_member": false }, "geometry": { "type": "Point", "coordinates": [ -73.839615, 40.678325 ] } },
{ "type": "Feature", "properties": { "resource_id": "facdb:45bc33eee6d94a2c21010d3716e86c85", "name": "Queens Library-South Ozone", "category": "children-and-youth", "source": "facdb", "is_coad_member": false }, "geometry": { "type": "Point", "coordinates": [ -73.809264, 40.674784 ] } },
{ "type": "Feature", "properties": { "resource_id": "facdb:48e4bd0a886344ff1e2486a75cda1b4c", "name": "United Federation of Hindu", "category": "children-and-youth", "source": "facdb", "is_coad_member": false }, "geometry": { "type": "Point", "coordinates": [ -73.814407, 40.690616 ] } },
{ "type": "Feature", "properties": { "resource_id": "facdb:4b26c8f38932e5a4dd5f91cfbafe85bd", "name": "PS 155", "category": "health-care", "source": "facdb", "is_coad_member": false }, "geometry": { "type": "Point", "coordinates": [ -73.810182, 40.679293 ] } },
{ "type": "Feature", "properties": { "resource_id": "facdb:4bef5c49ef20dd12ece8b76b00aeb9f1", "name": "Bobbi and the Strays, Inc.", "category": "children-and-youth", "source": "facdb", "is_coad_member": false }, "geometry": { "type": "Point", "coordinates": [ -73.838471, 40.678338 ] } },
{ "type": "Feature", "properties": { "resource_id": "facdb:4c347a1ffb3a09e9c2697c96e331aaa8", "name": "JHS 137", "category": "children-and-youth", "source": "facdb", "is_coad_member": false }, "geometry": { "type": "Point", "coordinates": [ -73.840028, 40.678407 ] } },
{ "type": "Feature", "properties": { "resource_id": "facdb:4f3930603f1fa26063d60b45e1840760", "name": "Tudor Malls", "category": "parks-and-environment", "source": "facdb", "is_coad_member": false }, "geometry": { "type": "Point", "coordinates": [ -73.852206, 40.674032 ] } },
{ "type": "Feature", "properties": { "resource_id": "facdb:52efad1ea64a98120eecc1d013d63832", "name": "South Ozone Park", "category": "libraries-and-community", "source": "facdb", "is_coad_member": false }, "geometry": { "type": "Point", "coordinates": [ -73.809264, 40.674784 ] } },
{ "type": "Feature", "properties": { "resource_id": "facdb:53f1d71aafefbf8b1a27394bcad406d8", "name": "Giving Alternative Learners Uplifting Opportunities Inc", "category": "health-care", "source": "facdb", "is_coad_member": false }, "geometry": { "type": "Point", "coordinates": [ -73.850525, 40.670416 ] } },
{ "type": "Feature", "properties": { "resource_id": "facdb:557db20e67edc467424f084b45154da7", "name": "The Greater Ridgewood Youth Council Inc", "category": "children-and-youth", "source": "facdb", "is_coad_member": false }, "geometry": { "type": "Point", "coordinates": [ -73.816743, 40.67518 ] } },
{ "type": "Feature", "properties": { "resource_id": "facdb:56ad5854113925a34d72142e150a07c5", "name": "Frederick B Judge Playground", "category": "children-and-youth", "source": "facdb", "is_coad_member": false }, "geometry": { "type": "Point", "coordinates": [ -73.81454, 40.674345 ] } },
{ "type": "Feature", "properties": { "resource_id": "facdb:56f6ff159d3a45fb50b807c5d36322de", "name": "Southern Fields", "category": "parks-and-environment", "source": "facdb", "is_coad_member": false }, "geometry": { "type": "Point", "coordinates": [ -73.826209, 40.66569 ] } },
{ "type": "Feature", "properties": { "resource_id": "facdb:5711f08139ce0d236b2b8e39dae83f52", "name": "Park", "category": "parks-and-environment", "source": "facdb", "is_coad_member": false }, "geometry": { "type": "Point", "coordinates": [ -73.840222, 40.665397 ] } },
{ "type": "Feature", "properties": { "resource_id": "facdb:57d00c011a2460c242e99ffc8b32f172", "name": "John Adams High School (27Q480)", "category": "children-and-youth", "source": "facdb", "is_coad_member": false }, "geometry": { "type": "Point", "coordinates": [ -73.83692, 40.678691 ] } },
{ "type": "Feature", "properties": { "resource_id": "facdb:589a758966ec067a9766dc2eab19f27c", "name": "September 11 Family Group", "category": "children-and-youth", "source": "facdb", "is_coad_member": false }, "geometry": { "type": "Point", "coordinates": [ -73.847263, 40.666797 ] } },
{ "type": "Feature", "properties": { "resource_id": "facdb:5a15c806944af3ea704914d46ab54c2b", "name": "New York Edge Inc", "category": "children-and-youth", "source": "facdb", "is_coad_member": false }, "geometry": { "type": "Point", "coordinates": [ -73.808132, 40.67534 ] } },
{ "type": "Feature", "properties": { "resource_id": "facdb:5e113ef46616f8c9b4c10d40203152eb", "name": "Queens Library Lefferts", "category": "children-and-youth", "source": "facdb", "is_coad_member": false }, "geometry": { "type": "Point", "coordinates": [ -73.824841, 40.68691 ] } },
{ "type": "Feature", "properties": { "resource_id": "facdb:5ef3fcb58498799a7901e2722f06f5c1", "name": "Spring Creek Park Addition", "category": "parks-and-environment", "source": "facdb", "is_coad_member": false }, "geometry": { "type": "Point", "coordinates": [ -73.859266, 40.658565 ] } },
{ "type": "Feature", "properties": { "resource_id": "facdb:6075fc05e28e9d8dbd0ef5e8b1acd487", "name": "John Adams High School", "category": "health-care", "source": "facdb", "is_coad_member": false }, "geometry": { "type": "Point", "coordinates": [ -73.83692, 40.678691 ] } },
{ "type": "Feature", "properties": { "resource_id": "facdb:66943f9dde5f75ebd509615573e059e7", "name": "Lucky Charm Chinese Cooking School", "category": "education-and-jobs", "source": "facdb", "is_coad_member": false }, "geometry": { "type": "Point", "coordinates": [ -73.844117, 40.680044 ] } },
{ "type": "Feature", "properties": { "resource_id": "facdb:6695f0f66c6f7e1e2e727331689411eb", "name": "Boys & Girls Club of Metro Queens, Inc", "category": "children-and-youth", "source": "facdb", "is_coad_member": false }, "geometry": { "type": "Point", "coordinates": [ -73.834778, 40.66053 ] } },
{ "type": "Feature", "properties": { "resource_id": "facdb:68efaceca702dd0030333fa9e27e27aa", "name": "Lower Highland NYC Playground", "category": "children-and-youth", "source": "facdb", "is_coad_member": false }, "geometry": { "type": "Point", "coordinates": [ -73.842825, 40.658065 ] } },
{ "type": "Feature", "properties": { "resource_id": "facdb:6a6f0f794d0046259ca7df57ceab266e", "name": "Park", "category": "parks-and-environment", "source": "facdb", "is_coad_member": false }, "geometry": { "type": "Point", "coordinates": [ -73.846705, 40.670761 ] } },
{ "type": "Feature", "properties": { "resource_id": "facdb:6b34780ed25e4359cadb8b672235d8fa", "name": "Boys & Girls Club of Metro Queens, Inc", "category": "children-and-youth", "source": "facdb", "is_coad_member": false }, "geometry": { "type": "Point", "coordinates": [ -73.83692, 40.678691 ] } },
{ "type": "Feature", "properties": { "resource_id": "facdb:6f06eeea39d761261882f336a97171bd", "name": "Lefferts Playground", "category": "parks-and-environment", "source": "facdb", "is_coad_member": false }, "geometry": { "type": "Point", "coordinates": [ -73.821254, 40.665478 ] } },
{ "type": "Feature", "properties": { "resource_id": "facdb:70d2d59eaae942d7c9b94cefbea8f3d4", "name": "Iglesia Pentecostal", "category": "children-and-youth", "source": "facdb", "is_coad_member": false }, "geometry": { "type": "Point", "coordinates": [ -73.817013, 40.689297 ] } },
{ "type": "Feature", "properties": { "resource_id": "facdb:70dc37b0350d2aaa4dd82d265cb309c3", "name": "Wellbrock Triangle", "category": "parks-and-environment", "source": "facdb", "is_coad_member": false }, "geometry": { "type": "Point", "coordinates": [ -73.833579, 40.678874 ] } },
{ "type": "Feature", "properties": { "resource_id": "facdb:73d83ae30c8952603a94be5d9a5ab733", "name": "Bold Vision Career of Queens LLC", "category": "education-and-jobs", "source": "facdb", "is_coad_member": false }, "geometry": { "type": "Point", "coordinates": [ -73.821872, 40.687268 ] } },
{ "type": "Feature", "properties": { "resource_id": "facdb:765d8d10512f65dd8d539279e260590b", "name": "Vito Locascio Field", "category": "parks-and-environment", "source": "facdb", "is_coad_member": false }, "geometry": { "type": "Point", "coordinates": [ -73.84372, 40.669958 ] } },
{ "type": "Feature", "properties": { "resource_id": "facdb:79abee713ca6298430ddd8044dfd21cb", "name": "Walter Ward Playground", "category": "parks-and-environment", "source": "facdb", "is_coad_member": false }, "geometry": { "type": "Point", "coordinates": [ -73.844016, 40.657949 ] } },
{ "type": "Feature", "properties": { "resource_id": "facdb:79ef3652b4f75d4939b17f792e3bacdc", "name": "Physicians Choice Surgicenter", "category": "health-care", "source": "facdb", "is_coad_member": false }, "geometry": { "type": "Point", "coordinates": [ -73.851784, 40.667326 ] } },
{ "type": "Feature", "properties": { "resource_id": "facdb:7cf3e6ef6a47df0076bae4bcc0439108", "name": "St Theresa of Avila Community Service : St. Theresa of Avila Community Service", "category": "food-assistance", "source": "facdb", "is_coad_member": false }, "geometry": { "type": "Point", "coordinates": [ -73.813322, 40.68362 ] } },
{ "type": "Feature", "properties": { "resource_id": "facdb:7f802160d6986af063f695685c0e2f8a", "name": "Ozone Park", "category": "libraries-and-community", "source": "facdb", "is_coad_member": false }, "geometry": { "type": "Point", "coordinates": [ -73.846488, 40.680867 ] } },
{ "type": "Feature", "properties": { "resource_id": "facdb:81e9f82058870fea85925df88af1088a", "name": "Pent. Ch. of Jesus Christ Vbs", "category": "children-and-youth", "source": "facdb", "is_coad_member": false }, "geometry": { "type": "Point", "coordinates": [ -73.817013, 40.689297 ] } },
{ "type": "Feature", "properties": { "resource_id": "facdb:850435e47e64a16c42fba62d569e5b12", "name": "Park", "category": "parks-and-environment", "source": "facdb", "is_coad_member": false }, "geometry": { "type": "Point", "coordinates": [ -73.846922, 40.669539 ] } },
{ "type": "Feature", "properties": { "resource_id": "facdb:866601314a7e220302dcc004d8365b0a", "name": "Life Camp Inc", "category": "benefits-and-legal", "source": "facdb", "is_coad_member": false }, "geometry": { "type": "Point", "coordinates": [ -73.812031, 40.67018 ] } },
{ "type": "Feature", "properties": { "resource_id": "facdb:896b33a3832f7237f043d6d96a4d8eec", "name": "New York Edge Inc", "category": "children-and-youth", "source": "facdb", "is_coad_member": false }, "geometry": { "type": "Point", "coordinates": [ -73.834778, 40.66053 ] } },
{ "type": "Feature", "properties": { "resource_id": "facdb:8b2ad6409a06edc8c62b5741a306a61b", "name": "Southside Burial Ground", "category": "parks-and-environment", "source": "facdb", "is_coad_member": false }, "geometry": { "type": "Point", "coordinates": [ -73.844251, 40.670672 ] } },
{ "type": "Feature", "properties": { "resource_id": "facdb:8b6ac5f7b723727436c5b15d6a50163b", "name": "Frederick B. Judge Playground", "category": "parks-and-environment", "source": "facdb", "is_coad_member": false }, "geometry": { "type": "Point", "coordinates": [ -73.807929, 40.683122 ] } },
{ "type": "Feature", "properties": { "resource_id": "facdb:8cb523bd4afa5a068356239be79512c8", "name": "P.S. 96", "category": "children-and-youth", "source": "facdb", "is_coad_member": false }, "geometry": { "type": "Point", "coordinates": [ -73.808132, 40.67534 ] } },
{ "type": "Feature", "properties": { "resource_id": "facdb:8dfce0f3de3ff2961824892e3e3f23b1", "name": "M.S. 137 America's School of Heroes", "category": "children-and-youth", "source": "facdb", "is_coad_member": false }, "geometry": { "type": "Point", "coordinates": [ -73.839615, 40.678325 ] } },
{ "type": "Feature", "properties": { "resource_id": "facdb:8f2518eaaa7c695d409ea83979a403d9", "name": "Joseph P Addabbo Family Health Center", "category": "health-care", "source": "facdb", "is_coad_member": false }, "geometry": { "type": "Point", "coordinates": [ -73.83338, 40.67837 ] } },
{ "type": "Feature", "properties": { "resource_id": "facdb:8f5d585b65f2a6a9f97df5202fadf85b", "name": "Centreville Playground", "category": "parks-and-environment", "source": "facdb", "is_coad_member": false }, "geometry": { "type": "Point", "coordinates": [ -73.839042, 40.670358 ] } },
{ "type": "Feature", "properties": { "resource_id": "facdb:90e4b60f27c3832e1b352d1d886d4147", "name": "Police Officer Edward Byrne Park", "category": "parks-and-environment", "source": "facdb", "is_coad_member": false }, "geometry": { "type": "Point", "coordinates": [ -73.807442, 40.667339 ] } },
{ "type": "Feature", "properties": { "resource_id": "facdb:9367cc0297181d26666f65a81e9ebf43", "name": "P.S. 146 Howard Beach", "category": "children-and-youth", "source": "facdb", "is_coad_member": false }, "geometry": { "type": "Point", "coordinates": [ -73.834778, 40.66053 ] } },
{ "type": "Feature", "properties": { "resource_id": "facdb:93d6cea226305f8f518afe59a7b79094", "name": "New York Edge Inc", "category": "children-and-youth", "source": "facdb", "is_coad_member": false }, "geometry": { "type": "Point", "coordinates": [ -73.844016, 40.657949 ] } },
{ "type": "Feature", "properties": { "resource_id": "facdb:953ec177000e450808d733f2aac2e51e", "name": "Bena Institute of Vocational Trainin", "category": "education-and-jobs", "source": "facdb", "is_coad_member": false }, "geometry": { "type": "Point", "coordinates": [ -73.826571, 40.686092 ] } },
{ "type": "Feature", "properties": { "resource_id": "facdb:95bc1eafbfa6798464cc9eb6afb25a7a", "name": "J.H.S. 202 Robert H. Goddard", "category": "children-and-youth", "source": "facdb", "is_coad_member": false }, "geometry": { "type": "Point", "coordinates": [ -73.845719, 40.671014 ] } },
{ "type": "Feature", "properties": { "resource_id": "facdb:95ceb092c1efa8981f2b1893d738778f", "name": "Liberty Avenue Plaza", "category": "parks-and-environment", "source": "facdb", "is_coad_member": false }, "geometry": { "type": "Point", "coordinates": [ -73.863245, 40.679267 ] } },
{ "type": "Feature", "properties": { "resource_id": "facdb:96862581a8e5c64ecc97bf3087a0f969", "name": "Our Lady of Grace Parish Ministries : Our Lady of Grace Ministry", "category": "food-assistance", "source": "facdb", "is_coad_member": false }, "geometry": { "type": "Point", "coordinates": [ -73.83306, 40.661297 ] } },
{ "type": "Feature", "properties": { "resource_id": "facdb:9ef797797b17f8f7098cb84ef5462f5a", "name": "Park", "category": "parks-and-environment", "source": "facdb", "is_coad_member": false }, "geometry": { "type": "Point", "coordinates": [ -73.811916, 40.663675 ] } },
{ "type": "Feature", "properties": { "resource_id": "facdb:a1c5421dabb06a0f491ffad45e5520f8", "name": "Ozone Park Dialysis", "category": "health-care", "source": "facdb", "is_coad_member": false }, "geometry": { "type": "Point", "coordinates": [ -73.838967, 40.679557 ] } },
{ "type": "Feature", "properties": { "resource_id": "facdb:a3f8239918419519e40e70127c5d429f", "name": "Catholic Charities Neighborhood Services Inc", "category": "older-adults", "source": "facdb", "is_coad_member": false }, "geometry": { "type": "Point", "coordinates": [ -73.840228, 40.664966 ] } },
{ "type": "Feature", "properties": { "resource_id": "facdb:a4571475a4ca82aeca348cb825b50920", "name": "Senator Robert F. Wagner Sr. (3)", "category": "children-and-youth", "source": "facdb", "is_coad_member": false }, "geometry": { "type": "Point", "coordinates": [ -73.806107, 40.674817 ] } },
{ "type": "Feature", "properties": { "resource_id": "facdb:a502d8c2c4ebdea837f11998fb565ec7", "name": "Al-Ishan Academy", "category": "children-and-youth", "source": "facdb", "is_coad_member": false }, "geometry": { "type": "Point", "coordinates": [ -73.808149, 40.674719 ] } },
{ "type": "Feature", "properties": { "resource_id": "facdb:a552e40908ec4a205432f220d9a24372", "name": "Howard Beach Clinic", "category": "mental-health-and-recovery", "source": "facdb", "is_coad_member": false }, "geometry": { "type": "Point", "coordinates": [ -73.841353, 40.6635 ] } },
{ "type": "Feature", "properties": { "resource_id": "facdb:a6b6c414321afa198405ce7a35ff853f", "name": "Gemini Fields", "category": "parks-and-environment", "source": "facdb", "is_coad_member": false }, "geometry": { "type": "Point", "coordinates": [ -73.852787, 40.670693 ] } },
{ "type": "Feature", "properties": { "resource_id": "facdb:a6efee38b49496a74cbc603455550070", "name": "The Child Center of NY Inc", "category": "children-and-youth", "source": "facdb", "is_coad_member": false }, "geometry": { "type": "Point", "coordinates": [ -73.816743, 40.67518 ] } },
{ "type": "Feature", "properties": { "resource_id": "facdb:a9f0178aa080f82f331e47d9e16ba45a", "name": "Rocket Playground", "category": "parks-and-environment", "source": "facdb", "is_coad_member": false }, "geometry": { "type": "Point", "coordinates": [ -73.846279, 40.670668 ] } },
{ "type": "Feature", "properties": { "resource_id": "facdb:ab5d8349ccc72c19f42159cd5c138576", "name": "John Adams High School (27Q480)", "category": "benefits-and-legal", "source": "facdb", "is_coad_member": false }, "geometry": { "type": "Point", "coordinates": [ -73.83692, 40.678691 ] } },
{ "type": "Feature", "properties": { "resource_id": "facdb:ac4a277d8899158c93fb195fbc5e0517", "name": "JHS 226 Virgil I. Grissom (27Q226)", "category": "children-and-youth", "source": "facdb", "is_coad_member": false }, "geometry": { "type": "Point", "coordinates": [ -73.816743, 40.67518 ] } },
{ "type": "Feature", "properties": { "resource_id": "facdb:ac8a93af49ef4c9e4a5fa991dfa2eb20", "name": "Cheer Foundation, Inc.", "category": "libraries-and-community", "source": "facdb", "is_coad_member": false }, "geometry": { "type": "Point", "coordinates": [ -73.843812, 40.667069 ] } },
{ "type": "Feature", "properties": { "resource_id": "facdb:ae23562a3d3acec90af03ab442e4a249", "name": "Educational Church of Holiness/Cogic", "category": "children-and-youth", "source": "facdb", "is_coad_member": false }, "geometry": { "type": "Point", "coordinates": [ -73.806014, 40.670875 ] } },
{ "type": "Feature", "properties": { "resource_id": "facdb:b18ad2374e046702ed5021bc9c2bcf4b", "name": "Sheltering Arms/Safe Space", "category": "children-and-youth", "source": "facdb", "is_coad_member": false }, "geometry": { "type": "Point", "coordinates": [ -73.834023, 40.683323 ] } },
{ "type": "Feature", "properties": { "resource_id": "facdb:b3612842f3b51db715e36d168c9990f3", "name": "P.S. 124 Osmond a Church", "category": "children-and-youth", "source": "facdb", "is_coad_member": false }, "geometry": { "type": "Point", "coordinates": [ -73.811358, 40.66544 ] } },
{ "type": "Feature", "properties": { "resource_id": "facdb:b4605fb609798eba7fdbd448366dcb0d", "name": "Tudor Park", "category": "parks-and-environment", "source": "facdb", "is_coad_member": false }, "geometry": { "type": "Point", "coordinates": [ -73.852129, 40.672623 ] } },
{ "type": "Feature", "properties": { "resource_id": "facdb:b7df27af04e3e0024d6749c34a9815fd", "name": "Boys & Girls Club of Metro Queens, Inc", "category": "children-and-youth", "source": "facdb", "is_coad_member": false }, "geometry": { "type": "Point", "coordinates": [ -73.815526, 40.683801 ] } },
{ "type": "Feature", "properties": { "resource_id": "facdb:b967e8beb98b7284c87e55f077ff6683", "name": "MS 137 America's School of Heroes (27Q137)", "category": "children-and-youth", "source": "facdb", "is_coad_member": false }, "geometry": { "type": "Point", "coordinates": [ -73.839615, 40.678325 ] } },
{ "type": "Feature", "properties": { "resource_id": "facdb:bd61b76f8629023edb5b5ede74fb5c61", "name": "PS 121 Queens (28Q121)", "category": "children-and-youth", "source": "facdb", "is_coad_member": false }, "geometry": { "type": "Point", "coordinates": [ -73.815526, 40.683801 ] } },
{ "type": "Feature", "properties": { "resource_id": "facdb:c23c0fd7ad6d61b781b30459a7ee53d8", "name": "MS 137 America's School of Heroes (27Q137)", "category": "children-and-youth", "source": "facdb", "is_coad_member": false }, "geometry": { "type": "Point", "coordinates": [ -73.839615, 40.678325 ] } },
{ "type": "Feature", "properties": { "resource_id": "facdb:c502857a7f3ec9c2c16fc83b47471814", "name": "Deliverance Temple Church of Jesus Christ : Deliverance Temple Church", "category": "food-assistance", "source": "facdb", "is_coad_member": false }, "geometry": { "type": "Point", "coordinates": [ -73.804095, 40.674385 ] } },
{ "type": "Feature", "properties": { "resource_id": "facdb:c8940503f4f181776def7046bea00ed9", "name": "Queens Library-Ozone Park", "category": "children-and-youth", "source": "facdb", "is_coad_member": false }, "geometry": { "type": "Point", "coordinates": [ -73.846488, 40.680867 ] } },
{ "type": "Feature", "properties": { "resource_id": "facdb:c9f287c8a35c4e46ae56db0985bf0862", "name": "P.S. 207 Rockwood Park", "category": "children-and-youth", "source": "facdb", "is_coad_member": false }, "geometry": { "type": "Point", "coordinates": [ -73.844016, 40.657949 ] } },
{ "type": "Feature", "properties": { "resource_id": "facdb:cb1f9ad3b14bb097c898389626fb5ed6", "name": "NY Families for Autistic Children", "category": "disability-and-access", "source": "facdb", "is_coad_member": false }, "geometry": { "type": "Point", "coordinates": [ -73.838091, 40.65025 ] } },
{ "type": "Feature", "properties": { "resource_id": "facdb:ce4b34d11125a89540ff3db38882439d", "name": "Hawtree Creek Middle School", "category": "children-and-youth", "source": "facdb", "is_coad_member": false }, "geometry": { "type": "Point", "coordinates": [ -73.816743, 40.67518 ] } },
{ "type": "Feature", "properties": { "resource_id": "facdb:cf4516f9a119d8b97753f229cb83d7fd", "name": "New Horizon Counseling Center Clinic", "category": "mental-health-and-recovery", "source": "facdb", "is_coad_member": false }, "geometry": { "type": "Point", "coordinates": [ -73.830313, 40.678175 ] } },
{ "type": "Feature", "properties": { "resource_id": "facdb:d179391256a36d4322373ed3c85981f4", "name": "Muna Social Service Inc : Muna Social Service, Inc.", "category": "food-assistance", "source": "facdb", "is_coad_member": false }, "geometry": { "type": "Point", "coordinates": [ -73.855033, 40.675864 ] } },
{ "type": "Feature", "properties": { "resource_id": "facdb:d50077d079bec9669b63c8c0e90a6eac", "name": "Park", "category": "parks-and-environment", "source": "facdb", "is_coad_member": false }, "geometry": { "type": "Point", "coordinates": [ -73.831007, 40.65683 ] } },
{ "type": "Feature", "properties": { "resource_id": "facdb:d6403019cdf9a861c2081ac67f0a7b09", "name": "Earsay, Inc.", "category": "libraries-and-community", "source": "facdb", "is_coad_member": false }, "geometry": { "type": "Point", "coordinates": [ -73.807107, 40.683928 ] } },
{ "type": "Feature", "properties": { "resource_id": "facdb:d8f25d4b136176a3629a9cc7003ffdd3", "name": "New York United Jewish Association,Inc.", "category": "children-and-youth", "source": "facdb", "is_coad_member": false }, "geometry": { "type": "Point", "coordinates": [ -73.816743, 40.67518 ] } },
{ "type": "Feature", "properties": { "resource_id": "facdb:d9a3a738519420b3eb556b2fad030d6c", "name": "Catholic War Veterans Square", "category": "parks-and-environment", "source": "facdb", "is_coad_member": false }, "geometry": { "type": "Point", "coordinates": [ -73.816203, 40.675856 ] } },
{ "type": "Feature", "properties": { "resource_id": "facdb:e34d54610c615c4d903b47880f401890", "name": "Engine 331/LADDER 173", "category": "emergency-services", "source": "facdb", "is_coad_member": false }, "geometry": { "type": "Point", "coordinates": [ -73.83946, 40.659248 ] } },
{ "type": "Feature", "properties": { "resource_id": "facdb:e692c5d579f2f5a4ab866a8ce8b526b9", "name": "New Horizon Counseling Center Inc", "category": "mental-health-and-recovery", "source": "facdb", "is_coad_member": false }, "geometry": { "type": "Point", "coordinates": [ -73.830313, 40.678175 ] } },
{ "type": "Feature", "properties": { "resource_id": "facdb:e69458e013fe8d16dc807b115ae00b97", "name": "Caribbean Equality Project", "category": "libraries-and-community", "source": "facdb", "is_coad_member": false }, "geometry": { "type": "Point", "coordinates": [ -73.801936, 40.668823 ] } },
{ "type": "Feature", "properties": { "resource_id": "facdb:e90f940ca72608511c76cf14c3c08315", "name": "Meaningful NY Initiatves Ppl W/Disab Inc", "category": "disability-and-access", "source": "facdb", "is_coad_member": false }, "geometry": { "type": "Point", "coordinates": [ -73.838091, 40.65025 ] } },
{ "type": "Feature", "properties": { "resource_id": "facdb:ed0d89a7310958529800441da0351137", "name": "Zion Tabernacle Fbh Church : Zion Tabernacle Fbh Church", "category": "food-assistance", "source": "facdb", "is_coad_member": false }, "geometry": { "type": "Point", "coordinates": [ -73.835317, 40.681273 ] } },
{ "type": "Feature", "properties": { "resource_id": "facdb:eec56138b80de15fa98c27920601c8c6", "name": "Creative Jazz Organization Inc", "category": "children-and-youth", "source": "facdb", "is_coad_member": false }, "geometry": { "type": "Point", "coordinates": [ -73.812073, 40.689691 ] } },
{ "type": "Feature", "properties": { "resource_id": "facdb:ef50c5eafd1de341f5187335e67b01fc", "name": "Alliance 4 Christian Youth", "category": "children-and-youth", "source": "facdb", "is_coad_member": false }, "geometry": { "type": "Point", "coordinates": [ -73.826199, 40.677429 ] } },
{ "type": "Feature", "properties": { "resource_id": "facdb:f4a454d993651d2acf3717a00f57361c", "name": "Leviticus Church", "category": "children-and-youth", "source": "facdb", "is_coad_member": false }, "geometry": { "type": "Point", "coordinates": [ -73.806277, 40.682335 ] } },
{ "type": "Feature", "properties": { "resource_id": "facdb:f773a83959c4644af086daa62c0bf725", "name": "Lefferts", "category": "libraries-and-community", "source": "facdb", "is_coad_member": false }, "geometry": { "type": "Point", "coordinates": [ -73.824841, 40.68691 ] } },
{ "type": "Feature", "properties": { "resource_id": "facdb:f9b8abfbc5e4f9f33b84bbe57455755a", "name": "Boys and Girls Club of Metro Queens", "category": "children-and-youth", "source": "facdb", "is_coad_member": false }, "geometry": { "type": "Point", "coordinates": [ -73.83692, 40.678691 ] } },
{ "type": "Feature", "properties": { "resource_id": "facdb:fbf62851e720e90226ed02ae714abeeb", "name": "Corporal Ruoff Square", "category": "parks-and-environment", "source": "facdb", "is_coad_member": false }, "geometry": { "type": "Point", "coordinates": [ -73.844679, 40.680502 ] } },
{ "type": "Feature", "properties": { "resource_id": "qnpd:gallopnyc", "name": "GallopNYC", "category": "children-and-youth", "source": "qnpd", "is_coad_member": false }, "geometry": { "type": "Point", "coordinates": [ -73.83979, 40.65706 ] } },
{ "type": "Feature", "properties": { "resource_id": "qnpd:harmony-4-all-inc--1", "name": "Harmony 4 All, Inc.", "category": "children-and-youth", "source": "qnpd", "is_coad_member": false }, "geometry": { "type": "Point", "coordinates": [ -73.826448, 40.684557 ] } },
{ "type": "Feature", "properties": { "resource_id": "qnpd:harmony-4-all-inc--2", "name": "Harmony 4 All, Inc.", "category": "children-and-youth", "source": "qnpd", "is_coad_member": false }, "geometry": { "type": "Point", "coordinates": [ -73.826448, 40.684557 ] } },
{ "type": "Feature", "properties": { "resource_id": "qnpd:zion-tabernacle-food-pantry", "name": "Zion Tabernacle Food Pantry", "category": "food-assistance", "source": "qnpd", "is_coad_member": false }, "geometry": { "type": "Point", "coordinates": [ -73.83531, 40.681265 ] } }
]
}
