{
"type": "FeatureCollection",
"name": "q11",
"features": [
{ "type": "Feature", "properties": { "resource_id": "facdb:01140fe07172ec2ebf95263c366cc58f", "name": "New York Edge Inc", "category": "children-and-youth", "source": "facdb", "is_coad_member": false }, "geometry": { "type": "Point", "coordinates": [ -73.771164, 40.770269 ] } },
{ "type": "Feature", "properties": { "resource_id": "facdb:02140c46a128225ddc3a41a0c060aef6", "name": "Oakland Gardens", "category": "parks-and-environment", "source": "facdb", "is_coad_member": false }, "geometry": { "type": "Point", "coordinates": [ -73.760022, 40.753603 ] } },
{ "type": "Feature", "properties": { "resource_id": "facdb:02f78bbccd0b5a00fc9e54f911ec9d95", "name": "Asian American Coalition for Education", "category": "libraries-and-community", "source": "facdb", "is_coad_member": false }, "geometry": { "type": "Point", "coordinates": [ -73.777723, 40.753712 ] } },
{ "type": "Feature", "properties": { "resource_id": "facdb:093d929380a04e606a96549a351955e7", "name": "I.S. 25 Adrien Block", "category": "children-and-youth", "source": "facdb", "is_coad_member": false }, "geometry": { "type": "Point", "coordinates": [ -73.789703, 40.764996 ] } },
{ "type": "Feature", "properties": { "resource_id": "facdb:0a307f9533e7c826dc81cc4abad3ca52", "name": "Alley Park", "category": "parks-and-environment", "source": "facdb", "is_coad_member": false }, "geometry": { "type": "Point", "coordinates": [ -73.745441, 40.747476 ] } },
{ "type": "Feature", "properties": { "resource_id": "facdb:0b368df6b94dab00aef3a46466d61cfa", "name": "Mall Forty Two Xlii", "category": "parks-and-environment", "source": "facdb", "is_coad_member": false }, "geometry": { "type": "Point", "coordinates": [ -73.777272, 40.761268 ] } },
{ "type": "Feature", "properties": { "resource_id": "facdb:113051bd94c3e9bf9ac0c7019571dbac", "name": "NYPD 111th Precinct Station House", "category": "emergency-services", "source": "facdb", "is_coad_member": false }, "geometry": { "type": "Point", "coordinates": [ -73.767848, 40.760175 ] } },
{ "type": "Feature", "properties": { "resource_id": "facdb:128d36f24de55a49d8d3928954e94db2", "name": "Anibic  Inc.", "category": "disability-and-access", "source": "facdb", "is_coad_member": false }, "geometry": { "type": "Point", "coordinates": [ -73.757116, 40.747801 ] } },
{ "type": "Feature", "properties": { "resource_id": "facdb:1722f4bb692434f9e6929653e9adbfb6", "name": "The Child Center of NY Inc", "category": "children-and-youth", "source": "facdb", "is_coad_member": false }, "geometry": { "type": "Point", "coordinates": [ -73.76683, 40.745087 ] } },
{ "type": "Feature", "properties": { "resource_id": "facdb:19abf9f0a1f93423ff2f502f5fab0d14", "name": "Association for Neurogically Impaired Brain Injured Children", "category": "disability-and-access", "source": "facdb", "is_coad_member": false }, "geometry": { "type": "Point", "coordinates": [ -73.757116, 40.747801 ] } },
{ "type": "Feature", "properties": { "resource_id": "facdb:1a28cdb88bae87a4e00e2e6faa5fb6e0", "name": "Jewish Board of Family and Children's Services Inc", "category": "health-care", "source": "facdb", "is_coad_member": false }, "geometry": { "type": "Point", "coordinates": [ -73.742668, 40.765239 ] } },
{ "type": "Feature", "properties": { "resource_id": "facdb:1b2ce2bd0c1c631885c82841bc5546a3", "name": "Allen-Beville House", "category": "parks-and-environment", "source": "facdb", "is_coad_member": false }, "geometry": { "type": "Point", "coordinates": [ -73.750317, 40.772848 ] } },
{ "type": "Feature", "properties": { "resource_id": "facdb:1ba56b2f8fb096c1500aff44cc032a50", "name": "Kpcb Summer School", "category": "children-and-youth", "source": "facdb", "is_coad_member": false }, "geometry": { "type": "Point", "coordinates": [ -73.771275, 40.75785 ] } },
{ "type": "Feature", "properties": { "resource_id": "facdb:1cfcca62fd5fc5e584797a162d4d94b0", "name": "Alameda Malls", "category": "parks-and-environment", "source": "facdb", "is_coad_member": false }, "geometry": { "type": "Point", "coordinates": [ -73.742335, 40.764621 ] } },
{ "type": "Feature", "properties": { "resource_id": "facdb:20f4f3ef23c26f8a5c6380f3c62e98bf", "name": "Challenge Playground", "category": "parks-and-environment", "source": "facdb", "is_coad_member": false }, "geometry": { "type": "Point", "coordinates": [ -73.727964, 40.756623 ] } },
{ "type": "Feature", "properties": { "resource_id": "facdb:24712f171f460389e7079b8e5efbf422", "name": "Douglaston Historic District", "category": "parks-and-environment", "source": "facdb", "is_coad_member": false }, "geometry": { "type": "Point", "coordinates": [ -73.749977, 40.776403 ] } },
{ "type": "Feature", "properties": { "resource_id": "facdb:24756cfbacaca13dcc569cdb6631b3e6", "name": "Catharine Turner Richardson Park", "category": "parks-and-environment", "source": "facdb", "is_coad_member": false }, "geometry": { "type": "Point", "coordinates": [ -73.747182, 40.768251 ] } },
{ "type": "Feature", "properties": { "resource_id": "facdb:24a091dc4d37748f8d20c8fbf4799b7d", "name": "North Hills", "category": "libraries-and-community", "source": "facdb", "is_coad_member": false }, "geometry": { "type": "Point", "coordinates": [ -73.731831, 40.759254 ] } },
{ "type": "Feature", "properties": { "resource_id": "facdb:26c5583fa8c1df8c751b9ed6c0897abb", "name": "Kcpcq Summer Camp", "category": "children-and-youth", "source": "facdb", "is_coad_member": false }, "geometry": { "type": "Point", "coordinates": [ -73.757612, 40.749845 ] } },
{ "type": "Feature", "properties": { "resource_id": "facdb:2cf433795f909722bffc80a338761c8b", "name": "Douglaston Hill Historic District", "category": "parks-and-environment", "source": "facdb", "is_coad_member": false }, "geometry": { "type": "Point", "coordinates": [ -73.744959, 40.767382 ] } },
{ "type": "Feature", "properties": { "resource_id": "facdb:2f37aa223a72a721c8d9cecfa1165140", "name": "Little Neck Care Center", "category": "health-care", "source": "facdb", "is_coad_member": false }, "geometry": { "type": "Point", "coordinates": [ -73.724224, 40.766207 ] } },
{ "type": "Feature", "properties": { "resource_id": "facdb:33143bdfe3a5b832aec9dca031180e3d", "name": "Engine 313/LADDER 164", "category": "emergency-services", "source": "facdb", "is_coad_member": false }, "geometry": { "type": "Point", "coordinates": [ -73.742184, 40.766809 ] } },
{ "type": "Feature", "properties": { "resource_id": "facdb:331cde9dd84cd2fd151f55291cdcc710", "name": "Marie Curie Playground", "category": "parks-and-environment", "source": "facdb", "is_coad_member": false }, "geometry": { "type": "Point", "coordinates": [ -73.772336, 40.756291 ] } },
{ "type": "Feature", "properties": { "resource_id": "facdb:33c3e62c9c6df8e18833448ecae8c832", "name": "Commonpoint/Sam Field Cred", "category": "children-and-youth", "source": "facdb", "is_coad_member": false }, "geometry": { "type": "Point", "coordinates": [ -73.723279, 40.760825 ] } },
{ "type": "Feature", "properties": { "resource_id": "facdb:37018fad16ee556e2a3a7f063a0ffc25", "name": "Engine 320/LADDER 167", "category": "emergency-services", "source": "facdb", "is_coad_member": false }, "geometry": { "type": "Point", "coordinates": [ -73.786987, 40.763306 ] } },
{ "type": "Feature", "properties": { "resource_id": "facdb:382d767d04cb225e495c0b62a2a8132f", "name": "Douglaston Summer Camp", "category": "children-and-youth", "source": "facdb", "is_coad_member": false }, "geometry": { "type": "Point", "coordinates": [ -73.75001, 40.769604 ] } },
{ "type": "Feature", "properties": { "resource_id": "facdb:3afc06fbc5b43abbb0b26744ca59d6d8", "name": "Beijing Chinese School", "category": "children-and-youth", "source": "facdb", "is_coad_member": false }, "geometry": { "type": "Point", "coordinates": [ -73.794039, 40.740745 ] } },
{ "type": "Feature", "properties": { "resource_id": "facdb:3beebc86cc6402df3da16a881b6ebd27", "name": "PS 221 Summer Camp", "category": "children-and-youth", "source": "facdb", "is_coad_member": false }, "geometry": { "type": "Point", "coordinates": [ -73.731313, 40.75858 ] } },
{ "type": "Feature", "properties": { "resource_id": "facdb:3f7d2228dbf4b5dafc0fe617906ca482", "name": "Samuel Field YM & YWHA Inc", "category": "children-and-youth", "source": "facdb", "is_coad_member": false }, "geometry": { "type": "Point", "coordinates": [ -73.734444, 40.762502 ] } },
{ "type": "Feature", "properties": { "resource_id": "facdb:3fc27071a35ade1994182dcaa69a67f4", "name": "Korean Joong Bu Church", "category": "children-and-youth", "source": "facdb", "is_coad_member": false }, "geometry": { "type": "Point", "coordinates": [ -73.727626, 40.762581 ] } },
{ "type": "Feature", "properties": { "resource_id": "facdb:402775f43463092d5efcef77466191bb", "name": "Second Generation Productions, Inc.", "category": "libraries-and-community", "source": "facdb", "is_coad_member": false }, "geometry": { "type": "Point", "coordinates": [ -73.754602, 40.733819 ] } },
{ "type": "Feature", "properties": { "resource_id": "facdb:4052c27dd915714387b374a8a27b5d44", "name": "Carlos Lezama Archives and Caribbean Cultural Center", "category": "libraries-and-community", "source": "facdb", "is_coad_member": false }, "geometry": { "type": "Point", "coordinates": [ -73.732104, 40.746164 ] } },
{ "type": "Feature", "properties": { "resource_id": "facdb:45e48b3d8de9c0bb02d597e276c98cb2", "name": "Premier Healthcare Bayside", "category": "health-care", "source": "facdb", "is_coad_member": false }, "geometry": { "type": "Point", "coordinates": [ -73.771702, 40.760007 ] } },
{ "type": "Feature", "properties": { "resource_id": "facdb:4723b5e02eab7ca9a3e064771a25e602", "name": "Grand Central Parkway", "category": "parks-and-environment", "source": "facdb", "is_coad_member": false }, "geometry": { "type": "Point", "coordinates": [ -73.752884, 40.733664 ] } },
{ "type": "Feature", "properties": { "resource_id": "facdb:480aa435d8cdc9ddfcdc0cba59c5ce57", "name": "PS213 Summer Program", "category": "children-and-youth", "source": "facdb", "is_coad_member": false }, "geometry": { "type": "Point", "coordinates": [ -73.745441, 40.747476 ] } },
{ "type": "Feature", "properties": { "resource_id": "facdb:48daf981c82f7d46c26dc4b4de6e352a", "name": "Queensborough Community College Fund, Inc.", "category": "libraries-and-community", "source": "facdb", "is_coad_member": false }, "geometry": { "type": "Point", "coordinates": [ -73.756545, 40.755959 ] } },
{ "type": "Feature", "properties": { "resource_id": "facdb:492349a365fee40cde50016dc73fada6", "name": "J.H.S. 67 Louis Pasteur", "category": "children-and-youth", "source": "facdb", "is_coad_member": false }, "geometry": { "type": "Point", "coordinates": [ -73.734444, 40.762502 ] } },
{ "type": "Feature", "properties": { "resource_id": "facdb:4abe0772daf4c64eb38352f60791ea7d", "name": "The Greater Ridgewood Youth Council Inc", "category": "children-and-youth", "source": "facdb", "is_coad_member": false }, "geometry": { "type": "Point", "coordinates": [ -73.789703, 40.764996 ] } },
{ "type": "Feature", "properties": { "resource_id": "facdb:4b1fa824feff9ad56b6ebd5a5eb3f7c8", "name": "Korean Community Services of Metropolitan New York Inc", "category": "education-and-jobs", "source": "facdb", "is_coad_member": false }, "geometry": { "type": "Point", "coordinates": [ -73.786482, 40.771017 ] } },
{ "type": "Feature", "properties": { "resource_id": "facdb:5733e746f3fe5fd6da429a9cbd3ef7e7", "name": "St. Mary's Hospital for Children", "category": "health-care", "source": "facdb", "is_coad_member": false }, "geometry": { "type": "Point", "coordinates": [ -73.768516, 40.776575 ] } },
{ "type": "Feature", "properties": { "resource_id": "facdb:586879954abc1290a7cae7622d0ed349", "name": "Nassau Mall South", "category": "parks-and-environment", "source": "facdb", "is_coad_member": false }, "geometry": { "type": "Point", "coordinates": [ -73.726098, 40.763146 ] } },
{ "type": "Feature", "properties": { "resource_id": "facdb:589c55b94fefada6077f00bb98794244", "name": "Brandywine Living at the Savoy", "category": "health-care", "source": "facdb", "is_coad_member": false }, "geometry": { "type": "Point", "coordinates": [ -73.72361, 40.765144 ] } },
{ "type": "Feature", "properties": { "resource_id": "facdb:5ab3b03c6b5caf2338646afe978a0390", "name": "Nyp/Queens Eye Care Center", "category": "health-care", "source": "facdb", "is_coad_member": false }, "geometry": { "type": "Point", "coordinates": [ -73.794942, 40.739124 ] } },
{ "type": "Feature", "properties": { "resource_id": "facdb:5bcc9c9c56e6f375a9f552f06bc56551", "name": "Catholic Charities Neighborhood Services Inc", "category": "older-adults", "source": "facdb", "is_coad_member": false }, "geometry": { "type": "Point", "coordinates": [ -73.756732, 40.749886 ] } },
{ "type": "Feature", "properties": { "resource_id": "facdb:5c285fa0582537f57defada7d560e2da", "name": "Douglaston and Little Neck Historical Society", "category": "children-and-youth", "source": "facdb", "is_coad_member": false }, "geometry": { "type": "Point", "coordinates": [ -73.752364, 40.779773 ] } },
{ "type": "Feature", "properties": { "resource_id": "facdb:5d8395ecabb745b0cbb7fd334d0903fb", "name": "Francis Lewis Playground", "category": "parks-and-environment", "source": "facdb", "is_coad_member": false }, "geometry": { "type": "Point", "coordinates": [ -73.783979, 40.759971 ] } },
{ "type": "Feature", "properties": { "resource_id": "facdb:5dada6799210090c03e60a1795544ecc", "name": "Little Neck Dialysis", "category": "health-care", "source": "facdb", "is_coad_member": false }, "geometry": { "type": "Point", "coordinates": [ -73.736295, 40.770299 ] } },
{ "type": "Feature", "properties": { "resource_id": "facdb:5fdb4fb967fac6f303184a7230845a10", "name": "Tall Oak Playground", "category": "parks-and-environment", "source": "facdb", "is_coad_member": false }, "geometry": { "type": "Point", "coordinates": [ -73.757891, 40.745358 ] } },
{ "type": "Feature", "properties": { "resource_id": "facdb:60a1e369a6feefa7f064e3bd64cc6f73", "name": "Queensborough Community College Auxiliary Enterprise Association, Inc.", "category": "libraries-and-community", "source": "facdb", "is_coad_member": false }, "geometry": { "type": "Point", "coordinates": [ -73.756545, 40.755959 ] } },
{ "type": "Feature", "properties": { "resource_id": "facdb:619087833901f703ed55be4d81a36739", "name": "MS 158 Marie Curie", "category": "children-and-youth", "source": "facdb", "is_coad_member": false }, "geometry": { "type": "Point", "coordinates": [ -73.772336, 40.756291 ] } },
{ "type": "Feature", "properties": { "resource_id": "facdb:628c251d2bd406f7e82dc1659ad9c240", "name": "YMCA of Greater New York", "category": "children-and-youth", "source": "facdb", "is_coad_member": false }, "geometry": { "type": "Point", "coordinates": [ -73.753617, 40.736111 ] } },
{ "type": "Feature", "properties": { "resource_id": "facdb:643a5278551854e4f3576dd91fa41cb8", "name": "Chabad of Northeastern Queens", "category": "children-and-youth", "source": "facdb", "is_coad_member": false }, "geometry": { "type": "Point", "coordinates": [ -73.777309, 40.778014 ] } },
{ "type": "Feature", "properties": { "resource_id": "facdb:644595531d2cc270199cd9b563e7dea3", "name": "Cross Island Parkway", "category": "parks-and-environment", "source": "facdb", "is_coad_member": false }, "geometry": { "type": "Point", "coordinates": [ -73.758939, 40.760631 ] } },
{ "type": "Feature", "properties": { "resource_id": "facdb:65d10cff889a4c57bd85c06a6b508a5d", "name": "Korean Community Services of Metropolitan New York Inc", "category": "immigration-and-language", "source": "facdb", "is_coad_member": false }, "geometry": { "type": "Point", "coordinates": [ -73.786482, 40.771017 ] } },
{ "type": "Feature", "properties": { "resource_id": "facdb:670db825460a0e6fcbdd3937063d83ac", "name": "Queens Endoscopy Asc, LLC", "category": "health-care", "source": "facdb", "is_coad_member": false }, "geometry": { "type": "Point", "coordinates": [ -73.792709, 40.773457 ] } },
{ "type": "Feature", "properties": { "resource_id": "facdb:694704f561b6be6a838394baa0c6475b", "name": "Seven Gables Playground", "category": "parks-and-environment", "source": "facdb", "is_coad_member": false }, "geometry": { "type": "Point", "coordinates": [ -73.766365, 40.744156 ] } },
{ "type": "Feature", "properties": { "resource_id": "facdb:6a779246e6cbb0c89b9570ca2320ee76", "name": "Captain Dermody Triangle", "category": "parks-and-environment", "source": "facdb", "is_coad_member": false }, "geometry": { "type": "Point", "coordinates": [ -73.764501, 40.755766 ] } },
{ "type": "Feature", "properties": { "resource_id": "facdb:6ad6bc4e23f835359dc88a2b563e87e4", "name": "Taiwanese American Arts Council Corp.", "category": "libraries-and-community", "source": "facdb", "is_coad_member": false }, "geometry": { "type": "Point", "coordinates": [ -73.789231, 40.750013 ] } },
{ "type": "Feature", "properties": { "resource_id": "facdb:6b749188f5cf6d9e716304c4bbb99e49", "name": "Nyp/Queens Dental Services Center", "category": "health-care", "source": "facdb", "is_coad_member": false }, "geometry": { "type": "Point", "coordinates": [ -73.79515, 40.739056 ] } },
{ "type": "Feature", "properties": { "resource_id": "facdb:6fd0eb81547b4a342673408d8b91a01d", "name": "Commonpoint Queens", "category": "older-adults", "source": "facdb", "is_coad_member": false }, "geometry": { "type": "Point", "coordinates": [ -73.723279, 40.760825 ] } },
{ "type": "Feature", "properties": { "resource_id": "facdb:70abb3abf8b8f91027a27099dade2220", "name": "Saul Weprin Playground", "category": "parks-and-environment", "source": "facdb", "is_coad_member": false }, "geometry": { "type": "Point", "coordinates": [ -73.776248, 40.747712 ] } },
{ "type": "Feature", "properties": { "resource_id": "facdb:721035ac5a11beb781dc7e8ad6cc501e", "name": "North Queens Surgical Center", "category": "health-care", "source": "facdb", "is_coad_member": false }, "geometry": { "type": "Point", "coordinates": [ -73.782474, 40.754892 ] } },
{ "type": "Feature", "properties": { "resource_id": "facdb:73ed535d6a8edafe8c887b93e024bd87", "name": "Samuel Field YM & YWHA Inc", "category": "mental-health-and-recovery", "source": "facdb", "is_coad_member": false }, "geometry": { "type": "Point", "coordinates": [ -73.723119, 40.760345 ] } },
{ "type": "Feature", "properties": { "resource_id": "facdb:74eded33ea10d79bd298e05ba7aeaf1c", "name": "Queens Library-East Flushing", "category": "children-and-youth", "source": "facdb", "is_coad_member": false }, "geometry": { "type": "Point", "coordinates": [ -73.784307, 40.757553 ] } },
{ "type": "Feature", "properties": { "resource_id": "facdb:766ccea462450fc172bc4bc8cb003d06", "name": "Samuel Field YM & YWHA Inc", "category": "older-adults", "source": "facdb", "is_coad_member": false }, "geometry": { "type": "Point", "coordinates": [ -73.730666, 40.759408 ] } },
{ "type": "Feature", "properties": { "resource_id": "facdb:773a91f087b2fe4d3d98aca52ffd7dcb", "name": "Bayside YMCA Kinder Kamp", "category": "children-and-youth", "source": "facdb", "is_coad_member": false }, "geometry": { "type": "Point", "coordinates": [ -73.772186, 40.769649 ] } },
{ "type": "Feature", "properties": { "resource_id": "facdb:77f4f785f5da037148ebeabd09faa0ea", "name": "Alley Pond Environmental Center, Inc.", "category": "libraries-and-community", "source": "facdb", "is_coad_member": false }, "geometry": { "type": "Point", "coordinates": [ -73.747449, 40.740575 ] } },
{ "type": "Feature", "properties": { "resource_id": "facdb:797b3bf764e7ba5dec226eb4761d4179", "name": "Young Adult Institute Inc", "category": "disability-and-access", "source": "facdb", "is_coad_member": false }, "geometry": { "type": "Point", "coordinates": [ -73.771702, 40.760007 ] } },
{ "type": "Feature", "properties": { "resource_id": "facdb:7a0007dbe385b339edf54c0fa48222b1", "name": "Oasis Summer Camp", "category": "children-and-youth", "source": "facdb", "is_coad_member": false }, "geometry": { "type": "Point", "coordinates": [ -73.756545, 40.755959 ] } },
{ "type": "Feature", "properties": { "resource_id": "facdb:7b6dd832c9027ca1d3b13d21659e28d9", "name": "Korean Community Services of Metropolitan New York Inc", "category": "children-and-youth", "source": "facdb", "is_coad_member": false }, "geometry": { "type": "Point", "coordinates": [ -73.786482, 40.771017 ] } },
{ "type": "Feature", "properties": { "resource_id": "facdb:7cf89b09ba327184b3883142547863dc", "name": "Admiral Playground", "category": "parks-and-environment", "source": "facdb", "is_coad_member": false }, "geometry": { "type": "Point", "coordinates": [ -73.73756, 40.770933 ] } },
{ "type": "Feature", "properties": { "resource_id": "facdb:7d293b688e4fc85c07af063d2f3d8fd2", "name": "Queensborough Comm. College-Summer", "category": "children-and-youth", "source": "facdb", "is_coad_member": false }, "geometry": { "type": "Point", "coordinates": [ -73.756545, 40.755959 ] } },
{ "type": "Feature", "properties": { "resource_id": "facdb:7f62d47369f84e57a9cac92e2155ed49", "name": "Linnaeus Park", "category": "parks-and-environment", "source": "facdb", "is_coad_member": false }, "geometry": { "type": "Point", "coordinates": [ -73.750744, 40.753806 ] } },
{ "type": "Feature", "properties": { "resource_id": "facdb:805ab13302f0aedf3d58c8dc0a2aef8a", "name": "Park", "category": "parks-and-environment", "source": "facdb", "is_coad_member": false }, "geometry": { "type": "Point", "coordinates": [ -73.737089, 40.758796 ] } },
{ "type": "Feature", "properties": { "resource_id": "facdb:82b58f76f2d63f69b498e4646c548aa9", "name": "Bayside Fields", "category": "parks-and-environment", "source": "facdb", "is_coad_member": false }, "geometry": { "type": "Point", "coordinates": [ -73.78437, 40.771555 ] } },
{ "type": "Feature", "properties": { "resource_id": "facdb:82c39b7e0931cafca4f9499d1a64767a", "name": "Getting Out and Staying Out Inc", "category": "children-and-youth", "source": "facdb", "is_coad_member": false }, "geometry": { "type": "Point", "coordinates": [ -73.76683, 40.745087 ] } },
{ "type": "Feature", "properties": { "resource_id": "facdb:83f1df0777dffa106f70b6491a5ce4cf", "name": "NYC Parks-Marie Curie Mini Pool", "category": "children-and-youth", "source": "facdb", "is_coad_member": false }, "geometry": { "type": "Point", "coordinates": [ -73.770839, 40.757604 ] } },
{ "type": "Feature", "properties": { "resource_id": "facdb:85d4c09cc811b219c07525fe075d3ddb", "name": "Usda-Ceo P224Q at MS 158 Marie Curie", "category": "children-and-youth", "source": "facdb", "is_coad_member": false }, "geometry": { "type": "Point", "coordinates": [ -73.772336, 40.756291 ] } },
{ "type": "Feature", "properties": { "resource_id": "facdb:88df3b62fcaa09be02011c1cc757e02d", "name": "Samuel Field Ym/Ywha : Sam Field", "category": "food-assistance", "source": "facdb", "is_coad_member": false }, "geometry": { "type": "Point", "coordinates": [ -73.722875, 40.761336 ] } },
{ "type": "Feature", "properties": { "resource_id": "facdb:8c22b10baac1ec3f8f3ad5312386d9a4", "name": "Van Wyck, Cornelius, House", "category": "parks-and-environment", "source": "facdb", "is_coad_member": false }, "geometry": { "type": "Point", "coordinates": [ -73.752712, 40.773171 ] } },
{ "type": "Feature", "properties": { "resource_id": "facdb:8e6df4d5702276aa2f05a5cf1fa03c59", "name": "Quintet of the Americas, Inc.", "category": "libraries-and-community", "source": "facdb", "is_coad_member": false }, "geometry": { "type": "Point", "coordinates": [ -73.747238, 40.771757 ] } },
{ "type": "Feature", "properties": { "resource_id": "facdb:8f54e248244a2642e1e2703615191f39", "name": "Bayside", "category": "libraries-and-community", "source": "facdb", "is_coad_member": false }, "geometry": { "type": "Point", "coordinates": [ -73.768362, 40.760134 ] } },
{ "type": "Feature", "properties": { "resource_id": "facdb:8f852ac2394b0d976b3abe4d8c8d1ba6", "name": "Douglaston Park Golf Course", "category": "parks-and-environment", "source": "facdb", "is_coad_member": false }, "geometry": { "type": "Point", "coordinates": [ -73.730098, 40.754771 ] } },
{ "type": "Feature", "properties": { "resource_id": "facdb:94b6ae6ae827eda0ec4d38fa5186ff2e", "name": "Main Street Radiology at Bayside LLC", "category": "health-care", "source": "facdb", "is_coad_member": false }, "geometry": { "type": "Point", "coordinates": [ -73.791333, 40.768795 ] } },
{ "type": "Feature", "properties": { "resource_id": "facdb:958e6dea9c2f6779f1d2be8e7a83f6a4", "name": "Udall's Cove and Ravine Natural Resource Area", "category": "parks-and-environment", "source": "facdb", "is_coad_member": false }, "geometry": { "type": "Point", "coordinates": [ -73.745372, 40.776872 ] } },
{ "type": "Feature", "properties": { "resource_id": "facdb:95d3aa02d8f5754ee99f5ee006d7df59", "name": "Nassau Mall", "category": "parks-and-environment", "source": "facdb", "is_coad_member": false }, "geometry": { "type": "Point", "coordinates": [ -73.724804, 40.76474 ] } },
{ "type": "Feature", "properties": { "resource_id": "facdb:9753f10cbd157d1f4a2df48bef1ff357", "name": "St. Mary's Hospital for Children", "category": "health-care", "source": "facdb", "is_coad_member": false }, "geometry": { "type": "Point", "coordinates": [ -73.768516, 40.776575 ] } },
{ "type": "Feature", "properties": { "resource_id": "facdb:9aa7a711fc1df21470e34e7b27edd2a0", "name": "Queensborough Community College", "category": "children-and-youth", "source": "facdb", "is_coad_member": false }, "geometry": { "type": "Point", "coordinates": [ -73.756545, 40.755959 ] } },
{ "type": "Feature", "properties": { "resource_id": "facdb:9ad5f13a1fe1b5374b67d52ea14890f4", "name": "Partnership to Support Aging in Place ? Geriatric Services", "category": "mental-health-and-recovery", "source": "facdb", "is_coad_member": false }, "geometry": { "type": "Point", "coordinates": [ -73.723119, 40.760345 ] } },
{ "type": "Feature", "properties": { "resource_id": "facdb:9c8de5a785e581b9c30ef8fae82757e8", "name": "Raymond O’Connor Park", "category": "parks-and-environment", "source": "facdb", "is_coad_member": false }, "geometry": { "type": "Point", "coordinates": [ -73.779335, 40.771713 ] } },
{ "type": "Feature", "properties": { "resource_id": "facdb:9d814f8f5737c82bfb8be0f0c231e183", "name": "John Golden Park", "category": "parks-and-environment", "source": "facdb", "is_coad_member": false }, "geometry": { "type": "Point", "coordinates": [ -73.768235, 40.773887 ] } },
{ "type": "Feature", "properties": { "resource_id": "facdb:a08fe7aee795e36aa78f99201c6fb1ed", "name": "International School of Permanent Ma", "category": "education-and-jobs", "source": "facdb", "is_coad_member": false }, "geometry": { "type": "Point", "coordinates": [ -73.787146, 40.758155 ] } },
{ "type": "Feature", "properties": { "resource_id": "facdb:a334a3beca91c0208977a445ebb977d0", "name": "Commonpoint Queens", "category": "older-adults", "source": "facdb", "is_coad_member": false }, "geometry": { "type": "Point", "coordinates": [ -73.730666, 40.759408 ] } },
{ "type": "Feature", "properties": { "resource_id": "facdb:a6ce8416b160382edeee9e93cc4a85b1", "name": "P.S. 41 Crocheron", "category": "children-and-youth", "source": "facdb", "is_coad_member": false }, "geometry": { "type": "Point", "coordinates": [ -73.771164, 40.770269 ] } },
{ "type": "Feature", "properties": { "resource_id": "facdb:a89c3a55fd9cb9c32f8e676eca81c61f", "name": "Clearview Dialysis", "category": "health-care", "source": "facdb", "is_coad_member": false }, "geometry": { "type": "Point", "coordinates": [ -73.782474, 40.754892 ] } },
{ "type": "Feature", "properties": { "resource_id": "facdb:a97f7a6b7d7c969486621e105bb223ec", "name": "Douglaston Station Plaza", "category": "parks-and-environment", "source": "facdb", "is_coad_member": false }, "geometry": { "type": "Point", "coordinates": [ -73.749084, 40.768649 ] } },
{ "type": "Feature", "properties": { "resource_id": "facdb:a9cb34bb249705dbfa1c5cd0a8adb891", "name": "P.S. Q224", "category": "children-and-youth", "source": "facdb", "is_coad_member": false }, "geometry": { "type": "Point", "coordinates": [ -73.763668, 40.770557 ] } },
{ "type": "Feature", "properties": { "resource_id": "facdb:aa3b9725a28edbca97e004d8792d396b", "name": "Liberty Partnerships Program", "category": "children-and-youth", "source": "facdb", "is_coad_member": false }, "geometry": { "type": "Point", "coordinates": [ -73.756545, 40.755959 ] } },
{ "type": "Feature", "properties": { "resource_id": "facdb:aa7b090d69ef84ec7f79212b692d6560", "name": "Community Advisory Program for the Elderly", "category": "mental-health-and-recovery", "source": "facdb", "is_coad_member": false }, "geometry": { "type": "Point", "coordinates": [ -73.723119, 40.760345 ] } },
{ "type": "Feature", "properties": { "resource_id": "facdb:aabf65dd33c518316f99411f56914952", "name": "Park", "category": "parks-and-environment", "source": "facdb", "is_coad_member": false }, "geometry": { "type": "Point", "coordinates": [ -73.738682, 40.757814 ] } },
{ "type": "Feature", "properties": { "resource_id": "facdb:ab62dd9460d8240a452acbacf8dc5074", "name": "Nyp/Queens Trude Weishaupt Memorial Satellite Dialysis Center", "category": "health-care", "source": "facdb", "is_coad_member": false }, "geometry": { "type": "Point", "coordinates": [ -73.79611, 40.739387 ] } },
{ "type": "Feature", "properties": { "resource_id": "facdb:ace74961165517cb1a09db3574d7bed8", "name": "Nyp/Queens Developmental Disability, Neuro Science Center and Pediatric Asthma Center", "category": "health-care", "source": "facdb", "is_coad_member": false }, "geometry": { "type": "Point", "coordinates": [ -73.796371, 40.739848 ] } },
{ "type": "Feature", "properties": { "resource_id": "facdb:adf2266a30847fc2d14cb16f7ca2ac5c", "name": "Qsac Inc", "category": "disability-and-access", "source": "facdb", "is_coad_member": false }, "geometry": { "type": "Point", "coordinates": [ -73.787332, 40.743274 ] } },
{ "type": "Feature", "properties": { "resource_id": "facdb:ae15775bca0e79afd6e9048b58676dfd", "name": "Crocheron Park", "category": "parks-and-environment", "source": "facdb", "is_coad_member": false }, "geometry": { "type": "Point", "coordinates": [ -73.767553, 40.771532 ] } },
{ "type": "Feature", "properties": { "resource_id": "facdb:b3144d73c26d7102933f76316e1700cd", "name": "Scmc Summer Camp", "category": "children-and-youth", "source": "facdb", "is_coad_member": false }, "geometry": { "type": "Point", "coordinates": [ -73.738373, 40.768511 ] } },
{ "type": "Feature", "properties": { "resource_id": "facdb:b5b56f32819c98f0a83fbec4aa646392", "name": "Motor Parkway", "category": "parks-and-environment", "source": "facdb", "is_coad_member": false }, "geometry": { "type": "Point", "coordinates": [ -73.753579, 40.737021 ] } },
{ "type": "Feature", "properties": { "resource_id": "facdb:b626eb00b2e764f92ba04a0e5c504311", "name": "Chinese Writers Association of New York", "category": "libraries-and-community", "source": "facdb", "is_coad_member": false }, "geometry": { "type": "Point", "coordinates": [ -73.790413, 40.753755 ] } },
{ "type": "Feature", "properties": { "resource_id": "facdb:b955c51e24bc6e409728ca696aef2fbc", "name": "Alley Pond Environmental Center Inc", "category": "children-and-youth", "source": "facdb", "is_coad_member": false }, "geometry": { "type": "Point", "coordinates": [ -73.752311, 40.762262 ] } },
{ "type": "Feature", "properties": { "resource_id": "facdb:bad9044e8b9d0a7dedee3d1be6eae02a", "name": "Nyp/Queens Cardiac Health Center", "category": "health-care", "source": "facdb", "is_coad_member": false }, "geometry": { "type": "Point", "coordinates": [ -73.79515, 40.739056 ] } },
{ "type": "Feature", "properties": { "resource_id": "facdb:bbca73d25b5530d2deefae94f66afe07", "name": "Shin Kwang Church Summer School", "category": "children-and-youth", "source": "facdb", "is_coad_member": false }, "geometry": { "type": "Point", "coordinates": [ -73.773775, 40.770791 ] } },
{ "type": "Feature", "properties": { "resource_id": "facdb:bc177d69b0e7e1a675b305ff83c6e1d5", "name": "Windsor Park", "category": "libraries-and-community", "source": "facdb", "is_coad_member": false }, "geometry": { "type": "Point", "coordinates": [ -73.755686, 40.734497 ] } },
{ "type": "Feature", "properties": { "resource_id": "facdb:bd20ecb57a5d126a89d27e01a6aa2a93", "name": "Glenwood Landing", "category": "parks-and-environment", "source": "facdb", "is_coad_member": false }, "geometry": { "type": "Point", "coordinates": [ -73.739973, 40.775095 ] } },
{ "type": "Feature", "properties": { "resource_id": "facdb:bd4d5eff8e8422e0f47b3661df7957dc", "name": "Queensborough Comm Coll", "category": "education-and-jobs", "source": "facdb", "is_coad_member": false }, "geometry": { "type": "Point", "coordinates": [ -73.756545, 40.755959 ] } },
{ "type": "Feature", "properties": { "resource_id": "facdb:bd57ba680331a2f20f543c3db267e6c5", "name": "Udall's Cove and Ravine Natural Resource Area", "category": "parks-and-environment", "source": "facdb", "is_coad_member": false }, "geometry": { "type": "Point", "coordinates": [ -73.743712, 40.770389 ] } },
{ "type": "Feature", "properties": { "resource_id": "facdb:c40e8d75a9ccfd96b7e253c813861e94", "name": "Alley Pond Park", "category": "parks-and-environment", "source": "facdb", "is_coad_member": false }, "geometry": { "type": "Point", "coordinates": [ -73.746864, 40.75361 ] } },
{ "type": "Feature", "properties": { "resource_id": "facdb:c5869da66aa97f746511f6b3c7703549", "name": "Park", "category": "parks-and-environment", "source": "facdb", "is_coad_member": false }, "geometry": { "type": "Point", "coordinates": [ -73.73558, 40.759672 ] } },
{ "type": "Feature", "properties": { "resource_id": "facdb:c7008b677b5763921b8827518b739fc7", "name": "Leaders Day Camp at PS 162", "category": "children-and-youth", "source": "facdb", "is_coad_member": false }, "geometry": { "type": "Point", "coordinates": [ -73.788362, 40.754296 ] } },
{ "type": "Feature", "properties": { "resource_id": "facdb:c7c219900f23c24ae791a63f5b519159", "name": "Korean Community Services of Metropolitan New York", "category": "children-and-youth", "source": "facdb", "is_coad_member": false }, "geometry": { "type": "Point", "coordinates": [ -73.786482, 40.771017 ] } },
{ "type": "Feature", "properties": { "resource_id": "facdb:c812064f05ba1cc183cb413c9ab08a9b", "name": "Fms-Bayside Dialysis Center", "category": "health-care", "source": "facdb", "is_coad_member": false }, "geometry": { "type": "Point", "coordinates": [ -73.781608, 40.757357 ] } },
{ "type": "Feature", "properties": { "resource_id": "facdb:c8edb6d0a13d6da0824e013dffe47053", "name": "Samuel Field YM & YWHA Inc", "category": "children-and-youth", "source": "facdb", "is_coad_member": false }, "geometry": { "type": "Point", "coordinates": [ -73.772336, 40.756291 ] } },
{ "type": "Feature", "properties": { "resource_id": "facdb:cb4bb09f608323d77cf85fe5c7dff1e3", "name": "Bayside Methodist Church (Elite Skil", "category": "children-and-youth", "source": "facdb", "is_coad_member": false }, "geometry": { "type": "Point", "coordinates": [ -73.77261, 40.765762 ] } },
{ "type": "Feature", "properties": { "resource_id": "facdb:cb4cbb0648954bf37c6094e8e9dd3bee", "name": "Long Island Motor Parkway", "category": "parks-and-environment", "source": "facdb", "is_coad_member": false }, "geometry": { "type": "Point", "coordinates": [ -73.754158, 40.737527 ] } },
{ "type": "Feature", "properties": { "resource_id": "facdb:cc4e1aeb37560574ce198f41df2e5840", "name": "I.S. 29 Adrien Block", "category": "children-and-youth", "source": "facdb", "is_coad_member": false }, "geometry": { "type": "Point", "coordinates": [ -73.789703, 40.764996 ] } },
{ "type": "Feature", "properties": { "resource_id": "facdb:cd0100e0635691a0feaf7da5df68dabc", "name": "Ozanam Hall of Queens Nursing Home Inc", "category": "health-care", "source": "facdb", "is_coad_member": false }, "geometry": { "type": "Point", "coordinates": [ -73.782218, 40.758729 ] } },
{ "type": "Feature", "properties": { "resource_id": "facdb:cd5cc333a5eaa0522e067300d6caeb27", "name": "St Mary's School Infant & Child Care", "category": "education-and-jobs", "source": "facdb", "is_coad_member": false }, "geometry": { "type": "Point", "coordinates": [ -73.768516, 40.776575 ] } },
{ "type": "Feature", "properties": { "resource_id": "facdb:cf8f9627536ce1debb9006f8fc8b7179", "name": "Chabad Early Learning Center", "category": "children-and-youth", "source": "facdb", "is_coad_member": false }, "geometry": { "type": "Point", "coordinates": [ -73.777309, 40.778014 ] } },
{ "type": "Feature", "properties": { "resource_id": "facdb:d0586c363ffe7e249d56852cb336af37", "name": "U.S. Renal Care North Flushing Dialysis", "category": "health-care", "source": "facdb", "is_coad_member": false }, "geometry": { "type": "Point", "coordinates": [ -73.794363, 40.772241 ] } },
{ "type": "Feature", "properties": { "resource_id": "facdb:d0be5b24db5b1c133824d2a03646e38a", "name": "Comm Bd 11", "category": "government-offices", "source": "facdb", "is_coad_member": false }, "geometry": { "type": "Point", "coordinates": [ -73.733656, 40.770416 ] } },
{ "type": "Feature", "properties": { "resource_id": "facdb:d4de489b159062a6c8ab74a08aebe8ac", "name": "Udall's Park Preserve", "category": "parks-and-environment", "source": "facdb", "is_coad_member": false }, "geometry": { "type": "Point", "coordinates": [ -73.744588, 40.774764 ] } },
{ "type": "Feature", "properties": { "resource_id": "facdb:d676796ff4f28e191aba6ce7f6dc080d", "name": "East Flushing", "category": "libraries-and-community", "source": "facdb", "is_coad_member": false }, "geometry": { "type": "Point", "coordinates": [ -73.784307, 40.757553 ] } },
{ "type": "Feature", "properties": { "resource_id": "facdb:d68cee551f4b0eb3dea1a43c4e5fe7a9", "name": "Battalion 53/ENGINE 326/LADDER 160", "category": "emergency-services", "source": "facdb", "is_coad_member": false }, "geometry": { "type": "Point", "coordinates": [ -73.756024, 40.74705 ] } },
{ "type": "Feature", "properties": { "resource_id": "facdb:ddb56ef91db532b8217d5b6112bf0cf2", "name": "Commonpoint Queens", "category": "older-adults", "source": "facdb", "is_coad_member": false }, "geometry": { "type": "Point", "coordinates": [ -73.723279, 40.760825 ] } },
{ "type": "Feature", "properties": { "resource_id": "facdb:de0eb73338b532f6b4cbb261d02f0828", "name": "Bell Malls", "category": "parks-and-environment", "source": "facdb", "is_coad_member": false }, "geometry": { "type": "Point", "coordinates": [ -73.76414, 40.75176 ] } },
{ "type": "Feature", "properties": { "resource_id": "facdb:deb9512a3d1392da4c5577cd50b18a9c", "name": "Main Street Radiology at Bayside", "category": "health-care", "source": "facdb", "is_coad_member": false }, "geometry": { "type": "Point", "coordinates": [ -73.782657, 40.757266 ] } },
{ "type": "Feature", "properties": { "resource_id": "facdb:e02299f6f6f9ce906fdd3d0624ccf57f", "name": "Telephone Playground", "category": "parks-and-environment", "source": "facdb", "is_coad_member": false }, "geometry": { "type": "Point", "coordinates": [ -73.756249, 40.737768 ] } },
{ "type": "Feature", "properties": { "resource_id": "facdb:e0335007387dac0e2ad2bb02f63a11ff", "name": "Korean Community Services of Metropolitan New York", "category": "children-and-youth", "source": "facdb", "is_coad_member": false }, "geometry": { "type": "Point", "coordinates": [ -73.786482, 40.771017 ] } },
{ "type": "Feature", "properties": { "resource_id": "facdb:e05570f3ca657f756580ef6251aa2f12", "name": "Samuel Field Ym-Ywha of Greater NYC", "category": "disability-and-access", "source": "facdb", "is_coad_member": false }, "geometry": { "type": "Point", "coordinates": [ -73.723279, 40.760825 ] } },
{ "type": "Feature", "properties": { "resource_id": "facdb:e20253f853da6d45264b158c8db2ec35", "name": "Park", "category": "parks-and-environment", "source": "facdb", "is_coad_member": false }, "geometry": { "type": "Point", "coordinates": [ -73.775908, 40.754721 ] } },
{ "type": "Feature", "properties": { "resource_id": "facdb:e515f80ff5af128aa5622122b97158ba", "name": "Engine 306", "category": "emergency-services", "source": "facdb", "is_coad_member": false }, "geometry": { "type": "Point", "coordinates": [ -73.769743, 40.763919 ] } },
{ "type": "Feature", "properties": { "resource_id": "facdb:e5c003117b068df3ab1e4eadbb7695c7", "name": "Louis Pasteur Park", "category": "parks-and-environment", "source": "facdb", "is_coad_member": false }, "geometry": { "type": "Point", "coordinates": [ -73.734444, 40.762502 ] } },
{ "type": "Feature", "properties": { "resource_id": "facdb:e64e5e46d2d74da37716686b96f00358", "name": "The Child Center of NY Inc", "category": "children-and-youth", "source": "facdb", "is_coad_member": false }, "geometry": { "type": "Point", "coordinates": [ -73.76683, 40.745087 ] } },
{ "type": "Feature", "properties": { "resource_id": "facdb:ee68a03fc91f96f3426642a1a3d16a3a", "name": "Harvest Summer Center", "category": "children-and-youth", "source": "facdb", "is_coad_member": false }, "geometry": { "type": "Point", "coordinates": [ -73.724935, 40.76673 ] } },
{ "type": "Feature", "properties": { "resource_id": "facdb:ee73cb395eefc5cb5c029c7ebee21eae", "name": "Camp Oak at P203", "category": "children-and-youth", "source": "facdb", "is_coad_member": false }, "geometry": { "type": "Point", "coordinates": [ -73.760581, 40.75422 ] } },
{ "type": "Feature", "properties": { "resource_id": "facdb:f05387d50fc4d0e7489221f723aafe00", "name": "Victory Fields Forest Park", "category": "children-and-youth", "source": "facdb", "is_coad_member": false }, "geometry": { "type": "Point", "coordinates": [ -73.795015, 40.73977 ] } },
{ "type": "Feature", "properties": { "resource_id": "facdb:f0c41a9de55b4f7d137e6654daf65c02", "name": "J.H.S. 74 Nathaniel Hawthorne", "category": "children-and-youth", "source": "facdb", "is_coad_member": false }, "geometry": { "type": "Point", "coordinates": [ -73.76683, 40.745087 ] } },
{ "type": "Feature", "properties": { "resource_id": "facdb:f42012efff7096542739b70fe7ca1e80", "name": "Douglaston/Little Neck", "category": "libraries-and-community", "source": "facdb", "is_coad_member": false }, "geometry": { "type": "Point", "coordinates": [ -73.738236, 40.76823 ] } },
{ "type": "Feature", "properties": { "resource_id": "facdb:f68aedbf2c02df9869017a248b8e5a31", "name": "Affirmative Business Bookstore", "category": "mental-health-and-recovery", "source": "facdb", "is_coad_member": false }, "geometry": { "type": "Point", "coordinates": [ -73.77161, 40.76479 ] } },
{ "type": "Feature", "properties": { "resource_id": "facdb:f6deb33bf3e5ddc11bf0c457d2d1218b", "name": "Samuel Field YM & YWHA Inc", "category": "children-and-youth", "source": "facdb", "is_coad_member": false }, "geometry": { "type": "Point", "coordinates": [ -73.723279, 40.760825 ] } },
{ "type": "Feature", "properties": { "resource_id": "facdb:f71914b7a0c46d29e92342c1c2e72103", "name": "Transitional Services for New York, Inc", "category": "mental-health-and-recovery", "source": "facdb", "is_coad_member": false }, "geometry": { "type": "Point", "coordinates": [ -73.771332, 40.764894 ] } },
{ "type": "Feature", "properties": { "resource_id": "facdb:fbe9408c30928969ff5ac8d94a7827bf", "name": "Sol Zim Jewish Enrichment Music Foundation, Inc.", "category": "libraries-and-community", "source": "facdb", "is_coad_member": false }, "geometry": { "type": "Point", "coordinates": [ -73.755475, 40.729081 ] } },
{ "type": "Feature", "properties": { "resource_id": "facdb:fc183e16dffbb4d6b0c6bcc145c878d4", "name": "NYC Parks-Bowne Park", "category": "children-and-youth", "source": "facdb", "is_coad_member": false }, "geometry": { "type": "Point", "coordinates": [ -73.773285, 40.76407 ] } },
{ "type": "Feature", "properties": { "resource_id": "facdb:fcba190efe68d377e9b96222bbbe4caf", "name": "Camp Gan Israel of Bayside", "category": "children-and-youth", "source": "facdb", "is_coad_member": false }, "geometry": { "type": "Point", "coordinates": [ -73.759807, 40.742458 ] } },
{ "type": "Feature", "properties": { "resource_id": "facdb:fd56d41f325ae17d8276c39cf7717989", "name": "Nyp/Queens Primary Care Center", "category": "health-care", "source": "facdb", "is_coad_member": false }, "geometry": { "type": "Point", "coordinates": [ -73.791532, 40.740033 ] } },
{ "type": "Feature", "properties": { "resource_id": "facdb:fde5e6168a0ccc996cd42de9dbb59960", "name": "Global Chinese Program, Inc.", "category": "children-and-youth", "source": "facdb", "is_coad_member": false }, "geometry": { "type": "Point", "coordinates": [ -73.772505, 40.767824 ] } },
{ "type": "Feature", "properties": { "resource_id": "facdb:fe8fd0de3909a50bc2219d1213e45f55", "name": "Queens Library-Bayside", "category": "children-and-youth", "source": "facdb", "is_coad_member": false }, "geometry": { "type": "Point", "coordinates": [ -73.768362, 40.760134 ] } },
{ "type": "Feature", "properties": { "resource_id": "facdb:fea1369af056bce21d28eebe0441d475", "name": "Samuel Field YM & YWHA Inc", "category": "health-care", "source": "facdb", "is_coad_member": false }, "geometry": { "type": "Point", "coordinates": [ -73.723279, 40.760825 ] } },
{ "type": "Feature", "properties": { "resource_id": "qnpd:alley-pond-environmental-center-inc", "name": "Alley Pond Environmental Center, Inc", "category": "education-and-jobs", "source": "qnpd", "is_coad_member": false }, "geometry": { "type": "Point", "coordinates": [ -73.738635, 40.766907 ] } },
{ "type": "Feature", "properties": { "resource_id": "qnpd:commonpoint-ny", "name": "Commonpoint NY", "category": "benefits-and-legal", "source": "qnpd", "is_coad_member": false }, "geometry": { "type": "Point", "coordinates": [ -73.723266, 40.760862 ] } },
{ "type": "Feature", "properties": { "resource_id": "qnpd:friends-of-crocheron-john-golden-park", "name": "Friends of Crocheron & John Golden Park", "category": "parks-and-environment", "source": "qnpd", "is_coad_member": false }, "geometry": { "type": "Point", "coordinates": [ -73.758252, 40.753774 ] } },
{ "type": "Feature", "properties": { "resource_id": "qnpd:korean-american-youth-choir-of-new-york", "name": "Korean American Youth Choir of New York", "category": "libraries-and-community", "source": "qnpd", "is_coad_member": false }, "geometry": { "type": "Point", "coordinates": [ -73.740771, 40.773117 ] } },
{ "type": "Feature", "properties": { "resource_id": "qnpd:little-neck-douglaston-community-ambulance-corps-inc-lndcac", "name": "Little Neck-Douglaston Community Ambulance Corps, Inc. (LNDCAC)", "category": "health-care", "source": "qnpd", "is_coad_member": false }, "geometry": { "type": "Point", "coordinates": [ -73.738991, 40.770245 ] } },
{ "type": "Feature", "properties": { "resource_id": "qnpd:living-faith-community-development-corporation--1", "name": "Living Faith Community Development Corporation", "category": "children-and-youth", "source": "qnpd", "is_coad_member": false }, "geometry": { "type": "Point", "coordinates": [ -73.747549, 40.735838 ] } },
{ "type": "Feature", "properties": { "resource_id": "qnpd:living-faith-community-development-corporation--2", "name": "Living Faith Community Development Corporation", "category": "food-assistance", "source": "qnpd", "is_coad_member": false }, "geometry": { "type": "Point", "coordinates": [ -73.747549, 40.735838 ] } }
]
}
