{
"type": "FeatureCollection",
"name": "q13",
"features": [
{ "type": "Feature", "properties": { "resource_id": "facdb:0130a80b8ec969e75e57bce4dcafbf69", "name": "Queens Upper School Day Treatment", "category": "mental-health-and-recovery", "source": "facdb", "is_coad_member": false }, "geometry": { "type": "Point", "coordinates": [ -73.725707, 40.745696 ] } },
{ "type": "Feature", "properties": { "resource_id": "facdb:0262f0ce25b9158e6a398718db3cc11e", "name": "Queens Intensive Day Treatment", "category": "mental-health-and-recovery", "source": "facdb", "is_coad_member": false }, "geometry": { "type": "Point", "coordinates": [ -73.725707, 40.745696 ] } },
{ "type": "Feature", "properties": { "resource_id": "facdb:0360f9133912ab54602db090779ca0d4", "name": "Vets Inc", "category": "children-and-youth", "source": "facdb", "is_coad_member": false }, "geometry": { "type": "Point", "coordinates": [ -73.756616, 40.668094 ] } },
{ "type": "Feature", "properties": { "resource_id": "facdb:0419fd0f6e9cbe1814922417a8a0887f", "name": "Divas for Social Justice", "category": "libraries-and-community", "source": "facdb", "is_coad_member": false }, "geometry": { "type": "Point", "coordinates": [ -73.739686, 40.679861 ] } },
{ "type": "Feature", "properties": { "resource_id": "facdb:0469e024f4588ba919359e24921798eb", "name": "Glen Oaks Oval", "category": "parks-and-environment", "source": "facdb", "is_coad_member": false }, "geometry": { "type": "Point", "coordinates": [ -73.715626, 40.749534 ] } },
{ "type": "Feature", "properties": { "resource_id": "facdb:068334d23b99eebf44049ba63d0c69ac", "name": "Devoted Parents Association", "category": "children-and-youth", "source": "facdb", "is_coad_member": false }, "geometry": { "type": "Point", "coordinates": [ -73.735999, 40.66932 ] } },
{ "type": "Feature", "properties": { "resource_id": "facdb:0831fcbd74acc6c5a81d8f4963fb5d3e", "name": "Brookville Park", "category": "children-and-youth", "source": "facdb", "is_coad_member": false }, "geometry": { "type": "Point", "coordinates": [ -73.731655, 40.681027 ] } },
{ "type": "Feature", "properties": { "resource_id": "facdb:092a5d21a4d433c7b1de9c8f30139d83", "name": "Rosedale 105 Site B", "category": "benefits-and-legal", "source": "facdb", "is_coad_member": false }, "geometry": { "type": "Point", "coordinates": [ -73.740323, 40.659373 ] } },
{ "type": "Feature", "properties": { "resource_id": "facdb:0933a926580f4c408adb82b5c6d0380f", "name": "One Way Church of Christ : One Way Church of Christ", "category": "food-assistance", "source": "facdb", "is_coad_member": false }, "geometry": { "type": "Point", "coordinates": [ -73.752276, 40.680237 ] } },
{ "type": "Feature", "properties": { "resource_id": "facdb:0c3744ea7bb0797455fe9224fd5ccc26", "name": "Services Now for Adult Persons Inc", "category": "older-adults", "source": "facdb", "is_coad_member": false }, "geometry": { "type": "Point", "coordinates": [ -73.732038, 40.674399 ] } },
{ "type": "Feature", "properties": { "resource_id": "facdb:0d54d51a5cfbff47dbdf8b323db42587", "name": "Institute for Health Professions at Cambria Heights", "category": "children-and-youth", "source": "facdb", "is_coad_member": false }, "geometry": { "type": "Point", "coordinates": [ -73.746214, 40.698409 ] } },
{ "type": "Feature", "properties": { "resource_id": "facdb:0dca446afbde7e343d42b5dcae0d639a", "name": "Community Youth Care Services, Inc.", "category": "children-and-youth", "source": "facdb", "is_coad_member": false }, "geometry": { "type": "Point", "coordinates": [ -73.72973, 40.6849 ] } },
{ "type": "Feature", "properties": { "resource_id": "facdb:0e7f5d9b84eabde00f2f20921c8a03a9", "name": "Queens High School of Teaching, Liberal Arts and the Sciences (26Q566)", "category": "children-and-youth", "source": "facdb", "is_coad_member": false }, "geometry": { "type": "Point", "coordinates": [ -73.728867, 40.744466 ] } },
{ "type": "Feature", "properties": { "resource_id": "facdb:0e857e9957f6193475bb622f4d0afbe9", "name": "Community Voices Middle School", "category": "children-and-youth", "source": "facdb", "is_coad_member": false }, "geometry": { "type": "Point", "coordinates": [ -73.759254, 40.665003 ] } },
{ "type": "Feature", "properties": { "resource_id": "facdb:0f22e171439244f528481ce7dd861674", "name": "Miele's Respite", "category": "mental-health-and-recovery", "source": "facdb", "is_coad_member": false }, "geometry": { "type": "Point", "coordinates": [ -73.728976, 40.737072 ] } },
{ "type": "Feature", "properties": { "resource_id": "facdb:1219657c5194ad89ccd3a5d4e8cbc123", "name": "Far Rockaway 101 Precinct", "category": "benefits-and-legal", "source": "facdb", "is_coad_member": false }, "geometry": { "type": "Point", "coordinates": [ -73.740323, 40.659373 ] } },
{ "type": "Feature", "properties": { "resource_id": "facdb:14632f84f0572573dd1caddaebe22cfc", "name": "Creative Jazz Organization", "category": "children-and-youth", "source": "facdb", "is_coad_member": false }, "geometry": { "type": "Point", "coordinates": [ -73.742377, 40.696079 ] } },
{ "type": "Feature", "properties": { "resource_id": "facdb:1475f570b5a5c96fdda4009f32bf2ecd", "name": "Haup Summer Camp Program", "category": "children-and-youth", "source": "facdb", "is_coad_member": false }, "geometry": { "type": "Point", "coordinates": [ -73.737692, 40.698497 ] } },
{ "type": "Feature", "properties": { "resource_id": "facdb:150f29e33619f12d653c660f188f5970", "name": "Long Island Jewish Medical Center Primary Care Extension Clinic", "category": "health-care", "source": "facdb", "is_coad_member": false }, "geometry": { "type": "Point", "coordinates": [ -73.715069, 40.745807 ] } },
{ "type": "Feature", "properties": { "resource_id": "facdb:16c12079294510593d3740c1ca7d53a7", "name": "Camp Gan Israel-Queens", "category": "children-and-youth", "source": "facdb", "is_coad_member": false }, "geometry": { "type": "Point", "coordinates": [ -73.716427, 40.744283 ] } },
{ "type": "Feature", "properties": { "resource_id": "facdb:17f8f94a4d8e6f85726320a78c976c7a", "name": "Delphin H. Greene Playground", "category": "parks-and-environment", "source": "facdb", "is_coad_member": false }, "geometry": { "type": "Point", "coordinates": [ -73.72973, 40.6849 ] } },
{ "type": "Feature", "properties": { "resource_id": "facdb:1b735f84de56df34b5d593b184bf119b", "name": "Creedmoor Act Program", "category": "mental-health-and-recovery", "source": "facdb", "is_coad_member": false }, "geometry": { "type": "Point", "coordinates": [ -73.731513, 40.741398 ] } },
{ "type": "Feature", "properties": { "resource_id": "facdb:1c07e92d771dc3fe41d73734219f3fb8", "name": "Queens Library-Cambria Heights", "category": "children-and-youth", "source": "facdb", "is_coad_member": false }, "geometry": { "type": "Point", "coordinates": [ -73.741137, 40.695745 ] } },
{ "type": "Feature", "properties": { "resource_id": "facdb:1cfb3862fd03f3c9dcdcb37ef171f669", "name": "Samuel Field YM & YWHA Inc", "category": "children-and-youth", "source": "facdb", "is_coad_member": false }, "geometry": { "type": "Point", "coordinates": [ -73.728124, 40.745554 ] } },
{ "type": "Feature", "properties": { "resource_id": "facdb:1d13ebdc29cc653bf5a0df7429d01216", "name": "New York Edge Inc", "category": "children-and-youth", "source": "facdb", "is_coad_member": false }, "geometry": { "type": "Point", "coordinates": [ -73.759254, 40.665003 ] } },
{ "type": "Feature", "properties": { "resource_id": "facdb:1e49fe453de0e26ab8ad377f9eaf5dbc", "name": "Queensboro SDA Community Ser", "category": "children-and-youth", "source": "facdb", "is_coad_member": false }, "geometry": { "type": "Point", "coordinates": [ -73.731971, 40.718043 ] } },
{ "type": "Feature", "properties": { "resource_id": "facdb:1ef19748e8574e117027c3cdbd5a5a84", "name": "East Springfield Playground", "category": "parks-and-environment", "source": "facdb", "is_coad_member": false }, "geometry": { "type": "Point", "coordinates": [ -73.740363, 40.697616 ] } },
{ "type": "Feature", "properties": { "resource_id": "facdb:1f06e63e5fef303f84c4f56b96877ecd", "name": "Sara's Haven Mhotrs", "category": "mental-health-and-recovery", "source": "facdb", "is_coad_member": false }, "geometry": { "type": "Point", "coordinates": [ -73.73402, 40.67201 ] } },
{ "type": "Feature", "properties": { "resource_id": "facdb:1f2e5dc29ae65d0526e908e61db1c29a", "name": "Navatman", "category": "libraries-and-community", "source": "facdb", "is_coad_member": false }, "geometry": { "type": "Point", "coordinates": [ -73.709038, 40.750576 ] } },
{ "type": "Feature", "properties": { "resource_id": "facdb:1fca632f1ab498e1d0a9b2e7cfbd044e", "name": "Laurelton Community Garden of Resilience", "category": "parks-and-environment", "source": "facdb", "is_coad_member": false }, "geometry": { "type": "Point", "coordinates": [ -73.765601, 40.663583 ] } },
{ "type": "Feature", "properties": { "resource_id": "facdb:20dd58fd5c2cb507c5a3a833c23476ec", "name": "The Zucker Hillside Ambulatory Care Clinic", "category": "mental-health-and-recovery", "source": "facdb", "is_coad_member": false }, "geometry": { "type": "Point", "coordinates": [ -73.710727, 40.750737 ] } },
{ "type": "Feature", "properties": { "resource_id": "facdb:23e020e4f6176d07f2d07a07a6a10bf6", "name": "Queens Library-Laurelton", "category": "children-and-youth", "source": "facdb", "is_coad_member": false }, "geometry": { "type": "Point", "coordinates": [ -73.74567, 40.67696 ] } },
{ "type": "Feature", "properties": { "resource_id": "facdb:245df0f4425f990f56ab12dfbf4c4788", "name": "Black Spectrum Theater Company Inc", "category": "children-and-youth", "source": "facdb", "is_coad_member": false }, "geometry": { "type": "Point", "coordinates": [ -73.736246, 40.675075 ] } },
{ "type": "Feature", "properties": { "resource_id": "facdb:24f8133e28a978ce30899aa58ef62dfe", "name": "Nakks Malls", "category": "parks-and-environment", "source": "facdb", "is_coad_member": false }, "geometry": { "type": "Point", "coordinates": [ -73.742348, 40.708296 ] } },
{ "type": "Feature", "properties": { "resource_id": "facdb:255e0f8a6bc75d44b884263afc2401b8", "name": "Catholic Charities, Neighborhood Services Inc. : Ccns-Church of the Incarnation", "category": "food-assistance", "source": "facdb", "is_coad_member": false }, "geometry": { "type": "Point", "coordinates": [ -73.757118, 40.719143 ] } },
{ "type": "Feature", "properties": { "resource_id": "facdb:25a00c4fdf9846aee44fb453da1d409f", "name": "Northeastern Conference Adventist Community Svcs : Linden SDA Church Community Services", "category": "food-assistance", "source": "facdb", "is_coad_member": false }, "geometry": { "type": "Point", "coordinates": [ -73.743927, 40.672944 ] } },
{ "type": "Feature", "properties": { "resource_id": "facdb:2838b3b4dd0ee45073f0a7e049afaa85", "name": "Multicultural Youth Arts Program", "category": "libraries-and-community", "source": "facdb", "is_coad_member": false }, "geometry": { "type": "Point", "coordinates": [ -73.736656, 40.734223 ] } },
{ "type": "Feature", "properties": { "resource_id": "facdb:285bb1c757b6ff2f4a1aaa0dfbe20259", "name": "Welllife - Hh Cm", "category": "mental-health-and-recovery", "source": "facdb", "is_coad_member": false }, "geometry": { "type": "Point", "coordinates": [ -73.751212, 40.714939 ] } },
{ "type": "Feature", "properties": { "resource_id": "facdb:28c894151e35b084184dc60c4853a690", "name": "New York Edge Inc", "category": "children-and-youth", "source": "facdb", "is_coad_member": false }, "geometry": { "type": "Point", "coordinates": [ -73.746545, 40.720425 ] } },
{ "type": "Feature", "properties": { "resource_id": "facdb:28fa5a8cf414c1981a5c541e66e9ad03", "name": "Martin Van Buren High School (26Q435)", "category": "children-and-youth", "source": "facdb", "is_coad_member": false }, "geometry": { "type": "Point", "coordinates": [ -73.739232, 40.733778 ] } },
{ "type": "Feature", "properties": { "resource_id": "facdb:29a8bd394900bbf6dc9bb8df00dfd8ee", "name": "Central Intake", "category": "mental-health-and-recovery", "source": "facdb", "is_coad_member": false }, "geometry": { "type": "Point", "coordinates": [ -73.725707, 40.745696 ] } },
{ "type": "Feature", "properties": { "resource_id": "facdb:2b73e15c908e20d347b09793d92a8ba5", "name": "Long Island Jewish Medical Center", "category": "mental-health-and-recovery", "source": "facdb", "is_coad_member": false }, "geometry": { "type": "Point", "coordinates": [ -73.710727, 40.750737 ] } },
{ "type": "Feature", "properties": { "resource_id": "facdb:2bfc378d029ceabea94607f108ac0add", "name": "Step Day Camp", "category": "children-and-youth", "source": "facdb", "is_coad_member": false }, "geometry": { "type": "Point", "coordinates": [ -73.727451, 40.689895 ] } },
{ "type": "Feature", "properties": { "resource_id": "facdb:2ce137dfaacfd943370fd2fd7f611efe", "name": "Queens Adult Home Court Ordered In-Reach", "category": "mental-health-and-recovery", "source": "facdb", "is_coad_member": false }, "geometry": { "type": "Point", "coordinates": [ -73.72932, 40.7372 ] } },
{ "type": "Feature", "properties": { "resource_id": "facdb:2e3956d6e6a23105b644b8e817bbd65e", "name": "New York Edge Inc", "category": "children-and-youth", "source": "facdb", "is_coad_member": false }, "geometry": { "type": "Point", "coordinates": [ -73.731429, 40.72073 ] } },
{ "type": "Feature", "properties": { "resource_id": "facdb:34ce521a1a4d9b8f733fd061ff143dda", "name": "Delta Sigma Theta Sorority", "category": "children-and-youth", "source": "facdb", "is_coad_member": false }, "geometry": { "type": "Point", "coordinates": [ -73.736246, 40.675075 ] } },
{ "type": "Feature", "properties": { "resource_id": "facdb:356570a157cc9c7618ea9c00119161d1", "name": "Chabad of Northeastern Queens Inc", "category": "children-and-youth", "source": "facdb", "is_coad_member": false }, "geometry": { "type": "Point", "coordinates": [ -73.762342, 40.660826 ] } },
{ "type": "Feature", "properties": { "resource_id": "facdb:3678fe60c7aa46712336319d88988bb2", "name": "Castlewood Playground", "category": "parks-and-environment", "source": "facdb", "is_coad_member": false }, "geometry": { "type": "Point", "coordinates": [ -73.721767, 40.749504 ] } },
{ "type": "Feature", "properties": { "resource_id": "facdb:37ac3e2b06e356dc136b381ffff90712", "name": "Queensboro Temple", "category": "children-and-youth", "source": "facdb", "is_coad_member": false }, "geometry": { "type": "Point", "coordinates": [ -73.731971, 40.718043 ] } },
{ "type": "Feature", "properties": { "resource_id": "facdb:37f29736b03f8a42ad0ff6428f896567", "name": "Queens Tabernacle Church : Queens Tabernacle Church", "category": "food-assistance", "source": "facdb", "is_coad_member": false }, "geometry": { "type": "Point", "coordinates": [ -73.743449, 40.702718 ] } },
{ "type": "Feature", "properties": { "resource_id": "facdb:384c714a2d121a59321b81e5e7cce1d9", "name": "Agape Community Services Corporation", "category": "children-and-youth", "source": "facdb", "is_coad_member": false }, "geometry": { "type": "Point", "coordinates": [ -73.75568, 40.673951 ] } },
{ "type": "Feature", "properties": { "resource_id": "facdb:38757a7a1c4322256513c7d05d1ac486", "name": "Queens Farm Park", "category": "parks-and-environment", "source": "facdb", "is_coad_member": false }, "geometry": { "type": "Point", "coordinates": [ -73.720179, 40.748417 ] } },
{ "type": "Feature", "properties": { "resource_id": "facdb:3a6d667fe3370516e7267e319df54dc8", "name": "Springfield Dialysis Center", "category": "health-care", "source": "facdb", "is_coad_member": false }, "geometry": { "type": "Point", "coordinates": [ -73.753299, 40.679072 ] } },
{ "type": "Feature", "properties": { "resource_id": "facdb:3bcbe4ca227f49d960fbd0ac7dc7970f", "name": "Martin Van Buren High School (26Q435)", "category": "children-and-youth", "source": "facdb", "is_coad_member": false }, "geometry": { "type": "Point", "coordinates": [ -73.739232, 40.733778 ] } },
{ "type": "Feature", "properties": { "resource_id": "facdb:3c5f96656d821ccd599b8478d9b39bd6", "name": "Novo Dialysis Jamaica", "category": "health-care", "source": "facdb", "is_coad_member": false }, "geometry": { "type": "Point", "coordinates": [ -73.741218, 40.716654 ] } },
{ "type": "Feature", "properties": { "resource_id": "facdb:3e095255b0eba606d312cc63e1d5e23e", "name": "Engine 304/LADDER 162", "category": "emergency-services", "source": "facdb", "is_coad_member": false }, "geometry": { "type": "Point", "coordinates": [ -73.735982, 40.716842 ] } },
{ "type": "Feature", "properties": { "resource_id": "facdb:3e3bd6d6272e604a3226a74347d686a3", "name": "Brookville Park", "category": "parks-and-environment", "source": "facdb", "is_coad_member": false }, "geometry": { "type": "Point", "coordinates": [ -73.745642, 40.65954 ] } },
{ "type": "Feature", "properties": { "resource_id": "facdb:4057bb9f6a9b7fad5b921bdc3b25c6df", "name": "Daybreak at Queens Reformed Church", "category": "children-and-youth", "source": "facdb", "is_coad_member": false }, "geometry": { "type": "Point", "coordinates": [ -73.735186, 40.719237 ] } },
{ "type": "Feature", "properties": { "resource_id": "facdb:4346bebb6c8d64f291e4299f073073d2", "name": "Litchhult Square", "category": "parks-and-environment", "source": "facdb", "is_coad_member": false }, "geometry": { "type": "Point", "coordinates": [ -73.744868, 40.715955 ] } },
{ "type": "Feature", "properties": { "resource_id": "facdb:4385e082ba36bee90a55d7e212ea2e8f", "name": "Cambria Heights Community Church", "category": "children-and-youth", "source": "facdb", "is_coad_member": false }, "geometry": { "type": "Point", "coordinates": [ -73.739707, 40.696667 ] } },
{ "type": "Feature", "properties": { "resource_id": "facdb:43d2bfe4a935f85b0608e259f4ce524a", "name": "Queens-Long Island Renal Institute", "category": "health-care", "source": "facdb", "is_coad_member": false }, "geometry": { "type": "Point", "coordinates": [ -73.707539, 40.755615 ] } },
{ "type": "Feature", "properties": { "resource_id": "facdb:455152d0f43c57dd9d36a62557f6b9ae", "name": "Delta Sigma Theta Sorority", "category": "children-and-youth", "source": "facdb", "is_coad_member": false }, "geometry": { "type": "Point", "coordinates": [ -73.746214, 40.698409 ] } },
{ "type": "Feature", "properties": { "resource_id": "facdb:45927e99ad9ad773fefddad9d67ad3fb", "name": "Conduit Avenue Dialysis", "category": "health-care", "source": "facdb", "is_coad_member": false }, "geometry": { "type": "Point", "coordinates": [ -73.75741, 40.665335 ] } },
{ "type": "Feature", "properties": { "resource_id": "facdb:46e6d13e9c71bc3db5e9565f885c14af", "name": "Ps/Is 266 -Jewish Inst. of Queens", "category": "children-and-youth", "source": "facdb", "is_coad_member": false }, "geometry": { "type": "Point", "coordinates": [ -73.728124, 40.745554 ] } },
{ "type": "Feature", "properties": { "resource_id": "facdb:488d6428fe3a6a66eb704db03f3feb25", "name": "Saratoga Family Inn", "category": "children-and-youth", "source": "facdb", "is_coad_member": false }, "geometry": { "type": "Point", "coordinates": [ -73.769418, 40.657922 ] } },
{ "type": "Feature", "properties": { "resource_id": "facdb:4a013a577ac301c32896213229e0b92e", "name": "P.S./I.S. 266", "category": "children-and-youth", "source": "facdb", "is_coad_member": false }, "geometry": { "type": "Point", "coordinates": [ -73.728124, 40.745554 ] } },
{ "type": "Feature", "properties": { "resource_id": "facdb:4aa132b82715083fa0c4f06f59304633", "name": "The Greater Ridgewood Youth Council Inc", "category": "children-and-youth", "source": "facdb", "is_coad_member": false }, "geometry": { "type": "Point", "coordinates": [ -73.734462, 40.659887 ] } },
{ "type": "Feature", "properties": { "resource_id": "facdb:4b8e59f03d8f54e1ac5d17127782f3a4", "name": "Mouse Inc", "category": "children-and-youth", "source": "facdb", "is_coad_member": false }, "geometry": { "type": "Point", "coordinates": [ -73.736246, 40.675075 ] } },
{ "type": "Feature", "properties": { "resource_id": "facdb:4c7102d3858c508e719be1fabf5c776f", "name": "Springfield Park", "category": "parks-and-environment", "source": "facdb", "is_coad_member": false }, "geometry": { "type": "Point", "coordinates": [ -73.762342, 40.660826 ] } },
{ "type": "Feature", "properties": { "resource_id": "facdb:4d020a85598cae547abd4e2383ba0258", "name": "Queens Village Dialysis Center", "category": "health-care", "source": "facdb", "is_coad_member": false }, "geometry": { "type": "Point", "coordinates": [ -73.731741, 40.712017 ] } },
{ "type": "Feature", "properties": { "resource_id": "facdb:509f21d0fc261698f661d62aa41a2a2a", "name": "Breininger Park", "category": "children-and-youth", "source": "facdb", "is_coad_member": false }, "geometry": { "type": "Point", "coordinates": [ -73.74238, 40.721195 ] } },
{ "type": "Feature", "properties": { "resource_id": "facdb:50a5253205a66bb0bed546f26c5118a8", "name": "Engine 251", "category": "emergency-services", "source": "facdb", "is_coad_member": false }, "geometry": { "type": "Point", "coordinates": [ -73.716088, 40.744483 ] } },
{ "type": "Feature", "properties": { "resource_id": "facdb:527a4bd991664c29d41e49f9a8f3f1fd", "name": "Queens Library-Bellerose", "category": "children-and-youth", "source": "facdb", "is_coad_member": false }, "geometry": { "type": "Point", "coordinates": [ -73.717098, 40.735167 ] } },
{ "type": "Feature", "properties": { "resource_id": "facdb:5320ed82b0dbe1ec0b383268b140819f", "name": "Kickers Youth Sports Association of Southeast Queens Inc", "category": "children-and-youth", "source": "facdb", "is_coad_member": false }, "geometry": { "type": "Point", "coordinates": [ -73.749836, 40.670116 ] } },
{ "type": "Feature", "properties": { "resource_id": "facdb:53dc2c9fe2f6060f358b57c533024384", "name": "Divine Truth Ministry : Divine Truth Ministry", "category": "food-assistance", "source": "facdb", "is_coad_member": false }, "geometry": { "type": "Point", "coordinates": [ -73.742971, 40.714885 ] } },
{ "type": "Feature", "properties": { "resource_id": "facdb:5432b1b30793856daeed99d7a8d63d3c", "name": "Sunrise Playground", "category": "parks-and-environment", "source": "facdb", "is_coad_member": false }, "geometry": { "type": "Point", "coordinates": [ -73.735168, 40.65268 ] } },
{ "type": "Feature", "properties": { "resource_id": "facdb:54d3074cf530070bbbfb3f409a47b3e6", "name": "Northeastern Conference Adventist Community Svcs : Kerith SDA Church", "category": "food-assistance", "source": "facdb", "is_coad_member": false }, "geometry": { "type": "Point", "coordinates": [ -73.730863, 40.692393 ] } },
{ "type": "Feature", "properties": { "resource_id": "facdb:54f3a8127bdf57903fe5af7d2001a5cf", "name": "Queens Reform Church", "category": "government-offices", "source": "facdb", "is_coad_member": false }, "geometry": { "type": "Point", "coordinates": [ -73.735099, 40.719053 ] } },
{ "type": "Feature", "properties": { "resource_id": "facdb:551b52e1edeb645bbccb9f1395199761", "name": "Light House Baptist Church", "category": "children-and-youth", "source": "facdb", "is_coad_member": false }, "geometry": { "type": "Point", "coordinates": [ -73.74883, 40.6791 ] } },
{ "type": "Feature", "properties": { "resource_id": "facdb:5607497560592aa1fb3e84c1da9ea0ae", "name": "Fresenius Kidney Care - Queens Village", "category": "health-care", "source": "facdb", "is_coad_member": false }, "geometry": { "type": "Point", "coordinates": [ -73.74479, 40.730238 ] } },
{ "type": "Feature", "properties": { "resource_id": "facdb:57533d2de450599356fea58f1147480a", "name": "Playground Eighty Lxxx", "category": "parks-and-environment", "source": "facdb", "is_coad_member": false }, "geometry": { "type": "Point", "coordinates": [ -73.709554, 40.744648 ] } },
{ "type": "Feature", "properties": { "resource_id": "facdb:57807e09b6123d52c5641eb200738cd8", "name": "Camp Victory", "category": "children-and-youth", "source": "facdb", "is_coad_member": false }, "geometry": { "type": "Point", "coordinates": [ -73.746193, 40.715557 ] } },
{ "type": "Feature", "properties": { "resource_id": "facdb:5855162f0a119a8e7718493a32d65162", "name": "Saratoga Futurelink", "category": "children-and-youth", "source": "facdb", "is_coad_member": false }, "geometry": { "type": "Point", "coordinates": [ -73.769418, 40.657922 ] } },
{ "type": "Feature", "properties": { "resource_id": "facdb:5a17dbd37bfbf41a604d7dfbe9a26c96", "name": "Transitional Services for New York, Inc", "category": "mental-health-and-recovery", "source": "facdb", "is_coad_member": false }, "geometry": { "type": "Point", "coordinates": [ -73.728976, 40.737072 ] } },
{ "type": "Feature", "properties": { "resource_id": "facdb:5a8b18a8c1fd9dcb5c064e6864fb0c47", "name": "0230 - Bernard M. Fineson Ddso", "category": "disability-and-access", "source": "facdb", "is_coad_member": false }, "geometry": { "type": "Point", "coordinates": [ -73.735953, 40.724708 ] } },
{ "type": "Feature", "properties": { "resource_id": "facdb:5ae571e9fb354d0d64b7836b65107523", "name": "Kjk Young Scholars Inc", "category": "children-and-youth", "source": "facdb", "is_coad_member": false }, "geometry": { "type": "Point", "coordinates": [ -73.766188, 40.662552 ] } },
{ "type": "Feature", "properties": { "resource_id": "facdb:5c0c9a02dfd39ff37ade397d200972f3", "name": "Rosedale", "category": "libraries-and-community", "source": "facdb", "is_coad_member": false }, "geometry": { "type": "Point", "coordinates": [ -73.739908, 40.659972 ] } },
{ "type": "Feature", "properties": { "resource_id": "facdb:5d4ca29a5765581915f0ca744b942005", "name": "P.S./I.S. 295", "category": "children-and-youth", "source": "facdb", "is_coad_member": false }, "geometry": { "type": "Point", "coordinates": [ -73.731429, 40.72073 ] } },
{ "type": "Feature", "properties": { "resource_id": "facdb:5e4b6828865ff2ba04134da41ee6243e", "name": "New York Edge Inc", "category": "children-and-youth", "source": "facdb", "is_coad_member": false }, "geometry": { "type": "Point", "coordinates": [ -73.727398, 40.744249 ] } },
{ "type": "Feature", "properties": { "resource_id": "facdb:5e64ed7f3b679ef0cb0c244d9fa28f82", "name": "Skilled Nursing Facility Enhanced Support Program)", "category": "mental-health-and-recovery", "source": "facdb", "is_coad_member": false }, "geometry": { "type": "Point", "coordinates": [ -73.731513, 40.741398 ] } },
{ "type": "Feature", "properties": { "resource_id": "facdb:605f19c2193342223748a3329fef8e04", "name": "Glen Oaks Little League Inc", "category": "children-and-youth", "source": "facdb", "is_coad_member": false }, "geometry": { "type": "Point", "coordinates": [ -73.717795, 40.750592 ] } },
{ "type": "Feature", "properties": { "resource_id": "facdb:617e3114018584c75127331860b228b0", "name": "Divas for Social Justice Inc.", "category": "children-and-youth", "source": "facdb", "is_coad_member": false }, "geometry": { "type": "Point", "coordinates": [ -73.743927, 40.672944 ] } },
{ "type": "Feature", "properties": { "resource_id": "facdb:61d2ce113fde4f0d4ba683e88a3499ad", "name": "Hook Creek Park", "category": "parks-and-environment", "source": "facdb", "is_coad_member": false }, "geometry": { "type": "Point", "coordinates": [ -73.742196, 40.648779 ] } },
{ "type": "Feature", "properties": { "resource_id": "facdb:64137089e6a55419967bf8b4d55f41f4", "name": "Laurelton", "category": "libraries-and-community", "source": "facdb", "is_coad_member": false }, "geometry": { "type": "Point", "coordinates": [ -73.74567, 40.67696 ] } },
{ "type": "Feature", "properties": { "resource_id": "facdb:64aa546568ea8038c2bd0a6161bf21d1", "name": "Services Now for Adult Persons Inc", "category": "children-and-youth", "source": "facdb", "is_coad_member": false }, "geometry": { "type": "Point", "coordinates": [ -73.728976, 40.737072 ] } },
{ "type": "Feature", "properties": { "resource_id": "facdb:64aea154800ce7bcfbb983079dd8065d", "name": "The Child Center of NY Inc", "category": "children-and-youth", "source": "facdb", "is_coad_member": false }, "geometry": { "type": "Point", "coordinates": [ -73.74314, 40.672571 ] } },
{ "type": "Feature", "properties": { "resource_id": "facdb:659a778989d097cd619fa1c2f99306e9", "name": "Bellerose Playground", "category": "parks-and-environment", "source": "facdb", "is_coad_member": false }, "geometry": { "type": "Point", "coordinates": [ -73.717949, 40.732782 ] } },
{ "type": "Feature", "properties": { "resource_id": "facdb:6777b07a18e39acd86a5978da17f8061", "name": "Rockaway Theatre Company", "category": "libraries-and-community", "source": "facdb", "is_coad_member": false }, "geometry": { "type": "Point", "coordinates": [ -73.742314, 40.69866 ] } },
{ "type": "Feature", "properties": { "resource_id": "facdb:69d7b8e5a5fd32d89dec136039cc478d", "name": "Abundant Life Learning Center (2)", "category": "children-and-youth", "source": "facdb", "is_coad_member": false }, "geometry": { "type": "Point", "coordinates": [ -73.733622, 40.693338 ] } },
{ "type": "Feature", "properties": { "resource_id": "facdb:6a697ce0c73d845a2493005ce231a166", "name": "Queens Library-Queens Village", "category": "children-and-youth", "source": "facdb", "is_coad_member": false }, "geometry": { "type": "Point", "coordinates": [ -73.739047, 40.719893 ] } },
{ "type": "Feature", "properties": { "resource_id": "facdb:6b99a9e96b7f739bea2d1bd0fd94ea1c", "name": "Project Hope-The New Direction Inc", "category": "children-and-youth", "source": "facdb", "is_coad_member": false }, "geometry": { "type": "Point", "coordinates": [ -73.735007, 40.713306 ] } },
{ "type": "Feature", "properties": { "resource_id": "facdb:6c4b34510bd0f6ef6d4bc648cc614224", "name": "Ace - Assisted Competitive Employment", "category": "mental-health-and-recovery", "source": "facdb", "is_coad_member": false }, "geometry": { "type": "Point", "coordinates": [ -73.751212, 40.714939 ] } },
{ "type": "Feature", "properties": { "resource_id": "facdb:6d19a70aba7d488f4f67c1d4a71b9f2b", "name": "Linden Seventh Day Adventist School", "category": "children-and-youth", "source": "facdb", "is_coad_member": false }, "geometry": { "type": "Point", "coordinates": [ -73.743927, 40.672944 ] } },
{ "type": "Feature", "properties": { "resource_id": "facdb:6fd5af0821009613117137d407d5b299", "name": "Holy Temple Church Inc.", "category": "children-and-youth", "source": "facdb", "is_coad_member": false }, "geometry": { "type": "Point", "coordinates": [ -73.753383, 40.679575 ] } },
{ "type": "Feature", "properties": { "resource_id": "facdb:6fe5a98753006b46daee8aca8f55d092", "name": "Project Clean", "category": "mental-health-and-recovery", "source": "facdb", "is_coad_member": false }, "geometry": { "type": "Point", "coordinates": [ -73.751212, 40.714939 ] } },
{ "type": "Feature", "properties": { "resource_id": "facdb:71a43c19a5e254c55c65d274025125cd", "name": "Vacation Bible School", "category": "children-and-youth", "source": "facdb", "is_coad_member": false }, "geometry": { "type": "Point", "coordinates": [ -73.751771, 40.680086 ] } },
{ "type": "Feature", "properties": { "resource_id": "facdb:72cb4da04161de139aec1124b58f2067", "name": "Engine 311/LADDER 158", "category": "emergency-services", "source": "facdb", "is_coad_member": false }, "geometry": { "type": "Point", "coordinates": [ -73.759841, 40.663583 ] } },
{ "type": "Feature", "properties": { "resource_id": "facdb:74472c24f39c4f60a757326b0362cd07", "name": "PS 251 Queens", "category": "children-and-youth", "source": "facdb", "is_coad_member": false }, "geometry": { "type": "Point", "coordinates": [ -73.759254, 40.665003 ] } },
{ "type": "Feature", "properties": { "resource_id": "facdb:7644aeb077051b9ffde1113968218bf4", "name": "Lij Medical Center Psychiatric Inpatient Unit", "category": "mental-health-and-recovery", "source": "facdb", "is_coad_member": false }, "geometry": { "type": "Point", "coordinates": [ -73.710727, 40.750737 ] } },
{ "type": "Feature", "properties": { "resource_id": "facdb:76483b96a04fab665774189791d99ad7", "name": "Jamaica Queens Wesleyan Church : Jamaica Queens Wesleyan Church", "category": "food-assistance", "source": "facdb", "is_coad_member": false }, "geometry": { "type": "Point", "coordinates": [ -73.742688, 40.675293 ] } },
{ "type": "Feature", "properties": { "resource_id": "facdb:779fb11e0bb0396f1e11584604e1114c", "name": "Samuel Field YM & YWHA Inc", "category": "children-and-youth", "source": "facdb", "is_coad_member": false }, "geometry": { "type": "Point", "coordinates": [ -73.739232, 40.733778 ] } },
{ "type": "Feature", "properties": { "resource_id": "facdb:77a5fcd8244b31979acb34bc509555ef", "name": "Lijmc-Satellite Dialysis Facility", "category": "health-care", "source": "facdb", "is_coad_member": false }, "geometry": { "type": "Point", "coordinates": [ -73.742474, 40.730634 ] } },
{ "type": "Feature", "properties": { "resource_id": "facdb:77aadde9632354d913b621de6154ce6a", "name": "Cross Island YMCA at PS 18", "category": "children-and-youth", "source": "facdb", "is_coad_member": false }, "geometry": { "type": "Point", "coordinates": [ -73.727675, 40.732762 ] } },
{ "type": "Feature", "properties": { "resource_id": "facdb:77e80192cba65455a4fa06896de7c09f", "name": "Nyccc Care Management Agency - Queens", "category": "mental-health-and-recovery", "source": "facdb", "is_coad_member": false }, "geometry": { "type": "Point", "coordinates": [ -73.725707, 40.745696 ] } },
{ "type": "Feature", "properties": { "resource_id": "facdb:77eb34cb4042fd682ce4c44a79004f03", "name": "Taurus Associates : Taurus Associates", "category": "food-assistance", "source": "facdb", "is_coad_member": false }, "geometry": { "type": "Point", "coordinates": [ -73.734376, 40.671936 ] } },
{ "type": "Feature", "properties": { "resource_id": "facdb:79366b21016d3d866edbc0480b183763", "name": "Bellerose Assembly of God", "category": "children-and-youth", "source": "facdb", "is_coad_member": false }, "geometry": { "type": "Point", "coordinates": [ -73.733129, 40.733017 ] } },
{ "type": "Feature", "properties": { "resource_id": "facdb:7a9bd0001af2c6ff609dd60900222793", "name": "Samuel Field YM & YWHA Inc", "category": "children-and-youth", "source": "facdb", "is_coad_member": false }, "geometry": { "type": "Point", "coordinates": [ -73.709322, 40.743901 ] } },
{ "type": "Feature", "properties": { "resource_id": "facdb:7d870ad51f688c8fd113fec0ee00cc23", "name": "Lij Adult Partial Hospitalization Program", "category": "mental-health-and-recovery", "source": "facdb", "is_coad_member": false }, "geometry": { "type": "Point", "coordinates": [ -73.710727, 40.750737 ] } },
{ "type": "Feature", "properties": { "resource_id": "facdb:82741ac365ac7ee9b01ce877dde568d8", "name": "P.S. Q023 at Queens Children Center", "category": "children-and-youth", "source": "facdb", "is_coad_member": false }, "geometry": { "type": "Point", "coordinates": [ -73.733547, 40.738717 ] } },
{ "type": "Feature", "properties": { "resource_id": "facdb:831b8c0d3b108415568310634ccd8c46", "name": "Lifeline Center for Child Development", "category": "mental-health-and-recovery", "source": "facdb", "is_coad_member": false }, "geometry": { "type": "Point", "coordinates": [ -73.733547, 40.738717 ] } },
{ "type": "Feature", "properties": { "resource_id": "facdb:8487492f8aa3ab2111b73b298e53eb14", "name": "PS 176", "category": "children-and-youth", "source": "facdb", "is_coad_member": false }, "geometry": { "type": "Point", "coordinates": [ -73.72973, 40.6849 ] } },
{ "type": "Feature", "properties": { "resource_id": "facdb:8604d44e3a9bff7cb54e717ecde3605e", "name": "Research Foundation of the City University of New York", "category": "children-and-youth", "source": "facdb", "is_coad_member": false }, "geometry": { "type": "Point", "coordinates": [ -73.74314, 40.672571 ] } },
{ "type": "Feature", "properties": { "resource_id": "facdb:8734d0614a76c23a084cf37fbcb31745", "name": "Pmhs", "category": "benefits-and-legal", "source": "facdb", "is_coad_member": false }, "geometry": { "type": "Point", "coordinates": [ -73.740323, 40.659373 ] } },
{ "type": "Feature", "properties": { "resource_id": "facdb:879924491f0a22bb28e42fe18a331403", "name": "Jamaica 103rd Precinct", "category": "benefits-and-legal", "source": "facdb", "is_coad_member": false }, "geometry": { "type": "Point", "coordinates": [ -73.740323, 40.659373 ] } },
{ "type": "Feature", "properties": { "resource_id": "facdb:87ac3bd3b5418c66c261727ec9e9f4d1", "name": "P.S./I.S. 208", "category": "children-and-youth", "source": "facdb", "is_coad_member": false }, "geometry": { "type": "Point", "coordinates": [ -73.727398, 40.744249 ] } },
{ "type": "Feature", "properties": { "resource_id": "facdb:8a2d7f473cf0c9a98a1c83c16a1c2f68", "name": "Services Now for Adult Persons Inc", "category": "older-adults", "source": "facdb", "is_coad_member": false }, "geometry": { "type": "Point", "coordinates": [ -73.728976, 40.737072 ] } },
{ "type": "Feature", "properties": { "resource_id": "facdb:8a952e01064235ab03ac499af86822e6", "name": "New York Junior Tennis League Inc", "category": "children-and-youth", "source": "facdb", "is_coad_member": false }, "geometry": { "type": "Point", "coordinates": [ -73.740363, 40.697616 ] } },
{ "type": "Feature", "properties": { "resource_id": "facdb:8da06b4ad87f43a0240c3195c7cad5ab", "name": "Zmi Foundation at Keiko Studios", "category": "children-and-youth", "source": "facdb", "is_coad_member": false }, "geometry": { "type": "Point", "coordinates": [ -73.746023, 40.715504 ] } },
{ "type": "Feature", "properties": { "resource_id": "facdb:8ebc3ae62509a1e8c66f7f892d18a60b", "name": "Panash Dba Cheers", "category": "children-and-youth", "source": "facdb", "is_coad_member": false }, "geometry": { "type": "Point", "coordinates": [ -73.738479, 40.661892 ] } },
{ "type": "Feature", "properties": { "resource_id": "facdb:8ecfade9cce15fc54ee57dbac162f354", "name": "Services Now for Adult Persons Inc", "category": "older-adults", "source": "facdb", "is_coad_member": false }, "geometry": { "type": "Point", "coordinates": [ -73.732038, 40.674399 ] } },
{ "type": "Feature", "properties": { "resource_id": "facdb:8f5d838bfb0db83350007998d57f852e", "name": "Campus Magnet High School", "category": "health-care", "source": "facdb", "is_coad_member": false }, "geometry": { "type": "Point", "coordinates": [ -73.746214, 40.698409 ] } },
{ "type": "Feature", "properties": { "resource_id": "facdb:92124d2d85b0c47a1d1db9391204bce4", "name": "Wesley Parrott Youth Programs Inc", "category": "children-and-youth", "source": "facdb", "is_coad_member": false }, "geometry": { "type": "Point", "coordinates": [ -73.746214, 40.698409 ] } },
{ "type": "Feature", "properties": { "resource_id": "facdb:922702574a6651600eb1894b00360858", "name": "Amazing Grace Cna Training & Staffin", "category": "education-and-jobs", "source": "facdb", "is_coad_member": false }, "geometry": { "type": "Point", "coordinates": [ -73.745321, 40.716192 ] } },
{ "type": "Feature", "properties": { "resource_id": "facdb:965db44354ecd3bec247e1f274e82380", "name": "Prime Vocational Training Institute", "category": "education-and-jobs", "source": "facdb", "is_coad_member": false }, "geometry": { "type": "Point", "coordinates": [ -73.752055, 40.680148 ] } },
{ "type": "Feature", "properties": { "resource_id": "facdb:9709d58ea9b5baf045e6d7672ce83e58", "name": "Glen Oaks", "category": "libraries-and-community", "source": "facdb", "is_coad_member": false }, "geometry": { "type": "Point", "coordinates": [ -73.714846, 40.745145 ] } },
{ "type": "Feature", "properties": { "resource_id": "facdb:9768795744aff856ff2fa12b53826b0a", "name": "Fegs Beacon 176", "category": "children-and-youth", "source": "facdb", "is_coad_member": false }, "geometry": { "type": "Point", "coordinates": [ -73.72973, 40.6849 ] } },
{ "type": "Feature", "properties": { "resource_id": "facdb:9819f6f49bb80eacbce223403ca7d2ce", "name": "Belt Parkway", "category": "parks-and-environment", "source": "facdb", "is_coad_member": false }, "geometry": { "type": "Point", "coordinates": [ -73.789931, 40.666451 ] } },
{ "type": "Feature", "properties": { "resource_id": "facdb:985549e5526931bd14c8ffcff3fb56da", "name": "Bellaire Playground", "category": "parks-and-environment", "source": "facdb", "is_coad_member": false }, "geometry": { "type": "Point", "coordinates": [ -73.758047, 40.721715 ] } },
{ "type": "Feature", "properties": { "resource_id": "facdb:9876bd626eaa752af2b6873bdf398a95", "name": "Detective William T. Gunn Playground", "category": "parks-and-environment", "source": "facdb", "is_coad_member": false }, "geometry": { "type": "Point", "coordinates": [ -73.731697, 40.732288 ] } },
{ "type": "Feature", "properties": { "resource_id": "facdb:98dda02ef603a60226c1d41d70c7e855", "name": "Brookville Park", "category": "children-and-youth", "source": "facdb", "is_coad_member": false }, "geometry": { "type": "Point", "coordinates": [ -73.746403, 40.661872 ] } },
{ "type": "Feature", "properties": { "resource_id": "facdb:9a62ecebeccc61e166ec0c9bfe211e2f", "name": "Springfield Gardens Vbs", "category": "children-and-youth", "source": "facdb", "is_coad_member": false }, "geometry": { "type": "Point", "coordinates": [ -73.76709, 40.666129 ] } },
{ "type": "Feature", "properties": { "resource_id": "facdb:9c763594edbee233bce769f2d5942f2a", "name": "Ronald McDonald House Charities New", "category": "children-and-youth", "source": "facdb", "is_coad_member": false }, "geometry": { "type": "Point", "coordinates": [ -73.710187, 40.753213 ] } },
{ "type": "Feature", "properties": { "resource_id": "facdb:9cacfc5084a7309a0359d3cd8cff8b66", "name": "Charosa Day Camp", "category": "children-and-youth", "source": "facdb", "is_coad_member": false }, "geometry": { "type": "Point", "coordinates": [ -73.732959, 40.692645 ] } },
{ "type": "Feature", "properties": { "resource_id": "facdb:9e177c4a25fd9bc0726360791c1baa94", "name": "Queen of Peace Residence", "category": "health-care", "source": "facdb", "is_coad_member": false }, "geometry": { "type": "Point", "coordinates": [ -73.736456, 40.706502 ] } },
{ "type": "Feature", "properties": { "resource_id": "facdb:9e4ff65c80982b2aa3fe9477fd2451c9", "name": "Services Now for Adult Persons Inc", "category": "older-adults", "source": "facdb", "is_coad_member": false }, "geometry": { "type": "Point", "coordinates": [ -73.728976, 40.737072 ] } },
{ "type": "Feature", "properties": { "resource_id": "facdb:9fa73dba4b0e2e226ea77cec4e0ba9f5", "name": "Cambria Heights/Springfield- 105 Precinct", "category": "benefits-and-legal", "source": "facdb", "is_coad_member": false }, "geometry": { "type": "Point", "coordinates": [ -73.740323, 40.659373 ] } },
{ "type": "Feature", "properties": { "resource_id": "facdb:9fe36ec6ddd5b743080cad366fab037e", "name": "Queens Library - Rosedale", "category": "children-and-youth", "source": "facdb", "is_coad_member": false }, "geometry": { "type": "Point", "coordinates": [ -73.739908, 40.659972 ] } },
{ "type": "Feature", "properties": { "resource_id": "facdb:a0f09f13ec18ceb72a218e6d82d64a51", "name": "Queens United Middle School", "category": "children-and-youth", "source": "facdb", "is_coad_member": false }, "geometry": { "type": "Point", "coordinates": [ -73.74314, 40.672571 ] } },
{ "type": "Feature", "properties": { "resource_id": "facdb:a171380138ba0da542b54e2c1d7c755e", "name": "Creedmoor Hhcm Smh Cma (Aot)", "category": "mental-health-and-recovery", "source": "facdb", "is_coad_member": false }, "geometry": { "type": "Point", "coordinates": [ -73.731513, 40.741398 ] } },
{ "type": "Feature", "properties": { "resource_id": "facdb:a1a38dda3da51e7168e3619d27b2fd9f", "name": "Idlewild Park", "category": "parks-and-environment", "source": "facdb", "is_coad_member": false }, "geometry": { "type": "Point", "coordinates": [ -73.752766, 40.651304 ] } },
{ "type": "Feature", "properties": { "resource_id": "facdb:a1eec31bcf290c3838a527aacb37902f", "name": "Psychiatric Inpatient Unit", "category": "mental-health-and-recovery", "source": "facdb", "is_coad_member": false }, "geometry": { "type": "Point", "coordinates": [ -73.731513, 40.741398 ] } },
{ "type": "Feature", "properties": { "resource_id": "facdb:a27013a8e5e492b82009d370af0b0630", "name": "Queens Faith Temple SDA Church : Queens Faith Temple Outreach Center", "category": "food-assistance", "source": "facdb", "is_coad_member": false }, "geometry": { "type": "Point", "coordinates": [ -73.751771, 40.680086 ] } },
{ "type": "Feature", "properties": { "resource_id": "facdb:a296164c3da56334c97e9f473552caaa", "name": "Humanities & Arts Magnet High School (29Q498)", "category": "benefits-and-legal", "source": "facdb", "is_coad_member": false }, "geometry": { "type": "Point", "coordinates": [ -73.746214, 40.698409 ] } },
{ "type": "Feature", "properties": { "resource_id": "facdb:a2c1b3fe9a349863181b8fa5dd48bc9c", "name": "Alley Athletic Playground", "category": "parks-and-environment", "source": "facdb", "is_coad_member": false }, "geometry": { "type": "Point", "coordinates": [ -73.736105, 40.739682 ] } },
{ "type": "Feature", "properties": { "resource_id": "facdb:a3430f87b5fb903e5978dbdd18a2e96b", "name": "The Gordon Parks School", "category": "children-and-youth", "source": "facdb", "is_coad_member": false }, "geometry": { "type": "Point", "coordinates": [ -73.736246, 40.675075 ] } },
{ "type": "Feature", "properties": { "resource_id": "facdb:a34c3bc35acafa7157fcb3e061dc6928", "name": "Cross Island YMCA", "category": "children-and-youth", "source": "facdb", "is_coad_member": false }, "geometry": { "type": "Point", "coordinates": [ -73.727675, 40.732762 ] } },
{ "type": "Feature", "properties": { "resource_id": "facdb:a4549593827ae30936d5675ae840b18a", "name": "Laurelton Playground", "category": "parks-and-environment", "source": "facdb", "is_coad_member": false }, "geometry": { "type": "Point", "coordinates": [ -73.736532, 40.670001 ] } },
{ "type": "Feature", "properties": { "resource_id": "facdb:a5f0ecef641f7110bd1e6ebe866d21e4", "name": "Concerned Positive Women of Ngb", "category": "children-and-youth", "source": "facdb", "is_coad_member": false }, "geometry": { "type": "Point", "coordinates": [ -73.740616, 40.695559 ] } },
{ "type": "Feature", "properties": { "resource_id": "facdb:aa2d3c368c0ff6e773972093679ac7c8", "name": "P.S./I.S. 266", "category": "children-and-youth", "source": "facdb", "is_coad_member": false }, "geometry": { "type": "Point", "coordinates": [ -73.728124, 40.745554 ] } },
{ "type": "Feature", "properties": { "resource_id": "facdb:aaf4ce73f409d6fa1d02022baf594b13", "name": "Springfield Park North", "category": "parks-and-environment", "source": "facdb", "is_coad_member": false }, "geometry": { "type": "Point", "coordinates": [ -73.759254, 40.665003 ] } },
{ "type": "Feature", "properties": { "resource_id": "facdb:ad49e6725f2a140d93af574705b75505", "name": "225 Street Malls", "category": "parks-and-environment", "source": "facdb", "is_coad_member": false }, "geometry": { "type": "Point", "coordinates": [ -73.747819, 40.672793 ] } },
{ "type": "Feature", "properties": { "resource_id": "facdb:af1549e9988bd02da1dc2257869b806e", "name": "Jack Breininger Park", "category": "parks-and-environment", "source": "facdb", "is_coad_member": false }, "geometry": { "type": "Point", "coordinates": [ -73.728975, 40.725828 ] } },
{ "type": "Feature", "properties": { "resource_id": "facdb:afdbfe56fa12d2f2f47ac3dfef67b37d", "name": "Springfield Gardens United Methodist", "category": "children-and-youth", "source": "facdb", "is_coad_member": false }, "geometry": { "type": "Point", "coordinates": [ -73.736755, 40.69404 ] } },
{ "type": "Feature", "properties": { "resource_id": "facdb:b1802a36a7188a84592d6d9da166e0fa", "name": "Holy Temple Church Inc. : Holy Temple Church Inc.", "category": "food-assistance", "source": "facdb", "is_coad_member": false }, "geometry": { "type": "Point", "coordinates": [ -73.754991, 40.67709 ] } },
{ "type": "Feature", "properties": { "resource_id": "facdb:b4b6abfaab648df1d1e56af96b14497c", "name": "Hollis Avenue Congregation Church : Hollis Avenue Congregational Church", "category": "food-assistance", "source": "facdb", "is_coad_member": false }, "geometry": { "type": "Point", "coordinates": [ -73.746274, 40.70882 ] } },
{ "type": "Feature", "properties": { "resource_id": "facdb:b64449f8cd02cbc2cb3839e194d1032a", "name": "Bmc Summer Day Camp", "category": "children-and-youth", "source": "facdb", "is_coad_member": false }, "geometry": { "type": "Point", "coordinates": [ -73.736317, 40.716209 ] } },
{ "type": "Feature", "properties": { "resource_id": "facdb:b67d878650f5fdfc6d2ad88522ceff82", "name": "Wayanda Park", "category": "parks-and-environment", "source": "facdb", "is_coad_member": false }, "geometry": { "type": "Point", "coordinates": [ -73.73901, 40.710861 ] } },
{ "type": "Feature", "properties": { "resource_id": "facdb:b78d66f4e5ce7f6d4192f070f89cbe10", "name": "Northeastern Conference Adventist Community Svcs : Queensboro SDA Church", "category": "food-assistance", "source": "facdb", "is_coad_member": false }, "geometry": { "type": "Point", "coordinates": [ -73.731971, 40.718043 ] } },
{ "type": "Feature", "properties": { "resource_id": "facdb:b7eeee1cd88e865720db28d56ff2cd7a", "name": "Cambria Heights", "category": "libraries-and-community", "source": "facdb", "is_coad_member": false }, "geometry": { "type": "Point", "coordinates": [ -73.741137, 40.695745 ] } },
{ "type": "Feature", "properties": { "resource_id": "facdb:b9bdb2f0b2bd5256ed2426a998a35082", "name": "P.S./M.S. 147 Ronald McNair", "category": "children-and-youth", "source": "facdb", "is_coad_member": false }, "geometry": { "type": "Point", "coordinates": [ -73.740363, 40.697616 ] } },
{ "type": "Feature", "properties": { "resource_id": "facdb:bb239c41457bc85fad90cf81c2ad92cc", "name": "Bellerose", "category": "libraries-and-community", "source": "facdb", "is_coad_member": false }, "geometry": { "type": "Point", "coordinates": [ -73.717098, 40.735167 ] } },
{ "type": "Feature", "properties": { "resource_id": "facdb:bb86c611eb7998e3e9d34b1e4f319561", "name": "Agape Church of God", "category": "children-and-youth", "source": "facdb", "is_coad_member": false }, "geometry": { "type": "Point", "coordinates": [ -73.75568, 40.673951 ] } },
{ "type": "Feature", "properties": { "resource_id": "facdb:bc0374b5ef4d07ea9ab33e4b53b7402a", "name": "Art Transforms Inc", "category": "children-and-youth", "source": "facdb", "is_coad_member": false }, "geometry": { "type": "Point", "coordinates": [ -73.740579, 40.67645 ] } },
{ "type": "Feature", "properties": { "resource_id": "facdb:bca90b2f86919bbc2858d7aa576e01c8", "name": "Samuel Field YM & YWHA Inc", "category": "children-and-youth", "source": "facdb", "is_coad_member": false }, "geometry": { "type": "Point", "coordinates": [ -73.739232, 40.733778 ] } },
{ "type": "Feature", "properties": { "resource_id": "facdb:be26752fad6909393966535985a4b039", "name": "Father Reilly Square", "category": "parks-and-environment", "source": "facdb", "is_coad_member": false }, "geometry": { "type": "Point", "coordinates": [ -73.736133, 40.722722 ] } },
{ "type": "Feature", "properties": { "resource_id": "facdb:be55044904375a3d124ef70c4e331e54", "name": "Long Island Jewish Medical Center Otp", "category": "mental-health-and-recovery", "source": "facdb", "is_coad_member": false }, "geometry": { "type": "Point", "coordinates": [ -73.710727, 40.750737 ] } },
{ "type": "Feature", "properties": { "resource_id": "facdb:be80b7ba837cc5273ba4df1e494d7829", "name": "Queens South Task Force", "category": "emergency-services", "source": "facdb", "is_coad_member": false }, "geometry": { "type": "Point", "coordinates": [ -73.734144, 40.666286 ] } },
{ "type": "Feature", "properties": { "resource_id": "facdb:bf232b7e3aa4d7a85bf6944001ef3591", "name": "EMS Station 54", "category": "emergency-services", "source": "facdb", "is_coad_member": false }, "geometry": { "type": "Point", "coordinates": [ -73.746674, 40.678523 ] } },
{ "type": "Feature", "properties": { "resource_id": "facdb:bfccf46408b477f7825d9266be7fdd52", "name": "Mentone Playground", "category": "parks-and-environment", "source": "facdb", "is_coad_member": false }, "geometry": { "type": "Point", "coordinates": [ -73.742884, 40.666231 ] } },
{ "type": "Feature", "properties": { "resource_id": "facdb:c026f1121ec7ca46cf45faa1084f5ddf", "name": "Queens Adult Home Assessment Dollars", "category": "mental-health-and-recovery", "source": "facdb", "is_coad_member": false }, "geometry": { "type": "Point", "coordinates": [ -73.728976, 40.737072 ] } },
{ "type": "Feature", "properties": { "resource_id": "facdb:c078952c51c29bab6e1ac3e3d791c598", "name": "Montbellier Park", "category": "parks-and-environment", "source": "facdb", "is_coad_member": false }, "geometry": { "type": "Point", "coordinates": [ -73.756407, 40.67402 ] } },
{ "type": "Feature", "properties": { "resource_id": "facdb:c0d8d57c8ac643d2633de4bfd41de14e", "name": "Blau-Weiss Gottschee Inc", "category": "children-and-youth", "source": "facdb", "is_coad_member": false }, "geometry": { "type": "Point", "coordinates": [ -73.728867, 40.744466 ] } },
{ "type": "Feature", "properties": { "resource_id": "facdb:c15ed0c716a2946e7e7cff6a872b5e4d", "name": "Peer Counseling Academy", "category": "mental-health-and-recovery", "source": "facdb", "is_coad_member": false }, "geometry": { "type": "Point", "coordinates": [ -73.728976, 40.737072 ] } },
{ "type": "Feature", "properties": { "resource_id": "facdb:c1a0047e975ea378f18b7261cf8bd28b", "name": "Samuel Field YM & YWHA Inc", "category": "children-and-youth", "source": "facdb", "is_coad_member": false }, "geometry": { "type": "Point", "coordinates": [ -73.713247, 40.741653 ] } },
{ "type": "Feature", "properties": { "resource_id": "facdb:c1b5d62fa042695eada2150f0df422cf", "name": "Douglaston and Little Neck Historical Society", "category": "libraries-and-community", "source": "facdb", "is_coad_member": false }, "geometry": { "type": "Point", "coordinates": [ -73.740611, 40.702242 ] } },
{ "type": "Feature", "properties": { "resource_id": "facdb:c3c736314002d6ea8a7e08ad4950dfb7", "name": "Cambria Playground", "category": "parks-and-environment", "source": "facdb", "is_coad_member": false }, "geometry": { "type": "Point", "coordinates": [ -73.74293, 40.689142 ] } },
{ "type": "Feature", "properties": { "resource_id": "facdb:c3f052296eb7ceb1991e7ba6dc2386a3", "name": "Collaborative Arts Middle School", "category": "children-and-youth", "source": "facdb", "is_coad_member": false }, "geometry": { "type": "Point", "coordinates": [ -73.759254, 40.665003 ] } },
{ "type": "Feature", "properties": { "resource_id": "facdb:c44320215fcf1bce3470e2a3db378326", "name": "P811Q at Q147", "category": "children-and-youth", "source": "facdb", "is_coad_member": false }, "geometry": { "type": "Point", "coordinates": [ -73.740363, 40.697616 ] } },
{ "type": "Feature", "properties": { "resource_id": "facdb:c4f10be3d6146079c2025d40c635e7cb", "name": "Usda-Ceo P224Q at PS 115 Glen Oaks", "category": "children-and-youth", "source": "facdb", "is_coad_member": false }, "geometry": { "type": "Point", "coordinates": [ -73.709322, 40.743901 ] } },
{ "type": "Feature", "properties": { "resource_id": "facdb:c5bd8738073aee528683aa2dbb3e408e", "name": "Conscientious Musical Revues", "category": "older-adults", "source": "facdb", "is_coad_member": false }, "geometry": { "type": "Point", "coordinates": [ -73.74314, 40.672571 ] } },
{ "type": "Feature", "properties": { "resource_id": "facdb:c7081ea2891d01766674ad156b458aed", "name": "New Glen Oaks Nursing Home, Inc", "category": "health-care", "source": "facdb", "is_coad_member": false }, "geometry": { "type": "Point", "coordinates": [ -73.71143, 40.746958 ] } },
{ "type": "Feature", "properties": { "resource_id": "facdb:c7aedb18d28fe3a2326d844a422787e2", "name": "100 Suits - 105th Precinct", "category": "benefits-and-legal", "source": "facdb", "is_coad_member": false }, "geometry": { "type": "Point", "coordinates": [ -73.74269, 40.676583 ] } },
{ "type": "Feature", "properties": { "resource_id": "facdb:c8860139ce82d1bb899586dbd56fa43e", "name": "Our Lady of Lourdes Outreach : Bffy - Our Lady of Lourdes Outreach", "category": "food-assistance", "source": "facdb", "is_coad_member": false }, "geometry": { "type": "Point", "coordinates": [ -73.736438, 40.722977 ] } },
{ "type": "Feature", "properties": { "resource_id": "facdb:c8bc6625a22939722d72082163d21cb0", "name": "Parker Jewish Institute for Health Care & Rehab", "category": "health-care", "source": "facdb", "is_coad_member": false }, "geometry": { "type": "Point", "coordinates": [ -73.707539, 40.755615 ] } },
{ "type": "Feature", "properties": { "resource_id": "facdb:c8e8df3ebde914010eee71cf614bf719", "name": "Jean Nuzzi Intermediate School (29Q109)", "category": "children-and-youth", "source": "facdb", "is_coad_member": false }, "geometry": { "type": "Point", "coordinates": [ -73.746545, 40.720425 ] } },
{ "type": "Feature", "properties": { "resource_id": "facdb:c95038fcb31f6e248c85e0761862797d", "name": "Abd School for Nurse Aides", "category": "education-and-jobs", "source": "facdb", "is_coad_member": false }, "geometry": { "type": "Point", "coordinates": [ -73.734951, 40.718179 ] } },
{ "type": "Feature", "properties": { "resource_id": "facdb:cb15c6093534cd3994da518d3530669b", "name": "Little Flowers Early Childhoo Inc.", "category": "children-and-youth", "source": "facdb", "is_coad_member": false }, "geometry": { "type": "Point", "coordinates": [ -73.735869, 40.674154 ] } },
{ "type": "Feature", "properties": { "resource_id": "facdb:cb33d77891ba1537c54edaa4bbd3e0f7", "name": "Northeastern Conference Adventist Community Svcs : Mt. Sinai SDA Church", "category": "food-assistance", "source": "facdb", "is_coad_member": false }, "geometry": { "type": "Point", "coordinates": [ -73.739822, 40.72104 ] } },
{ "type": "Feature", "properties": { "resource_id": "facdb:cc8f430ffc802a4b185599501349ef56", "name": "YMCA of Greater New York", "category": "children-and-youth", "source": "facdb", "is_coad_member": false }, "geometry": { "type": "Point", "coordinates": [ -73.727675, 40.732762 ] } },
{ "type": "Feature", "properties": { "resource_id": "facdb:cccc6992cf62c5337b6956b6c33be1e6", "name": "Irwin Altman Middle School 172 (26Q172)", "category": "children-and-youth", "source": "facdb", "is_coad_member": false }, "geometry": { "type": "Point", "coordinates": [ -73.713247, 40.741653 ] } },
{ "type": "Feature", "properties": { "resource_id": "facdb:cd7455e925f14fd754d44f5d5704861c", "name": "Hempstead Bench Spread", "category": "parks-and-environment", "source": "facdb", "is_coad_member": false }, "geometry": { "type": "Point", "coordinates": [ -73.729613, 40.710482 ] } },
{ "type": "Feature", "properties": { "resource_id": "facdb:cd9a84c37b91b8e19bd6042b5ee1a69e", "name": "Samuel Field YM & YWHA Inc", "category": "children-and-youth", "source": "facdb", "is_coad_member": false }, "geometry": { "type": "Point", "coordinates": [ -73.728124, 40.745554 ] } },
{ "type": "Feature", "properties": { "resource_id": "facdb:cdc7276d082c46cec206d75a8bc609c6", "name": "Creedmoor Pc - Hhcm", "category": "mental-health-and-recovery", "source": "facdb", "is_coad_member": false }, "geometry": { "type": "Point", "coordinates": [ -73.731513, 40.741398 ] } },
{ "type": "Feature", "properties": { "resource_id": "facdb:cebfa492b5b735e69a615f10626b10bb", "name": "No Doubt Day Camp", "category": "children-and-youth", "source": "facdb", "is_coad_member": false }, "geometry": { "type": "Point", "coordinates": [ -73.739453, 40.695149 ] } },
{ "type": "Feature", "properties": { "resource_id": "facdb:cef2a2d7005e6d223ed3d4df46f5b9b7", "name": "Hillside Playground", "category": "parks-and-environment", "source": "facdb", "is_coad_member": false }, "geometry": { "type": "Point", "coordinates": [ -73.713184, 40.741 ] } },
{ "type": "Feature", "properties": { "resource_id": "facdb:cfce0b1af7c8ce2a0ce2c9a84c9f7122", "name": "Prince of Peace", "category": "children-and-youth", "source": "facdb", "is_coad_member": false }, "geometry": { "type": "Point", "coordinates": [ -73.732526, 40.698985 ] } },
{ "type": "Feature", "properties": { "resource_id": "facdb:cfd189cd2ef5eca9665519b2b26cfef7", "name": "Nyccc Queens Lower School Day Treatment (Qdt)", "category": "mental-health-and-recovery", "source": "facdb", "is_coad_member": false }, "geometry": { "type": "Point", "coordinates": [ -73.725707, 40.745696 ] } },
{ "type": "Feature", "properties": { "resource_id": "facdb:cff2cd7890b3c781f02ce7bef2e1b2c5", "name": "Volunteers for Springfield Park, Inc", "category": "children-and-youth", "source": "facdb", "is_coad_member": false }, "geometry": { "type": "Point", "coordinates": [ -73.781824, 40.663802 ] } },
{ "type": "Feature", "properties": { "resource_id": "facdb:d0e6f70f5d29bbc3338c61dd631313ce", "name": "Alpha Phi Alpha Senior Citizens Center Inc", "category": "older-adults", "source": "facdb", "is_coad_member": false }, "geometry": { "type": "Point", "coordinates": [ -73.739761, 40.695294 ] } },
{ "type": "Feature", "properties": { "resource_id": "facdb:d157273e40188f9d44a38b08f245a703", "name": "Eihab Human Services  Inc.", "category": "disability-and-access", "source": "facdb", "is_coad_member": false }, "geometry": { "type": "Point", "coordinates": [ -73.775462, 40.666862 ] } },
{ "type": "Feature", "properties": { "resource_id": "facdb:d412919972d538539d600780bb81a612", "name": "NYPD 105th Precinct Station House", "category": "emergency-services", "source": "facdb", "is_coad_member": false }, "geometry": { "type": "Point", "coordinates": [ -73.735236, 40.726176 ] } },
{ "type": "Feature", "properties": { "resource_id": "facdb:d4ea73948c31a5af1d1c2e59edd98fbf", "name": "Camp Bethel", "category": "children-and-youth", "source": "facdb", "is_coad_member": false }, "geometry": { "type": "Point", "coordinates": [ -73.740616, 40.695559 ] } },
{ "type": "Feature", "properties": { "resource_id": "facdb:d558fae3a5186c22f4ff7e44e19c87da", "name": "Long Island Jewish Medical Center", "category": "health-care", "source": "facdb", "is_coad_member": false }, "geometry": { "type": "Point", "coordinates": [ -73.707667, 40.754511 ] } },
{ "type": "Feature", "properties": { "resource_id": "facdb:d6785f9b47bb0386683bd0d9b43a56b3", "name": "Colonial Farmhouse Restoration Society of Bellerose, Inc.", "category": "libraries-and-community", "source": "facdb", "is_coad_member": false }, "geometry": { "type": "Point", "coordinates": [ -73.720179, 40.748417 ] } },
{ "type": "Feature", "properties": { "resource_id": "facdb:d6c5e3caeb9317b14eda8a45511223ed", "name": "Welllife Network Inc.", "category": "mental-health-and-recovery", "source": "facdb", "is_coad_member": false }, "geometry": { "type": "Point", "coordinates": [ -73.751212, 40.714939 ] } },
{ "type": "Feature", "properties": { "resource_id": "facdb:d9c6a48066c5c3b4399e7c5ad93fde84", "name": "Permanent Housing & Act", "category": "mental-health-and-recovery", "source": "facdb", "is_coad_member": false }, "geometry": { "type": "Point", "coordinates": [ -73.751212, 40.714939 ] } },
{ "type": "Feature", "properties": { "resource_id": "facdb:da480d4087e8331dcb10aac74b13dac1", "name": "St. John's Episcopal Church", "category": "children-and-youth", "source": "facdb", "is_coad_member": false }, "geometry": { "type": "Point", "coordinates": [ -73.757723, 40.674201 ] } },
{ "type": "Feature", "properties": { "resource_id": "facdb:dd632fcf310f7f8c28b881e9c761d44f", "name": "Glen Oaks Library", "category": "children-and-youth", "source": "facdb", "is_coad_member": false }, "geometry": { "type": "Point", "coordinates": [ -73.714846, 40.745145 ] } },
{ "type": "Feature", "properties": { "resource_id": "facdb:ddc667da3a72ad9b9585e46f2b75bcc5", "name": "NYC Parks-Castlewood Mini Pool", "category": "children-and-youth", "source": "facdb", "is_coad_member": false }, "geometry": { "type": "Point", "coordinates": [ -73.72221, 40.739105 ] } },
{ "type": "Feature", "properties": { "resource_id": "facdb:df4830c13012d2ea361bc5f099f7d7d3", "name": "Martin Van Buren High School", "category": "children-and-youth", "source": "facdb", "is_coad_member": false }, "geometry": { "type": "Point", "coordinates": [ -73.739232, 40.733778 ] } },
{ "type": "Feature", "properties": { "resource_id": "facdb:e041161662a9e2095e14420669b7ebc9", "name": "Hempstead Ballfield", "category": "parks-and-environment", "source": "facdb", "is_coad_member": false }, "geometry": { "type": "Point", "coordinates": [ -73.728768, 40.710743 ] } },
{ "type": "Feature", "properties": { "resource_id": "facdb:e0e1f1b2a4001f86f8fd88aae2fb921f", "name": "Mobile Integration Team", "category": "mental-health-and-recovery", "source": "facdb", "is_coad_member": false }, "geometry": { "type": "Point", "coordinates": [ -73.725707, 40.745696 ] } },
{ "type": "Feature", "properties": { "resource_id": "facdb:e26bba541ac5ab7402a92a1b5e5f3075", "name": "Cornell Farmhouse", "category": "parks-and-environment", "source": "facdb", "is_coad_member": false }, "geometry": { "type": "Point", "coordinates": [ -73.720588, 40.748275 ] } },
{ "type": "Feature", "properties": { "resource_id": "facdb:e50e5bc2bc74cebadbd13d0310694d7d", "name": "Laurelton Parkway", "category": "parks-and-environment", "source": "facdb", "is_coad_member": false }, "geometry": { "type": "Point", "coordinates": [ -73.731757, 40.677402 ] } },
{ "type": "Feature", "properties": { "resource_id": "facdb:e5b7165e591cbf1efa39dd0df159964c", "name": "Linden Seventh Day Adventist Church", "category": "children-and-youth", "source": "facdb", "is_coad_member": false }, "geometry": { "type": "Point", "coordinates": [ -73.743927, 40.672944 ] } },
{ "type": "Feature", "properties": { "resource_id": "facdb:e5d80c3d1a549e1d786c67c56ce97330", "name": "Services Now for Adult Persons Inc", "category": "older-adults", "source": "facdb", "is_coad_member": false }, "geometry": { "type": "Point", "coordinates": [ -73.728976, 40.737072 ] } },
{ "type": "Feature", "properties": { "resource_id": "facdb:e67b3e7842db4fad0ad6eca669619bbe", "name": "Lebanon Day Camp", "category": "children-and-youth", "source": "facdb", "is_coad_member": false }, "geometry": { "type": "Point", "coordinates": [ -73.745873, 40.67988 ] } },
{ "type": "Feature", "properties": { "resource_id": "facdb:e825368e3b2d0e6b0b81c57c2aca6a1f", "name": "The James J. Ambrose School", "category": "children-and-youth", "source": "facdb", "is_coad_member": false }, "geometry": { "type": "Point", "coordinates": [ -73.709322, 40.743901 ] } },
{ "type": "Feature", "properties": { "resource_id": "facdb:e8a3610f29b99313f97ef30a22fc1b62", "name": "Reading Partners", "category": "children-and-youth", "source": "facdb", "is_coad_member": false }, "geometry": { "type": "Point", "coordinates": [ -73.734508, 40.727117 ] } },
{ "type": "Feature", "properties": { "resource_id": "facdb:e8e96ad2cf4eebf5d7efb03e2c00cf39", "name": "Homes for the Homeless Inc", "category": "children-and-youth", "source": "facdb", "is_coad_member": false }, "geometry": { "type": "Point", "coordinates": [ -73.769418, 40.657922 ] } },
{ "type": "Feature", "properties": { "resource_id": "facdb:e959c2997a4e10fd0d59868fc0fe46fd", "name": "Queens Mid-Childhood Clinic", "category": "mental-health-and-recovery", "source": "facdb", "is_coad_member": false }, "geometry": { "type": "Point", "coordinates": [ -73.725707, 40.745696 ] } },
{ "type": "Feature", "properties": { "resource_id": "facdb:ece138e12f02f4ca717d77aeb639e5bd", "name": "Federation of Organizations for the New York State Mentally", "category": "mental-health-and-recovery", "source": "facdb", "is_coad_member": false }, "geometry": { "type": "Point", "coordinates": [ -73.731513, 40.741398 ] } },
{ "type": "Feature", "properties": { "resource_id": "facdb:ee0c553997926368822ca5f36edcfb5c", "name": "Benjamin Franklin High School for Finance  Information Technology", "category": "children-and-youth", "source": "facdb", "is_coad_member": false }, "geometry": { "type": "Point", "coordinates": [ -73.746214, 40.698409 ] } },
{ "type": "Feature", "properties": { "resource_id": "facdb:ee413be1dfcc89ea2f6284d7a9354d67", "name": "Queens Children's Inpatient Unit", "category": "mental-health-and-recovery", "source": "facdb", "is_coad_member": false }, "geometry": { "type": "Point", "coordinates": [ -73.725707, 40.745696 ] } },
{ "type": "Feature", "properties": { "resource_id": "facdb:ee539d5c89aab897b3a0d7f1ab4e8e51", "name": "Serenity Human Services  Inc.", "category": "disability-and-access", "source": "facdb", "is_coad_member": false }, "geometry": { "type": "Point", "coordinates": [ -73.732038, 40.674399 ] } },
{ "type": "Feature", "properties": { "resource_id": "facdb:eefdce1e876d32ae55e97c385db985e0", "name": "Ace-Embury United", "category": "children-and-youth", "source": "facdb", "is_coad_member": false }, "geometry": { "type": "Point", "coordinates": [ -73.734038, 40.719843 ] } },
{ "type": "Feature", "properties": { "resource_id": "facdb:ef617b0b230e66841b447c78a92e39d1", "name": "Engine 314", "category": "emergency-services", "source": "facdb", "is_coad_member": false }, "geometry": { "type": "Point", "coordinates": [ -73.740791, 40.664088 ] } },
{ "type": "Feature", "properties": { "resource_id": "facdb:f26ced118952799c72635451fda7aa5b", "name": "Charosa Foundation Corporation", "category": "libraries-and-community", "source": "facdb", "is_coad_member": false }, "geometry": { "type": "Point", "coordinates": [ -73.737451, 40.698879 ] } },
{ "type": "Feature", "properties": { "resource_id": "facdb:f2e29c930e030de9c66a61f2e16b4016", "name": "Mobile Integration Team", "category": "mental-health-and-recovery", "source": "facdb", "is_coad_member": false }, "geometry": { "type": "Point", "coordinates": [ -73.731513, 40.741398 ] } },
{ "type": "Feature", "properties": { "resource_id": "facdb:f3732edb8583b1a71cc6563a10f3096c", "name": "Legros Cultural Arts, Inc.", "category": "libraries-and-community", "source": "facdb", "is_coad_member": false }, "geometry": { "type": "Point", "coordinates": [ -73.756471, 40.659599 ] } },
{ "type": "Feature", "properties": { "resource_id": "facdb:f373d308be3cabf2ae128397ec88299e", "name": "Queens Village", "category": "libraries-and-community", "source": "facdb", "is_coad_member": false }, "geometry": { "type": "Point", "coordinates": [ -73.739047, 40.719893 ] } },
{ "type": "Feature", "properties": { "resource_id": "facdb:f4ba94a0607836c151338b56d5295565", "name": "South Gate Mall", "category": "parks-and-environment", "source": "facdb", "is_coad_member": false }, "geometry": { "type": "Point", "coordinates": [ -73.758589, 40.67321 ] } },
{ "type": "Feature", "properties": { "resource_id": "facdb:f68c41fb4a71b3d78cf192c9cfa9f0e8", "name": "Vets Inc : Vets Inc", "category": "food-assistance", "source": "facdb", "is_coad_member": false }, "geometry": { "type": "Point", "coordinates": [ -73.756616, 40.668094 ] } },
{ "type": "Feature", "properties": { "resource_id": "facdb:f799b554a45c592023ac4b4ee2167d57", "name": "Queens Public Library", "category": "government-offices", "source": "facdb", "is_coad_member": false }, "geometry": { "type": "Point", "coordinates": [ -73.782485, 40.664309 ] } },
{ "type": "Feature", "properties": { "resource_id": "facdb:f8b36f4a6309ba9c584c58e8c876831d", "name": "Windsor Park Rehab & Nursing Center", "category": "health-care", "source": "facdb", "is_coad_member": false }, "geometry": { "type": "Point", "coordinates": [ -73.752778, 40.72517 ] } },
{ "type": "Feature", "properties": { "resource_id": "facdb:f8b50a2a48291a03837a97a1916ec98b", "name": "P.S./ M.S. 138 Sunrise", "category": "children-and-youth", "source": "facdb", "is_coad_member": false }, "geometry": { "type": "Point", "coordinates": [ -73.734462, 40.659887 ] } },
{ "type": "Feature", "properties": { "resource_id": "facdb:f9d4c20117d55246259ef77123b5f987", "name": "Vocational Employment Program", "category": "mental-health-and-recovery", "source": "facdb", "is_coad_member": false }, "geometry": { "type": "Point", "coordinates": [ -73.728976, 40.737072 ] } },
{ "type": "Feature", "properties": { "resource_id": "facdb:fa3363e722a9be905becf3782577e1c0", "name": "Queens Village-Jamaica Wellness and Recovery Center", "category": "mental-health-and-recovery", "source": "facdb", "is_coad_member": false }, "geometry": { "type": "Point", "coordinates": [ -73.728976, 40.737072 ] } },
{ "type": "Feature", "properties": { "resource_id": "facdb:fa6cd63fb492daad0b3370abb9674549", "name": "Queens Village Veterans Plaza", "category": "parks-and-environment", "source": "facdb", "is_coad_member": false }, "geometry": { "type": "Point", "coordinates": [ -73.735854, 40.718046 ] } },
{ "type": "Feature", "properties": { "resource_id": "facdb:fabb3f1b1f90655d5bdd2e5408b3ba59", "name": "Brookville Park", "category": "children-and-youth", "source": "facdb", "is_coad_member": false }, "geometry": { "type": "Point", "coordinates": [ -73.746403, 40.661872 ] } },
{ "type": "Feature", "properties": { "resource_id": "facdb:ff1ca36a20585a0f53c85b0dd8004f94", "name": "Daniel O'Connell", "category": "children-and-youth", "source": "facdb", "is_coad_member": false }, "geometry": { "type": "Point", "coordinates": [ -73.75058, 40.669505 ] } },
{ "type": "Feature", "properties": { "resource_id": "facdb:ff288fc9a414760d92b30ab7db4568e6", "name": "Safety City Site", "category": "emergency-services", "source": "facdb", "is_coad_member": false }, "geometry": { "type": "Point", "coordinates": [ -73.731433, 40.666375 ] } },
{ "type": "Feature", "properties": { "resource_id": "facdb:ff38167f4e2904aba09f92e6febef5b8", "name": "Tsiny Supphsing/Adult Home Sh Queens - Inreach", "category": "mental-health-and-recovery", "source": "facdb", "is_coad_member": false }, "geometry": { "type": "Point", "coordinates": [ -73.726035, 40.726342 ] } },
{ "type": "Feature", "properties": { "resource_id": "facdb:ff4ac6ca880e7dd5ad5db09ddd06c3f4", "name": "Pat Williams Playground", "category": "parks-and-environment", "source": "facdb", "is_coad_member": false }, "geometry": { "type": "Point", "coordinates": [ -73.729518, 40.713035 ] } },
{ "type": "Feature", "properties": { "resource_id": "qnpd:community-options-new-york", "name": "Community Options New York", "category": "benefits-and-legal", "source": "qnpd", "is_coad_member": false }, "geometry": { "type": "Point", "coordinates": [ -73.738012, 40.71368 ] } },
{ "type": "Feature", "properties": { "resource_id": "qnpd:destiny-bound", "name": "Destiny Bound", "category": "children-and-youth", "source": "qnpd", "is_coad_member": false }, "geometry": { "type": "Point", "coordinates": [ -73.713227, 40.732632 ] } },
{ "type": "Feature", "properties": { "resource_id": "qnpd:divas-for-social-justice", "name": "DIVAS for Social Justice", "category": "education-and-jobs", "source": "qnpd", "is_coad_member": false }, "geometry": { "type": "Point", "coordinates": [ -73.739686, 40.679861 ] } },
{ "type": "Feature", "properties": { "resource_id": "qnpd:dsi-international-inc--1", "name": "DSI International Inc", "category": "immigration-and-language", "source": "qnpd", "is_coad_member": false }, "geometry": { "type": "Point", "coordinates": [ -73.742166, 40.717003 ] } },
{ "type": "Feature", "properties": { "resource_id": "qnpd:dsi-international-inc--2", "name": "DSI International Inc", "category": "food-assistance", "source": "qnpd", "is_coad_member": false }, "geometry": { "type": "Point", "coordinates": [ -73.742166, 40.717003 ] } },
{ "type": "Feature", "properties": { "resource_id": "qnpd:elite-community-foundation", "name": "Elite Community Foundation", "category": "education-and-jobs", "source": "qnpd", "is_coad_member": false }, "geometry": { "type": "Point", "coordinates": [ -73.751212, 40.679319 ] } },
{ "type": "Feature", "properties": { "resource_id": "qnpd:krishti-inc", "name": "Krishti Inc", "category": "libraries-and-community", "source": "qnpd", "is_coad_member": false }, "geometry": { "type": "Point", "coordinates": [ -73.742995, 40.721598 ] } },
{ "type": "Feature", "properties": { "resource_id": "qnpd:laurelton-lions-club", "name": "Laurelton Lions Club", "category": "government-offices", "source": "qnpd", "is_coad_member": false }, "geometry": { "type": "Point", "coordinates": [ -73.756612, 40.668095 ] } },
{ "type": "Feature", "properties": { "resource_id": "qnpd:persaud-community-affairs-pantry-inc", "name": "Persaud Community Affairs Pantry Inc", "category": "food-assistance", "source": "qnpd", "is_coad_member": false }, "geometry": { "type": "Point", "coordinates": [ -73.744867, 40.681471 ] } },
{ "type": "Feature", "properties": { "resource_id": "qnpd:queens-county-farm-museum--1", "name": "Queens County Farm Museum", "category": "education-and-jobs", "source": "qnpd", "is_coad_member": false }, "geometry": { "type": "Point", "coordinates": [ -73.720186, 40.748426 ] } },
{ "type": "Feature", "properties": { "resource_id": "qnpd:queens-county-farm-museum--2", "name": "Queens County Farm Museum", "category": "parks-and-environment", "source": "qnpd", "is_coad_member": false }, "geometry": { "type": "Point", "coordinates": [ -73.720186, 40.748426 ] } },
{ "type": "Feature", "properties": { "resource_id": "qnpd:service-now-for-adult-persons-inc", "name": "Service Now for Adult Persons Inc.", "category": "older-adults", "source": "qnpd", "is_coad_member": false }, "geometry": { "type": "Point", "coordinates": [ -73.72898, 40.737074 ] } },
{ "type": "Feature", "properties": { "resource_id": "qnpd:speakhire", "name": "Speakhire", "category": "education-and-jobs", "source": "qnpd", "is_coad_member": false }, "geometry": { "type": "Point", "coordinates": [ -73.707239, 40.735125 ] } },
{ "type": "Feature", "properties": { "resource_id": "qnpd:springfield-gardens-church-of-the-nazarene", "name": "Springfield Gardens Church of the Nazarene", "category": "libraries-and-community", "source": "qnpd", "is_coad_member": false }, "geometry": { "type": "Point", "coordinates": [ -73.767091, 40.666129 ] } },
{ "type": "Feature", "properties": { "resource_id": "qnpd:unisphere-film-festival-inc", "name": "Unisphere Film Festival Inc.", "category": "libraries-and-community", "source": "qnpd", "is_coad_member": false }, "geometry": { "type": "Point", "coordinates": [ -73.710471, 40.748634 ] } },
{ "type": "Feature", "properties": { "resource_id": "qnpd:volunteers-for-springfield-park-inc", "name": "Volunteers for Springfield Park, Inc.", "category": "benefits-and-legal", "source": "qnpd", "is_coad_member": false }, "geometry": { "type": "Point", "coordinates": [ -73.781812, 40.663765 ] } },
{ "type": "Feature", "properties": { "resource_id": "qnpd:word-of-faith", "name": "Word of Faith", "category": "libraries-and-community", "source": "qnpd", "is_coad_member": false }, "geometry": { "type": "Point", "coordinates": [ -73.752102, 40.714676 ] } }
]
}
